{"type":"Topology","arcs":[[[4370,3264],[16,-90],[25,-40],[-47,-83],[-71,25],[-16,-55],[-36,-6],[19,-104],[-40,-45],[-67,-15],[-2,-103],[-15,-50],[1,-77],[22,-21],[-15,-52],[29,-73],[12,-99],[-47,-61],[-8,-72],[-70,-32],[-27,-39]],[[4033,2172],[-45,35],[-71,-12],[-103,26],[-50,57],[-83,-28],[-91,45],[-107,19],[-48,19],[11,55],[-43,25],[-85,-55],[-18,46],[-92,-73],[-49,27],[-20,53],[17,30],[-40,85],[-132,1],[-63,73],[-50,-10]],[[2871,2590],[-24,4]],[[2847,2594],[80,74],[48,-18],[26,77],[-34,22],[29,59],[-19,56],[122,-10],[68,-19],[110,47],[-2,58],[41,45],[14,47],[-19,35]],[[3311,3067],[58,21],[35,40],[4,73],[28,20]],[[3436,3221],[56,-21],[32,-66],[79,-9],[51,-22],[145,-34],[110,-2],[98,70],[30,69],[105,-10],[54,32],[101,21],[43,27]],[[4340,3276],[30,-12]],[[3235,974],[-11,-30],[11,-81],[-10,-56],[23,-63],[-19,-62],[7,-79],[-23,-70],[30,-55],[97,-48],[36,-38],[-74,-51],[-26,-87],[-45,-14],[-50,-77],[-47,-33],[-40,-67],[-139,10],[-21,27],[-95,20],[-75,1],[-69,-21],[-26,-71],[-57,-29],[-112,20],[-68,108],[-79,-1],[-20,53],[-72,59],[-49,-58],[-122,-22],[-36,-24],[-69,5],[-38,31],[3,40],[-51,53],[-32,63],[9,54],[-19,48],[-76,37],[-16,34]],[[1765,500],[-10,86],[17,118],[48,43]],[[1820,747],[46,37],[64,10],[36,28],[-11,36],[117,10],[28,16],[46,75],[53,28],[-14,59],[12,47],[55,-4],[50,43],[-25,40],[68,71],[110,47],[56,-40],[30,30]],[[2541,1280],[118,-6],[64,-52],[36,-9],[27,-102],[-9,-24],[102,-31],[1,-64],[36,-69],[-5,-39],[78,-24],[44,25],[39,84],[71,2],[70,29],[22,-26]],[[2162,4310],[-104,-29],[-63,-36],[-39,-41],[-115,-61],[-31,-47],[-58,-11],[2,-53],[32,-24],[-70,-54],[22,-58],[-27,-101],[37,-9],[5,-78],[-34,-70],[-38,-8],[-18,-42],[31,-92],[-51,-76],[33,-65],[-67,-98],[3,-45],[-35,-47],[-54,-25],[-37,-50]],[[1486,3090],[-42,47],[-78,58],[3,33],[-95,11],[-48,59],[-57,-5],[-62,-34],[-26,23],[-59,-1],[-40,43],[-42,-11],[-87,66],[-7,54],[-41,66],[-43,-37],[-34,35],[5,74],[50,71],[-3,59],[17,99],[-36,112],[61,79],[-23,52],[-85,27],[-39,28],[-45,-10],[-93,19],[-40,-8],[-55,20],[-41,58],[-78,24],[-65,-21],[-17,24],[-174,98],[-57,58],[62,102],[28,105],[27,23],[83,153],[95,213],[77,100],[36,-15],[113,104],[46,77],[46,-7],[78,73],[-9,15],[49,85],[115,96],[58,37],[68,133]],[[982,5654],[31,19],[84,-1],[26,54],[134,-15],[1,33]],[[1258,5744],[6,-41],[-26,-87],[-37,-42],[146,-14],[46,-101],[-23,-51],[30,-25],[52,1],[11,58],[46,53],[40,84],[-55,47],[-42,99],[-25,17],[36,51]],[[1463,5793],[23,-30],[95,-22],[13,-42],[81,-55],[14,-56],[31,-4],[96,-119],[-16,-56],[64,-21],[68,18],[87,-33],[8,-86],[16,-34],[-59,-91],[14,-117],[-27,-120],[57,-129],[-33,-116],[14,-61],[36,-44],[85,-39],[14,-90],[35,-71],[-17,-65]],[[982,5654],[70,170],[69,204],[48,167],[30,142],[85,153],[-47,13],[32,76],[30,-7],[33,62]],[[1332,6634],[76,-49],[44,22],[4,58],[37,54],[89,-15],[16,-37],[104,-29],[70,8],[39,30],[70,17],[106,54],[113,10],[82,192],[35,9],[7,122],[88,71],[11,54]],[[2323,7205],[50,-32],[129,-20],[54,-28],[9,-51],[58,-28],[63,-8],[30,-65]],[[2716,6973],[-70,-34],[-17,-47],[-74,-49],[31,-79],[-45,-131],[58,-23],[28,14],[59,-37],[14,-35],[-42,-48],[27,-52],[-28,-38],[-72,-12],[3,-88],[75,-73],[-87,-74],[6,-125]],[[2582,6042],[-29,-24],[-95,-30],[-22,-111],[111,-37],[20,-77]],[[2567,5763],[-26,-18],[-97,8],[-56,-25],[28,-79],[-44,-9],[-35,-48],[-45,2],[-77,-70],[-27,7]],[[2188,5531],[-20,59],[-39,29],[-102,-2],[-12,70],[-62,52],[-55,-2],[7,67],[-77,29],[-48,119],[20,44],[-34,44],[-156,60],[13,-43],[-23,-36],[-71,-21],[-5,-90],[-39,10],[-36,42],[-38,-28],[-5,-39],[33,-88]],[[1439,5807],[-77,-25],[-144,74],[2,-90],[38,-22]],[[40,7818],[64,-52],[-48,-28],[-56,8],[40,72]],[[4239,6194],[9,-17]],[[4248,6177],[-42,-107],[3,-84],[-43,-22],[-73,-71],[-38,-15],[-65,-113],[-31,-9],[-47,-88],[29,-41],[-31,-88],[-23,-7],[-107,-135]],[[3780,5397],[-18,-29],[-69,6],[-44,-26],[-45,-74],[-101,-32],[-61,-41],[-50,-73],[-58,18],[-36,-30],[-90,-3]],[[3208,5113],[8,48],[-24,53],[-124,33],[-141,-44]],[[2927,5203],[21,115],[22,28],[-38,78],[74,44]],[[3006,5468],[19,16],[147,22],[72,24],[15,48],[-48,27],[52,62],[32,11],[55,73],[42,28],[50,4],[-3,49],[-92,37]],[[3347,5869],[9,42]],[[3356,5911],[89,-19],[30,23],[109,-13],[37,-18],[150,13],[71,64],[2,31],[71,13],[32,-12],[74,75],[194,129],[24,-3]],[[2972,4237],[56,-60],[72,-27],[12,-73],[31,-53],[7,-87],[29,-23]],[[3179,3914],[39,-40],[-40,-73],[30,-135],[42,-42],[56,-29],[31,-93],[74,-61],[58,-12],[11,-29]],[[3480,3400],[-20,-54],[-37,-31],[-10,-74]],[[3413,3241],[-3,28],[-58,19],[-6,-47],[-40,-16],[-55,16],[7,54],[-44,-5],[-3,-4],[-137,-41],[-37,-21]],[[3037,3224],[14,79],[-71,101],[38,58],[-47,31],[-76,-9],[-42,46]],[[2853,3530],[80,38],[-28,22],[33,123],[-67,37],[0,55],[-24,51],[38,79],[-62,103],[-105,98]],[[2718,4136],[42,66],[83,47],[129,-12]],[[4033,2172],[-22,-73],[-45,-16],[-61,-127],[15,-94],[-13,-26],[-95,-58],[-63,-26],[-33,-37],[-86,5],[-49,-27],[-132,27],[-47,-23],[-69,28],[-53,-17]],[[3280,1708],[-36,17],[-34,69],[-60,49],[-65,5]],[[3085,1848],[21,60],[-112,26],[-11,63],[-49,16],[-64,58],[-10,46],[104,21],[16,29],[-34,46],[18,69],[-35,21],[15,76],[-41,69],[1,78],[-33,64]],[[2972,4237],[41,66],[80,29],[26,93]],[[3119,4425],[23,8]],[[3142,4433],[56,13],[88,-28],[61,56],[97,7],[64,-84],[176,-65],[47,-33],[27,93],[86,37]],[[3844,4429],[114,-56],[37,-40],[-6,-85],[-26,-58],[26,-47],[67,-26],[46,-39],[0,-83]],[[4102,3995],[-82,-21],[-49,-71],[-92,-14],[-127,10],[-3,16],[-129,-9],[27,-40],[-61,-41]],[[3586,3825],[-124,10],[-93,36],[-38,27],[-107,24],[-45,-8]],[[1673,2717],[68,-65],[55,-20],[5,-51],[-21,-64],[89,-26],[-12,-28],[88,-100]],[[1945,2363],[66,1],[98,-26],[117,-84],[52,-22],[-8,-52],[79,-43],[100,-41],[29,48],[56,-49]],[[2534,2095],[-20,-32],[15,-55],[-54,-80],[0,-37],[-35,-61],[-80,-74]],[[2360,1756],[-27,6],[-41,-88],[-55,1],[-60,-39]],[[2177,1636],[-39,59],[14,86],[-44,8],[5,42],[-137,61],[-135,-27],[-109,79],[-102,-5],[-38,40]],[[1592,1979],[-50,158],[35,52],[-45,42],[-27,75],[8,95],[-15,68],[62,69],[35,21],[13,97],[65,61]],[[3436,3221],[-23,20]],[[3480,3400],[51,132]],[[3531,3532],[71,-20],[74,28],[33,-25],[130,-10],[12,21],[90,30],[336,-272],[63,-8]],[[3531,3532],[35,30],[-19,69],[40,61],[-32,25],[-4,71],[35,37]],[[4102,3995],[54,-33],[81,28],[107,-17],[63,-138],[43,18],[64,-9],[59,-47],[48,12],[37,-63]],[[4658,3746],[-35,-107],[-28,-28],[11,-98],[-48,-102],[-50,-5],[-32,-66],[-52,-10],[-54,-66]],[[3844,4429],[-10,101],[-76,5],[-24,49],[8,41],[-63,176],[-40,-4],[-137,59],[-51,-12]],[[3451,4844],[21,86],[-33,75],[56,4],[140,53],[78,-19],[39,48],[80,48],[108,6],[154,90]],[[4094,5235],[6,-43],[48,-52],[-2,-33],[89,-29],[62,29],[28,-35],[62,17],[63,-44],[43,-128],[-12,-62]],[[4481,4855],[-39,-84],[65,-108],[45,-45],[-18,-38],[50,-19],[6,-74],[35,-64],[-54,-45],[-8,-73],[-48,-27],[38,-74],[42,-6],[-38,-80],[45,-83],[107,-40],[47,-99],[-8,-30],[28,-56],[-66,-85],[-52,21]],[[3085,1848],[-75,-37],[-77,-107],[11,-36],[47,-28],[-80,-30],[-60,19],[-107,-115],[-97,31],[-22,-11],[-6,-2],[-12,0]],[[2607,1532],[-81,15],[-37,54],[1,50],[-82,5],[-52,50],[4,50]],[[2534,2095],[33,32],[54,9],[-15,48],[37,72],[57,69],[28,96],[36,44],[52,126]],[[2816,2591],[31,3]],[[2816,2591],[-15,90],[-73,16]],[[2728,2697],[2,72],[75,145],[108,46],[-25,123],[44,66]],[[2932,3149],[22,6]],[[2954,3155],[96,-116],[50,-1],[132,54],[60,8],[19,-33]],[[2954,3155],[65,1],[18,68]],[[2162,4310],[42,-74]],[[2204,4236],[-3,-144],[68,-49],[109,46],[25,33],[72,-14],[82,-80],[34,1],[10,55],[117,52]],[[2853,3530],[-82,18],[-57,-7],[-45,30],[-106,-31],[-49,29],[-73,-4],[-82,-60],[-37,-75],[-61,28],[-42,56],[-86,38],[-28,-22],[-36,-104],[28,-32],[-22,-122],[16,-74],[-20,-22],[-78,-24],[-7,-39],[-144,-72],[-13,-75],[-26,-50],[-3,-56]],[[1800,2860],[-106,-56]],[[1694,2804],[-45,51],[-51,18]],[[1598,2873],[-4,91],[-87,55],[-21,71]],[[1673,2717],[21,87]],[[1800,2860],[55,-25],[61,19],[40,84],[81,33],[75,106],[32,-15],[31,-66],[49,25],[61,86],[63,17],[55,-42],[100,132],[11,28],[127,46],[34,-8],[43,42],[91,-14],[116,-49],[-42,-48],[-27,-79],[76,17]],[[2728,2697],[-39,57],[-86,18],[-54,-49],[-33,20],[-49,-29],[-37,22],[-67,90],[-38,-7],[-61,-53],[-30,-59],[-50,17],[-83,-26],[-25,-77],[-30,-18],[-51,-142],[18,-55],[-68,-43]],[[3142,4433],[86,78],[46,98],[57,16],[62,46],[-12,139],[70,34]],[[3356,5911],[-58,141],[63,191],[-33,43],[13,73],[80,85],[50,36],[107,-1],[60,45],[159,-32],[51,-44],[57,-9],[49,-81],[95,66]],[[4049,6424],[39,-62],[15,-72],[81,-30],[55,-66]],[[4248,6177],[49,-21],[47,28],[46,-15],[42,17],[54,-57],[1,-46],[-40,-52],[11,-54],[52,-11],[28,-63],[45,-3],[95,-57],[35,-53],[-12,-126],[35,-98],[106,-52],[42,19],[43,-42],[-45,-39],[-22,-80],[-37,-29],[-10,-54],[-62,-54],[0,-95],[42,-15],[36,-68],[-25,-78],[-57,-93],[-18,-79],[-54,-36],[-92,24],[-29,52],[-73,8]],[[4094,5235],[-57,99],[-115,12],[-72,-4],[-70,55]],[[3119,4425],[10,55],[-20,79],[55,26],[14,61],[-19,54],[-42,14],[-32,54],[107,101],[-42,60],[14,75],[55,46],[-11,63]],[[2716,6973],[108,43],[117,13],[16,-33],[-19,-94],[96,-25],[24,-21],[82,20],[32,-14],[41,35],[100,-36],[44,-53],[73,-23],[76,111],[73,-47],[77,-7],[11,-79],[47,-73],[87,-24],[89,-6],[80,10],[26,-52],[35,-9],[25,-46],[11,-70],[-18,-69]],[[3347,5869],[-66,-36],[-64,-1],[-9,43],[-92,-13],[-42,27],[-83,115],[-114,28],[-128,-19],[-82,33],[-85,-4]],[[2204,4236],[34,-28],[107,47],[50,51],[20,52],[59,5],[5,52],[45,32],[21,56],[-27,129],[21,44]],[[2539,4676],[44,8],[66,-17],[21,25],[115,71],[49,-14],[74,117],[24,95],[-40,37],[8,134],[27,71]],[[3006,5468],[-49,64],[2,61],[-40,34],[-62,-11],[-43,35],[-19,61],[-77,-18],[-26,-32],[-67,37],[-58,64]],[[2539,4676],[-59,31],[-26,34],[-47,8],[-76,56],[-21,72],[-58,21],[-64,113],[40,18],[7,74],[31,58],[30,99],[-44,25],[-50,162],[-29,47],[15,37]],[[2541,1280],[-4,18],[52,97],[52,57],[-34,80]],[[3280,1708],[21,-64],[-24,-82],[58,-114],[-56,-68],[-9,-55],[21,-30],[-37,-61],[36,-175],[-32,-72],[-23,-13]],[[1820,747],[-48,56],[-11,95],[44,15],[-16,93],[-85,39],[2,56],[69,31],[57,0],[-2,59],[55,61],[-8,89],[62,106],[60,-1],[51,21],[51,-9],[104,86],[-28,92]],[[1592,1979],[-42,-41],[-11,-68],[107,-110],[-9,-73],[38,-12],[22,-107],[3,-93],[-94,-75],[-14,-80],[-72,-25],[-72,7],[-43,-12],[-24,-64],[31,-55],[-20,-23],[1,-69],[-36,-58],[-79,-7],[-10,-29],[-62,-41],[-27,-49],[19,-73],[-54,-9],[-52,-41],[-39,-6],[-8,-51],[-77,-55],[-31,10],[-33,-81],[-55,-75]],[[849,514],[-115,133],[-45,-39],[-76,15],[-97,64],[-2,44],[-82,43],[-40,73],[11,28],[-30,98],[30,68],[33,23],[17,65],[-13,29],[23,54],[-30,32],[25,59],[-22,25],[67,64],[-9,128],[24,89],[77,17],[79,87],[-27,47],[-1,58],[-63,0],[11,78],[36,87],[42,27],[-17,114],[10,110],[-36,76],[62,90],[9,45],[66,61],[81,-31],[32,7],[88,-48],[24,31],[78,-25],[85,43],[48,49],[37,7],[86,57],[96,39],[38,90],[31,22],[4,51],[104,75]],[[1765,500],[-21,6],[-32,-81],[-102,-2],[-20,-19],[-80,0],[-73,78],[-34,6],[-79,-60],[-75,-14],[-37,-42],[-41,12],[-97,136],[-183,-62],[-42,56]],[[1439,5807],[24,-14]],[[1332,6634],[120,355],[28,190],[27,46],[-44,114],[163,3],[176,-31],[11,23],[207,-62],[14,55],[45,38],[243,54],[-3,-105],[25,-73],[-21,-36]]],"transform":{"scale":[0.00022426345784758232,0.00018862017759700323],"translate":[139.54151630393437,37.733917919576356]},"objects":{"municipalities":{"type":"GeometryCollection","geometries":[{"arcs":[[0,1,2,3,4,5,6]],"type":"Polygon","properties":{"code5":"06201","name":"山形市"}},{"arcs":[[7,8,9,10]],"type":"Polygon","properties":{"code5":"06202","name":"米沢市"}},{"arcs":[[11,12,13,14,15]],"type":"Polygon","properties":{"code5":"06203","name":"鶴岡市"}},{"arcs":[[[-14,16,17,18,19,20,21,22,23]],[[24]]],"type":"MultiPolygon","properties":{"code5":"06204","name":"酒田市"}},{"arcs":[[25,26,27,28,29,30,31,32]],"type":"Polygon","properties":{"code5":"06205","name":"新庄市"}},{"arcs":[[33,34,35,36,37,38,39]],"type":"Polygon","properties":{"code5":"06206","name":"寒河江市"}},{"arcs":[[-2,40,41,42]],"type":"Polygon","properties":{"code5":"06207","name":"上山市"}},{"arcs":[[-34,43,44,45,46,47,48]],"type":"Polygon","properties":{"code5":"06208","name":"村山市"}},{"arcs":[[49,50,51,52,53,54]],"type":"Polygon","properties":{"code5":"06209","name":"長井市"}},{"arcs":[[-6,55,-36,56,57]],"type":"Polygon","properties":{"code5":"06210","name":"天童市"}},{"arcs":[[-7,-58,58,-48,59,60]],"type":"Polygon","properties":{"code5":"06211","name":"東根市"}},{"arcs":[[-47,61,62,63,64,-60]],"type":"Polygon","properties":{"code5":"06212","name":"尾花沢市"}},{"arcs":[[-3,-43,65,66,-52,67,68]],"type":"Polygon","properties":{"code5":"06213","name":"南陽市"}},{"arcs":[[-4,-69,69,70,71,72]],"type":"Polygon","properties":{"code5":"06301","name":"山辺町"}},{"arcs":[[-5,-73,73,-37,-56]],"type":"Polygon","properties":{"code5":"06302","name":"中山町"}},{"arcs":[[-35,-49,-59,-57]],"type":"Polygon","properties":{"code5":"06321","name":"河北町"}},{"arcs":[[-12,74,75,-39,76,77,78,79]],"type":"Polygon","properties":{"code5":"06322","name":"西川町"}},{"arcs":[[-50,80,-78,81,-71,82]],"type":"Polygon","properties":{"code5":"06323","name":"朝日町"}},{"arcs":[[-38,-74,-72,-82,-77]],"type":"Polygon","properties":{"code5":"06324","name":"大江町"}},{"arcs":[[-46,83,-62]],"type":"Polygon","properties":{"code5":"06341","name":"大石田町"}},{"arcs":[[-33,84,85]],"type":"Polygon","properties":{"code5":"06361","name":"金山町"}},{"arcs":[[-27,86,-64,87]],"type":"Polygon","properties":{"code5":"06362","name":"最上町"}},{"arcs":[[-28,-88,-63,-84,-45,88]],"type":"Polygon","properties":{"code5":"06363","name":"舟形町"}},{"arcs":[[-20,89,-85,-32,90]],"type":"Polygon","properties":{"code5":"06364","name":"真室川町"}},{"arcs":[[-29,-89,-44,-40,-76,91,92]],"type":"Polygon","properties":{"code5":"06365","name":"大蔵村"}},{"arcs":[[-21,-91,-31,93]],"type":"Polygon","properties":{"code5":"06366","name":"鮭川村"}},{"arcs":[[-22,-94,-30,-93,94]],"type":"Polygon","properties":{"code5":"06367","name":"戸沢村"}},{"arcs":[[-11,95,-66,-42,96]],"type":"Polygon","properties":{"code5":"06381","name":"高畠町"}},{"arcs":[[-10,97,-53,-67,-96]],"type":"Polygon","properties":{"code5":"06382","name":"川西町"}},{"arcs":[[-55,98,99,-79,-81]],"type":"Polygon","properties":{"code5":"06401","name":"小国町"}},{"arcs":[[-51,-83,-70,-68]],"type":"Polygon","properties":{"code5":"06402","name":"白鷹町"}},{"arcs":[[-9,100,-99,-54,-98]],"type":"Polygon","properties":{"code5":"06403","name":"飯豊町"}},{"arcs":[[-15,-24,101]],"type":"Polygon","properties":{"code5":"06426","name":"三川町"}},{"arcs":[[-16,-102,-23,-95,-92,-75]],"type":"Polygon","properties":{"code5":"06428","name":"庄内町"}},{"arcs":[[-18,102]],"type":"Polygon","properties":{"code5":"06461","name":"遊佐町"}}]}}}