{"type":"Topology","arcs":[[[3288,3077],[-20,-179],[32,-65],[23,-118],[38,-82],[7,-133],[49,-137],[8,-120]],[[3425,2243],[-38,-12],[-43,-58],[-17,-83],[-46,-12],[-19,-69],[-49,-40],[-57,-81],[-42,25],[-62,-42]],[[3052,1871],[-41,-38],[-73,-1],[-9,-58],[-56,43]],[[2873,1817],[-64,45],[-35,106],[-51,17],[-49,-21],[-2,65],[-55,57],[-22,53],[20,53],[-9,66],[-32,29],[-55,-28],[-20,67]],[[2499,2326],[0,41]],[[2499,2367],[42,31],[45,-83],[54,98],[19,88]],[[2659,2501],[34,20],[15,67],[44,42],[52,96],[91,100],[81,69],[71,46],[69,109],[44,5],[29,34]],[[3189,3089],[99,-12]],[[2873,1817],[-22,-64],[54,-70],[-17,-58]],[[2888,1625],[-48,15],[-120,-36],[1,-65],[-64,-11],[-33,-53],[-39,-3],[17,-71],[-41,-70],[1,-61],[-85,7],[-61,-54],[-5,-41],[-112,-38],[-45,2]],[[2254,1146],[63,160],[-20,119],[4,44],[-42,46]],[[2259,1515],[-25,13],[48,89],[-1,78]],[[2281,1695],[17,23],[-41,113],[-30,36],[8,54],[-49,49],[-46,-14],[-120,83],[-121,46],[-58,-18],[-273,111],[-102,80],[-145,47],[-65,-35],[-75,38],[-144,-45]],[[1037,2263],[-16,21]],[[1021,2284],[11,71],[-16,67],[50,78]],[[1066,2500],[62,58],[32,6],[38,52],[43,-2],[37,29],[68,20],[31,-25],[99,-8],[33,16],[263,-32],[89,11],[50,-9],[24,42],[48,9]],[[1983,2667],[73,-4],[59,-56]],[[2115,2607],[-8,-77],[72,-50],[53,-69],[50,-30],[54,-94],[78,8],[49,54],[36,-23]],[[3025,1598],[-49,-79],[-42,-39]],[[2934,1480],[-15,92],[28,19]],[[2947,1591],[78,7]],[[3288,3077],[-11,49],[193,69],[18,35],[65,20],[128,-11],[38,29]],[[3719,3268],[7,-58],[39,-76],[42,-51],[-17,-88],[-75,-54],[-27,-81],[-43,-25],[70,-39],[5,-85],[-62,10],[-61,-69],[-138,2],[7,-63],[71,-41],[40,-44],[-13,-81],[43,-69],[1,-44],[-63,-48]],[[3545,2264],[-42,-12],[-20,-45],[-58,36]],[[4352,3025],[-49,6],[-12,-69],[15,-68],[-51,-79],[-25,-10],[-15,-75],[48,-68],[29,-86],[-36,-37],[-69,-3],[5,-42],[-41,-74],[-33,-14],[-11,-53],[-62,-71],[-65,-147],[38,-94]],[[4018,2041],[-64,-34],[-55,5],[-57,74],[-58,16]],[[3784,2102],[6,104],[-130,91],[37,43],[9,122],[25,15],[16,63],[55,19],[10,46],[46,41],[12,66],[102,49],[2,62],[69,18],[48,48],[59,-2],[51,52],[64,105],[54,14],[33,-33]],[[3545,2264],[-23,-68],[72,-14],[-5,-76],[28,-51]],[[3617,2055],[-47,-206],[30,-33],[-6,-115],[-49,-41],[74,-63],[-4,-183]],[[3615,1414],[-23,-36],[-122,20],[-56,65],[-49,-10],[-168,93]],[[3197,1546],[-68,150],[-51,47],[-26,128]],[[4018,2041],[75,-61],[35,-48],[107,-72],[-33,-43],[4,-45],[45,-64],[70,-55],[0,-29]],[[4321,1624],[-43,-7],[-14,-41],[21,-62]],[[4285,1514],[-87,17],[-32,30],[-69,-53],[-29,-76],[2,-79]],[[4070,1353],[-25,35],[-77,48],[-177,-90],[-176,68]],[[3617,2055],[27,24],[78,-4],[62,27]],[[3189,3089],[-32,42]],[[3157,3131],[5,47],[-55,99],[-28,92],[1,42],[-47,46],[-29,82],[11,39],[-43,32],[-94,-8],[-88,-51],[-30,-35],[-15,-60],[-63,-45],[-15,-64],[28,-48],[4,-50],[30,-28]],[[2729,3221],[-91,14],[-131,-33],[-37,47]],[[2470,3249],[-27,32],[4,90],[-13,59],[19,61],[-24,43]],[[2429,3534],[55,34],[86,87],[17,64],[27,22],[-27,113],[12,29],[-33,64],[60,106],[-32,27],[18,52],[-21,75],[53,15],[3,46],[87,63],[88,-18],[114,36],[53,-13]],[[2989,4336],[-19,-82],[-98,-110],[-34,-101],[-2,-190],[-17,-16],[17,-83],[-13,-69],[114,11],[7,68],[77,11],[64,-16],[76,60],[52,9],[2,36],[87,61]],[[3302,3925],[43,-44],[28,81],[25,13],[50,84],[86,17],[72,-26],[121,100],[135,54],[64,35],[21,-15]],[[3947,4224],[-9,-54],[22,-70],[58,-29],[-57,-203],[-81,-80],[10,-74],[-19,-68],[-33,-46],[16,-80],[-10,-47]],[[3844,3473],[-93,-93],[-32,-112]],[[4924,1519],[149,-86],[-143,-25],[-70,-50],[23,-32],[5,-77]],[[4888,1249],[-39,15],[-34,-23],[-214,3],[-42,-38],[-92,7]],[[4467,1213],[-76,17],[10,52]],[[4401,1282],[101,4],[35,19],[-18,54],[-52,14],[43,60],[44,126]],[[4554,1559],[106,46],[76,-48],[21,25],[50,-71],[117,8]],[[2659,2501],[-93,-6],[-16,53],[-37,15],[-50,-14],[-152,72],[-114,-23]],[[2197,2598],[-55,-20],[-27,29]],[[1983,2667],[60,101],[51,37],[75,25],[77,92],[13,106],[-136,3],[-61,59]],[[2062,3090],[32,60],[-31,26],[34,47],[65,-3]],[[2162,3220],[110,-2],[95,-27],[103,58]],[[2729,3221],[50,-35],[26,23],[78,-28],[53,9],[59,-26],[42,14],[104,-16],[16,-31]],[[2934,1480],[14,-16],[-91,-162],[-30,-72],[-76,-103],[-1,-53],[-28,-28],[17,-152],[-73,-22],[-2,-105],[-46,-4],[-64,34],[-57,-47],[-36,-5],[-31,-47],[-65,46],[-42,-1]],[[2323,743],[15,43],[-16,68],[-80,25],[-100,14],[-46,-32],[-121,-30],[-44,60],[-25,-24],[-84,-24],[-71,10],[-46,-17]],[[1705,836],[69,89]],[[1774,925],[179,65],[59,-9],[74,67],[45,66],[123,32]],[[2888,1625],[59,-34]],[[2259,1515],[-92,-42],[-11,-68],[-58,-50],[-19,-64],[-55,-1],[-37,-30],[-10,-96],[-72,3],[-41,-84],[-72,-48]],[[1792,1035],[7,76],[-13,105],[45,141],[-92,-9],[-10,-24],[-79,-32],[-56,3],[-52,130],[-73,89],[5,81],[-58,38]],[[1416,1633],[67,70],[106,-2],[126,-46],[97,-79],[90,-16],[84,61],[100,8],[-4,37],[50,49],[105,0],[44,-20]],[[1416,1633],[-143,-54],[-55,35],[-37,-33],[-50,41],[-57,-5],[-16,86]],[[1058,1703],[-23,61],[23,53],[-12,42],[-2,109],[30,88],[-31,54],[10,86],[-16,67]],[[3844,3473],[6,-31],[67,-23],[27,-44],[142,-17],[50,-52],[56,32],[60,-38],[75,33],[103,-17],[16,-73],[38,-39],[-72,-105],[-20,-55],[-40,-19]],[[2197,2598],[29,-32],[114,-46],[46,15],[73,-37],[-8,-92],[48,-39]],[[1784,300],[-3,-21],[-108,-21],[-47,-22],[-42,40],[-48,11],[-61,-23],[-44,-131],[-48,-63],[-63,-29],[-18,-41],[-89,29],[-46,112],[-75,2],[-124,87],[52,114],[-6,103],[-39,65],[-11,56],[60,40],[0,111]],[[1024,719],[87,-13],[88,58],[78,-31],[93,20],[54,-38],[62,55],[60,19]],[[1546,789],[34,-50],[6,-108],[76,-29],[24,-78],[52,-24],[-24,-76],[70,-124]],[[2323,743],[-13,-98],[-49,-60],[-55,-34],[-62,30],[-76,-17],[-46,-34],[-93,-38],[-11,-31],[-64,-25],[-14,-58],[-56,-78]],[[1546,789],[-30,56],[2,93]],[[1518,938],[13,-80],[29,-37],[65,-12],[80,27]],[[1518,938],[-21,83],[1,59],[-45,43],[-49,-16],[-2,49],[-120,72],[-77,-29],[-32,-68],[-84,32],[-78,-20],[-22,30]],[[989,1173],[-14,63],[-45,-8],[-43,80],[2,61],[-42,46],[15,94],[-10,44],[37,57],[75,15],[59,33],[35,45]],[[1792,1035],[-18,-110]],[[1024,719],[-32,26],[-14,51],[-49,-10],[-89,19],[-30,94],[-54,50],[1,71],[58,-54],[176,49],[-59,119],[57,39]],[[2062,3090],[-57,24],[-80,79],[-154,9],[-20,23],[-66,-42],[-46,14],[-53,-34],[-82,48],[-65,57],[-61,15],[-57,-42],[-82,27],[-65,-49],[0,-59]],[[1174,3160],[-30,-34],[-101,9],[-58,-59],[-73,32],[-8,39],[-80,53]],[[824,3200],[-8,89],[55,0],[43,22],[49,58],[-24,79],[-47,56],[-50,24],[-126,-9],[-44,57],[-104,18],[-40,-25]],[[528,3569],[39,80],[-68,57],[8,83],[98,61],[129,18],[35,-31],[45,67],[70,-39],[44,73],[34,-4],[78,41],[109,20],[87,40],[69,5],[36,56],[21,77],[109,-49],[70,-47],[79,-7]],[[1620,4070],[45,-86],[11,-54],[42,-23],[48,-65],[-18,-112],[26,-92],[139,3],[42,17],[24,-32],[69,-26]],[[2048,3600],[-21,-91],[23,-106],[-3,-44],[70,-59],[45,-80]],[[1021,2284],[-30,31],[-43,-9],[-78,41],[-73,4],[-79,-24]],[[718,2327],[8,74],[32,96],[-45,20],[-2,121],[23,61],[-40,109],[-9,116],[33,30],[50,-72],[53,27],[-17,86],[19,30],[-51,95]],[[772,3120],[2,60],[50,20]],[[1174,3160],[36,-33],[99,-11],[33,-124],[-36,-49],[-54,2],[-78,-80],[-71,20],[-57,-14],[-44,-89],[4,-90],[16,-20],[-20,-69],[31,-25],[33,-78]],[[718,2327],[-66,-9],[-60,-80],[-46,1],[-99,63],[-55,-8],[-13,-66],[-46,18],[-75,2],[-11,83],[-63,13],[-166,61],[7,98],[-13,48],[3,108],[-15,49],[37,90],[-8,78],[41,57],[15,57],[46,69],[-2,67],[-33,46],[35,111],[53,68],[55,17],[23,68],[-6,45],[58,49],[70,-15],[74,38],[70,16]],[[528,3569],[9,-57],[50,-58],[-27,-75],[34,-86],[76,-39],[25,-74],[77,-60]],[[2048,3600],[70,17],[56,-20],[31,30],[105,-44],[56,-36],[63,-13]],[[3302,3925],[-8,85],[-48,5],[-42,46],[-61,-17],[-23,73],[24,22],[7,102],[-58,71],[-29,74]],[[3064,4386],[82,61],[-1,49],[100,70],[52,5],[-1,96],[-123,50],[-42,-8],[-8,49],[46,64],[32,16],[0,104],[15,32],[-18,91],[-23,33],[4,80],[55,70]],[[3234,5248],[104,-46],[96,28],[37,-80],[-33,-43],[45,-47],[114,49],[55,-40],[55,18],[42,-47],[93,-6],[61,16],[43,-63],[84,14],[86,-81],[-60,-29],[-36,-45],[-12,-66],[-40,-27],[-23,-124],[141,-72],[44,-5],[39,-41],[-65,-67],[-10,-49],[-44,-5],[-15,-109],[-88,-57]],[[2989,4336],[51,59],[24,-9]],[[1620,4070],[24,71],[45,34],[48,-15],[38,57],[9,125],[-31,119],[74,-3],[47,-27],[102,35],[16,34],[95,12],[109,29],[-20,78],[-29,10],[21,64],[-21,50],[24,70],[34,45],[93,18],[74,-42],[31,21],[3,71],[-22,47],[9,41],[-41,53],[-12,118],[11,140],[14,13],[127,-11],[61,48],[62,-24],[71,21],[10,38],[97,74],[29,0],[44,61],[-3,134],[27,73],[59,-18],[48,-44],[37,-114],[55,-37],[18,-46],[88,-44],[35,-61],[-17,-91],[21,-49]],[[3197,1546],[-31,28],[-115,-3],[-26,27]],[[4924,1519],[78,-3],[30,30],[75,-19],[11,-44],[-24,-38],[48,-73],[68,-54],[44,-87],[-83,-21],[8,-69],[-103,-27],[-56,2],[-38,52],[-65,37]],[[4917,1205],[-29,44]],[[4917,1205],[-60,-32],[-77,-19],[-81,-42],[-58,-9],[-114,5]],[[4527,1108],[-10,60],[-50,45]],[[4527,1108],[-79,-14],[-83,10],[-155,143]],[[4210,1247],[7,39],[-37,47],[53,22],[22,38]],[[4255,1393],[57,-77],[89,-34]],[[4285,1514],[-30,-121]],[[4210,1247],[-96,51],[-44,55]],[[4321,1624],[56,5],[42,-47],[-14,-48],[77,3],[72,22]]],"transform":{"scale":[0.00024218487607618796,0.00018659480751408863],"translate":[138.39713202382393,35.98533300001799]},"objects":{"municipalities":{"type":"GeometryCollection","geometries":[{"arcs":[[0,1,2,3,4,5,6,7]],"type":"Polygon","properties":{"code5":"10201","name":"前橋市"}},{"arcs":[[[-4,8,9,10,11,12,13,14,15,16,17]],[[18,19,20]]],"type":"MultiPolygon","properties":{"code5":"10202","name":"高崎市"}},{"arcs":[[[-1,21,22,23]],[[24,25,26]]],"type":"MultiPolygon","properties":{"code5":"10203","name":"桐生市"}},{"arcs":[[-2,-24,27,28,29,30]],"type":"Polygon","properties":{"code5":"10204","name":"伊勢崎市"}},{"arcs":[[-26,31,32,33,34,-29,35]],"type":"Polygon","properties":{"code5":"10205","name":"太田市"}},{"arcs":[[-8,36,37,38,39,40,41,42,43,44,-22]],"type":"Polygon","properties":{"code5":"10206","name":"沼田市"}},{"arcs":[[45,46,47,48,49]],"type":"Polygon","properties":{"code5":"10207","name":"館林市"}},{"arcs":[[-7,50,51,-17,52,53,54,-39,55,-37]],"type":"Polygon","properties":{"code5":"10208","name":"渋川市"}},{"arcs":[[-20,56,57,58,59,-10,60]],"type":"Polygon","properties":{"code5":"10209","name":"藤岡市"}},{"arcs":[[-12,61,62,63]],"type":"Polygon","properties":{"code5":"10210","name":"富岡市"}},{"arcs":[[-13,-64,64,65]],"type":"Polygon","properties":{"code5":"10211","name":"安中市"}},{"arcs":[[-27,-36,-28,-23,-45,66]],"type":"Polygon","properties":{"code5":"10212","name":"みどり市"}},{"arcs":[[-5,-18,-52,67]],"type":"Polygon","properties":{"code5":"10344","name":"榛東村"}},{"arcs":[[-6,-68,-51]],"type":"Polygon","properties":{"code5":"10345","name":"吉岡町"}},{"arcs":[[68,69,70]],"type":"Polygon","properties":{"code5":"10366","name":"上野村"}},{"arcs":[[-58,71,-71,72,73]],"type":"Polygon","properties":{"code5":"10367","name":"神流町"}},{"arcs":[[-59,-74,74,75,-65,-63,76]],"type":"Polygon","properties":{"code5":"10382","name":"下仁田町"}},{"arcs":[[-70,77,-75,-73]],"type":"Polygon","properties":{"code5":"10383","name":"南牧村"}},{"arcs":[[-11,-60,-77,-62]],"type":"Polygon","properties":{"code5":"10384","name":"甘楽町"}},{"arcs":[[-54,78,79,80,81,82,83]],"type":"Polygon","properties":{"code5":"10421","name":"中之条町"}},{"arcs":[[-15,84,85,86,-80,87]],"type":"Polygon","properties":{"code5":"10424","name":"長野原町"}},{"arcs":[[-86,88,89]],"type":"Polygon","properties":{"code5":"10425","name":"嬬恋村"}},{"arcs":[[-81,-87,-90]],"type":"Polygon","properties":{"code5":"10426","name":"草津町"}},{"arcs":[[-40,-55,-84,90]],"type":"Polygon","properties":{"code5":"10428","name":"高山村"}},{"arcs":[[-16,-88,-79,-53]],"type":"Polygon","properties":{"code5":"10429","name":"東吾妻町"}},{"arcs":[[-43,91,92,93]],"type":"Polygon","properties":{"code5":"10443","name":"片品村"}},{"arcs":[[-42,94,-92]],"type":"Polygon","properties":{"code5":"10444","name":"川場村"}},{"arcs":[[-38,-56]],"type":"Polygon","properties":{"code5":"10448","name":"昭和村"}},{"arcs":[[-41,-91,-83,95,-93,-95]],"type":"Polygon","properties":{"code5":"10449","name":"みなかみ町"}},{"arcs":[[-3,-31,96,-21,-61,-9]],"type":"Polygon","properties":{"code5":"10464","name":"玉村町"}},{"arcs":[[-46,97,98]],"type":"Polygon","properties":{"code5":"10521","name":"板倉町"}},{"arcs":[[-47,-99,99,100]],"type":"Polygon","properties":{"code5":"10522","name":"明和町"}},{"arcs":[[-48,-101,101,102,103]],"type":"Polygon","properties":{"code5":"10523","name":"千代田町"}},{"arcs":[[-34,104,-103,105]],"type":"Polygon","properties":{"code5":"10524","name":"大泉町"}},{"arcs":[[-33,106,-49,-104,-105]],"type":"Polygon","properties":{"code5":"10525","name":"邑楽町"}}]}}}