{"type":"Topology","arcs":[[[4040,1157],[50,16],[37,-22],[16,63]],[[4143,1214],[39,10],[37,68],[81,0],[49,90],[-16,46]],[[4333,1428],[71,-22]],[[4404,1406],[73,-55],[1,-76],[-50,-41],[32,-42],[111,-36],[28,-68]],[[4599,1088],[10,-30],[-41,-104],[42,-41],[-5,-85],[-36,-12],[31,-78]],[[4600,738],[-39,33],[-12,-56],[-120,2],[29,-37],[-10,-47],[-61,0],[-27,-28],[-10,-52],[-91,12],[9,-104]],[[4268,461],[-62,-21]],[[4206,440],[-58,22],[-139,-22]],[[4009,440],[-9,29],[-41,4]],[[3959,473],[-97,150]],[[3862,623],[-39,63],[-77,16],[3,37],[-45,39]],[[3704,778],[24,96],[-39,106],[7,71]],[[3696,1051],[40,7],[81,51],[50,9],[48,-53],[8,44],[-48,94],[53,-5],[59,38],[53,-79]],[[3678,1072],[18,-21]],[[3704,778],[-11,-36]],[[3693,742],[-84,1],[-60,40],[-15,-48],[-68,-90],[-93,-53],[46,-33],[9,-44]],[[3428,515],[-41,-25]],[[3387,490],[-8,13]],[[3379,503],[-76,111],[31,47],[-17,63],[-35,-10],[-57,50],[-130,94],[-45,-31]],[[3050,827],[-40,73],[-36,2],[-22,66]],[[2952,968],[43,-33],[101,57],[74,94],[-32,91]],[[3138,1177],[43,18],[15,-80],[71,18],[75,69]],[[3342,1202],[52,-22],[104,-5],[149,-43]],[[3647,1132],[31,-60]],[[3238,2579],[-93,5],[-19,-48],[12,-104],[60,-7],[-13,-68],[6,-66],[-49,2],[1,-52],[38,-41],[2,-122]],[[3183,2078],[5,-105],[61,-52]],[[3249,1921],[-5,-18],[-106,-63]],[[3138,1840],[-58,37],[19,82],[-79,64],[-34,3]],[[2986,2026],[-50,-14],[-141,25],[-8,-79],[-94,3]],[[2693,1961],[-52,85],[-35,30]],[[2606,2076],[45,39],[3,124],[12,48],[-95,88],[12,30],[73,64],[23,-21],[64,64],[19,188],[-5,88],[-33,41]],[[2724,2829],[134,78],[82,-51],[74,-98],[113,-65],[111,-114]],[[4600,738],[78,-81]],[[4678,657],[-28,-18],[34,-86],[33,-37],[2,-53],[40,-49],[-91,-40]],[[4668,374],[-75,-64],[45,-54],[-26,-61],[-76,-37],[-17,55],[-110,12],[-50,37]],[[4359,262],[8,98]],[[4367,360],[45,64],[-144,37]],[[3238,2579],[45,-32],[89,-11],[93,18]],[[3465,2554],[28,-57],[-61,-57],[43,-62],[2,-38],[60,-9],[20,-93],[36,0]],[[3593,2238],[49,-67],[-20,-52]],[[3622,2119],[-91,41],[-19,-55],[-41,-21],[25,-46],[-40,-69],[-25,-2],[-38,69],[-58,54],[-33,-6],[-77,33],[-42,-39]],[[1170,2116],[74,-127],[65,12]],[[1309,2001],[-17,-55],[45,-17],[24,-41],[68,-46],[40,25],[49,-9],[10,-75],[119,36],[50,-49],[53,13],[33,-24],[15,-76],[26,-43],[125,-49]],[[1949,1591],[64,-124],[40,-46]],[[2053,1421],[-7,-51]],[[2046,1370],[-71,34],[-144,36],[-49,-12],[-38,57],[-52,-65],[-33,-129],[6,-57],[38,-76],[-7,-97],[32,-50]],[[1728,1011],[43,-44],[-2,-69],[39,-73],[-46,-77],[-10,-54],[-35,-32]],[[1717,662],[-79,44],[-44,-18],[-100,41],[-116,108],[-58,-1],[-42,-77],[-69,-16],[-28,22],[-108,-63],[-51,-81],[4,-31],[-77,-35],[-69,23],[-83,-75],[-55,41],[-45,60],[-47,2],[-10,41],[-49,16],[-141,-29],[-23,44],[-51,12],[-34,123],[-53,42],[-124,7],[-90,47],[1,44],[42,68],[3,59],[-36,35],[-24,72],[-51,46],[-10,80],[22,79],[68,32],[51,68],[47,143],[65,25],[51,-11],[46,-43],[49,23],[116,23]],[[515,1652],[60,-40],[-16,-70],[12,-105],[70,-80],[97,-68],[88,2],[87,-43],[39,12],[56,-19],[49,18],[32,56],[70,-3],[34,22],[50,-39],[69,21],[17,-76],[72,14],[65,59],[31,74],[-43,57],[45,44],[-3,59],[-54,7],[-62,-26],[-65,69],[-111,37],[-65,52],[14,58],[-78,38],[-95,111],[-11,54]],[[969,1947],[61,37],[52,65],[9,107],[51,1],[28,-41]],[[3387,490],[20,6],[92,-142],[129,62],[10,-33]],[[3638,383],[49,-39],[-17,-31]],[[3670,313],[-55,-76],[-100,-66],[-121,-17],[-36,-38],[-116,-39],[-113,-4],[-65,19],[-28,-28],[-81,12],[6,45]],[[2961,121],[54,6],[7,41],[-42,35],[15,67],[-14,34],[66,20],[82,51]],[[3129,375],[58,21],[76,53],[60,75],[56,-21]],[[1728,1011],[62,20],[119,66],[108,44],[46,117]],[[2063,1258],[102,-23],[50,-54]],[[2215,1181],[67,-63],[39,-90],[73,-47],[44,12]],[[2438,993],[43,-66],[19,-71]],[[2500,856],[8,-105],[-16,-46],[30,-27],[61,-9],[139,82],[32,-24],[51,13],[126,-72]],[[2931,668],[-61,-52]],[[2870,616],[-48,-2],[-24,-52],[4,-130],[-85,-7],[-45,-45]],[[2672,380],[-60,31],[-6,63],[-86,27],[-94,-21],[-37,13],[-87,-9],[-88,58],[-89,-37],[-130,62],[-17,36],[-106,48],[-104,-4],[-51,15]],[[3593,2238],[171,-8],[43,36],[-1,42],[61,1],[15,80],[76,-28],[26,71],[-44,85],[30,62]],[[3970,2579],[39,-41],[82,43],[63,7],[-9,74],[58,-23],[55,7],[51,-29],[32,-68],[-13,-95],[24,-110],[30,-66]],[[4382,2278],[-81,-48],[3,-59],[-93,-58],[18,-56],[-100,-55],[-27,-61],[-51,-42],[-108,42],[-45,-83],[-31,28],[-45,-36],[-73,2]],[[3749,1852],[-29,43],[-58,16],[49,109],[-59,30],[-30,69]],[[2352,2856],[17,-70],[-27,-48],[-100,24],[-98,-71],[-12,-46]],[[2132,2645],[-98,14],[-40,-31],[-10,-59],[-36,-74],[9,-35],[-52,-71],[16,-65],[-43,-42]],[[1878,2282],[-45,15],[-50,-30],[-41,3],[-79,-71],[-24,-57]],[[1639,2142],[-51,-16],[-63,42]],[[1525,2168],[44,99],[3,110],[39,-3],[-4,89],[93,97],[62,33],[-6,46],[83,-2],[36,84]],[[1875,2721],[59,33],[82,71],[-54,63],[45,57],[16,87]],[[2023,3032],[189,-107],[52,11],[88,-80]],[[3138,1840],[-24,-87],[17,-37],[-9,-74],[78,-82],[18,-49],[77,-8]],[[3295,1503],[-11,-40],[-88,-8],[-20,-33]],[[3176,1422],[-114,-73],[-111,-22]],[[2951,1327],[-45,85],[-117,74]],[[2789,1486],[-22,31],[6,69],[-32,29],[-3,60]],[[2738,1675],[163,-28],[28,32],[51,-4],[-5,65],[-27,67],[8,135],[30,84]],[[4404,1406],[26,56]],[[4430,1462],[48,-39],[84,14]],[[4562,1437],[61,-6],[11,31],[76,10],[28,35],[-24,79],[128,100]],[[4842,1686],[37,-37],[-9,-80],[16,-121],[-12,-31],[55,-81],[-6,-45],[36,-38]],[[4959,1253],[-56,-17],[-81,-143]],[[4822,1093],[-69,80],[-48,-43],[14,-56],[-60,-15],[-60,29]],[[3129,375],[-53,130],[-60,8],[-19,64],[-77,-21],[-36,-39],[-14,99]],[[2931,668],[65,43],[-6,39],[60,77]],[[3465,2554],[114,-8],[62,10],[86,46],[83,20],[63,36],[70,-41],[27,-38]],[[3749,1852],[25,-84],[-14,-55],[36,-43]],[[3796,1670],[-26,-29]],[[3770,1641],[-48,52],[-32,-2],[-59,44],[-55,-24],[10,-67],[-126,-5]],[[3460,1639],[-50,139],[-45,8],[-74,113],[-42,22]],[[2606,2076],[-58,-21]],[[2548,2055],[-55,-3],[-12,76],[-249,-1],[-1,50],[-69,53],[20,31],[121,87],[-54,11],[-134,103]],[[2115,2462],[60,44],[21,63],[-52,14],[-12,62]],[[2352,2856],[102,35],[124,-40],[89,-41],[57,19]],[[3647,1132],[39,17],[-47,56]],[[3639,1205],[1,48],[30,47],[-12,90],[110,-27],[44,58],[-1,63],[76,0]],[[3887,1484],[62,-35],[0,-46],[69,-102],[95,-43]],[[4113,1258],[30,-44]],[[4678,657],[43,-45],[33,14],[89,-30],[50,77],[95,5]],[[4988,678],[-1,-61]],[[4987,617],[5,-21]],[[4992,596],[-54,8],[8,-126],[-78,-116],[36,-3]],[[4904,359],[-34,-40],[-92,-17],[-59,17],[-51,55]],[[4822,1093],[70,-56],[-58,-47],[10,-41],[55,-12],[15,-34],[62,-15]],[[4976,888],[-38,-47],[44,-24],[6,-139]],[[4367,360],[-50,-6],[-111,86]],[[4359,262],[-197,10],[-31,-13]],[[4131,259],[-101,69]],[[4030,328],[-21,112]],[[2961,121],[-51,43],[-6,51],[-97,35],[-62,-26],[-46,45],[-27,111]],[[4030,328],[-40,-23],[-1,-52],[-43,-24],[-31,-84]],[[3915,145],[-13,2]],[[3902,147],[-69,52],[-19,154],[16,51]],[[3830,404],[38,50],[38,-26],[53,45]],[[3830,404],[-70,-25],[-30,41]],[[3730,420],[0,15]],[[3730,435],[69,41],[63,147]],[[4131,259],[-96,-100],[-32,-60],[-63,3],[-25,43]],[[3638,383],[79,4],[13,33]],[[3902,147],[-53,-43],[-155,-104],[3,120],[-46,97],[43,69],[-24,27]],[[3796,1670],[2,-28],[77,-39]],[[3875,1603],[33,-10]],[[3908,1593],[-21,-109]],[[3639,1205],[-52,43],[-47,93],[-21,70]],[[3519,1411],[69,91],[131,16],[28,24],[-12,62],[35,37]],[[4382,2278],[47,-109],[56,-80],[4,-29]],[[4489,2060],[-31,-38],[-89,-18],[-39,-79],[24,-43],[52,-14],[-24,-71]],[[4382,1797],[-16,-39]],[[4366,1758],[-65,12],[19,-72],[-23,-19]],[[4297,1679],[-108,40],[6,-50],[-41,-13],[-138,39],[-61,3],[-10,-49]],[[3945,1649],[-70,-46]],[[3519,1411],[-32,34],[-3,68]],[[3484,1513],[20,60],[-44,66]],[[4992,596],[29,-160],[77,-30],[10,-68],[-50,-42],[13,-57]],[[5071,239],[-27,-14],[-65,51],[-53,-44],[-24,25],[2,102]],[[3730,435],[-66,42],[-56,81]],[[3608,558],[-41,83],[138,34],[-12,67]],[[4987,617],[150,50],[20,-14],[93,7]],[[5250,660],[-14,-81],[-27,-52],[-9,-115],[16,-29],[-13,-133],[23,-79],[-73,-9],[-26,25],[-3,68],[-53,-16]],[[4113,1258],[12,139],[-43,73],[-57,18],[-47,70],[-70,35]],[[3945,1649],[98,-53],[24,20],[75,1],[8,-123],[51,9],[61,-75],[49,30],[22,-30]],[[3138,1177],[-53,-39],[-78,24],[-87,-48],[-88,-98]],[[2832,1016],[-48,-45],[-62,16]],[[2722,987],[-16,33],[45,41],[41,-27],[18,57],[48,66],[-41,96]],[[2817,1253],[43,45],[91,29]],[[3176,1422],[44,-80],[45,-29],[77,-111]],[[4489,2060],[5,-101],[82,-18],[84,-39],[62,14],[15,-77],[28,-45]],[[4765,1794],[-38,-31],[-3,-67],[-60,-10],[-60,68],[-59,-84],[-103,66],[-60,61]],[[2952,968],[-58,46],[-62,2]],[[2500,856],[138,47],[5,39],[79,45]],[[4976,888],[43,29],[-44,93],[54,65]],[[5029,1075],[52,-34],[128,-232],[41,-149]],[[3608,558],[-28,-35],[-52,39],[-84,-5],[-16,-42]],[[4297,1679],[27,-79],[65,-15],[23,-37],[-19,-45],[37,-41]],[[2438,993],[-9,56],[64,102],[109,-38],[44,31],[23,73],[26,17]],[[2695,1234],[80,-19],[42,38]],[[2215,1181],[78,105],[130,69],[52,-9],[73,37]],[[2548,1383],[58,-35],[89,-114]],[[2738,1675],[44,40],[-33,32],[14,49],[-48,27],[24,87],[-46,51]],[[2789,1486],[-31,-14],[-84,15]],[[2674,1487],[-3,34],[-87,102]],[[2584,1623],[18,156],[34,22],[-76,105],[-12,104]],[[2548,2010],[0,45]],[[2584,1623],[-37,-18],[-78,0],[-53,25],[-127,-85],[-26,-48],[-46,-28],[-102,0]],[[2115,1469],[-20,111],[60,26],[135,138],[-19,34],[-123,56]],[[2148,1834],[54,110],[78,2],[108,-26],[84,88],[40,-32],[36,34]],[[3295,1503],[98,47],[91,-37]],[[2548,1383],[11,41],[115,63]],[[2053,1421],[62,48]],[[2063,1258],[-37,95],[20,17]],[[1309,2001],[116,18],[40,40],[7,51],[53,58]],[[1639,2142],[18,-42],[-4,-70],[32,-66],[75,-22],[129,20]],[[1889,1962],[55,-13]],[[1944,1949],[18,-33],[16,-139],[-15,-33],[4,-124],[-18,-29]],[[1878,2282],[75,-24],[31,-39]],[[1984,2219],[-55,-10],[-38,-115],[-2,-132]],[[515,1652],[17,60],[47,47],[14,63],[69,28],[12,33],[99,41],[50,38],[81,18],[65,-33]],[[1944,1949],[26,24],[72,-42],[72,-94],[34,-3]],[[2115,2462],[33,-103],[-22,-85],[-71,-56],[-71,1]],[[1170,2116],[41,-9],[33,51],[39,5],[59,51],[69,-37],[50,5],[1,113],[79,25],[-18,164],[29,31],[1,58],[82,111],[65,136]],[[1700,2820],[62,-15],[39,-98],[74,14]],[[1700,2820],[65,118],[-15,18],[85,98],[142,-4],[46,-18]],[[4366,1758],[-10,-40],[46,-75],[109,-55],[87,-75],[-36,-76]],[[4765,1794],[77,-108]],[[4959,1253],[19,-87],[51,-91]]],"transform":{"scale":[0.00022615197824548194,0.00017195512330024163],"translate":[138.71191138820006,35.75338410809019]},"objects":{"municipalities":{"type":"GeometryCollection","geometries":[{"arcs":[[0,1,2,3,4,5,6,7,8,9,10,11,12]],"type":"Polygon","properties":{"code5":"11100","name":"さいたま市"}},{"arcs":[[13,-12,14,15,16,17,18,19,20,21,22,23]],"type":"Polygon","properties":{"code5":"11201","name":"川越市"}},{"arcs":[[24,25,26,27,28,29,30,31]],"type":"Polygon","properties":{"code5":"11202","name":"熊谷市"}},{"arcs":[[-6,32,33,34,35,36]],"type":"Polygon","properties":{"code5":"11203","name":"川口市"}},{"arcs":[[-25,37,38,39,40]],"type":"Polygon","properties":{"code5":"11206","name":"行田市"}},{"arcs":[[41,42,43,44,45,46,47,48,49]],"type":"Polygon","properties":{"code5":"11207","name":"秩父市"}},{"arcs":[[-18,50,51,52,53,54]],"type":"Polygon","properties":{"code5":"11208","name":"所沢市"}},{"arcs":[[-47,55,56,57,58,59,60,61,62]],"type":"Polygon","properties":{"code5":"11209","name":"飯能市"}},{"arcs":[[-40,63,64,65,66]],"type":"Polygon","properties":{"code5":"11210","name":"加須市"}},{"arcs":[[67,68,69,70,71,72,73]],"type":"Polygon","properties":{"code5":"11211","name":"本庄市"}},{"arcs":[[-28,74,75,76,77,78,79]],"type":"Polygon","properties":{"code5":"11212","name":"東松山市"}},{"arcs":[[-4,80,81,82,83,84,85]],"type":"Polygon","properties":{"code5":"11214","name":"春日部市"}},{"arcs":[[-19,-55,86,-61,87]],"type":"Polygon","properties":{"code5":"11215","name":"狭山市"}},{"arcs":[[-39,88,-64]],"type":"Polygon","properties":{"code5":"11216","name":"羽生市"}},{"arcs":[[-26,-41,-67,89,90,91,92]],"type":"Polygon","properties":{"code5":"11217","name":"鴻巣市"}},{"arcs":[[-31,93,94,95,-68,96]],"type":"Polygon","properties":{"code5":"11218","name":"深谷市"}},{"arcs":[[-14,-24,97,98,99,100,-1,-13]],"type":"Polygon","properties":{"code5":"11219","name":"上尾市"}},{"arcs":[[-34,101,102,103,104,105]],"type":"Polygon","properties":{"code5":"11221","name":"草加市"}},{"arcs":[[-5,-86,106,107,-102,-33]],"type":"Polygon","properties":{"code5":"11222","name":"越谷市"}},{"arcs":[[-7,-37,108]],"type":"Polygon","properties":{"code5":"11223","name":"蕨市"}},{"arcs":[[-8,-109,-36,109,110,111]],"type":"Polygon","properties":{"code5":"11224","name":"戸田市"}},{"arcs":[[-54,112,-62,-87]],"type":"Polygon","properties":{"code5":"11225","name":"入間市"}},{"arcs":[[-9,-112,113,114,115,116]],"type":"Polygon","properties":{"code5":"11227","name":"朝霞市"}},{"arcs":[[-10,-117,117,118,119]],"type":"Polygon","properties":{"code5":"11228","name":"志木市"}},{"arcs":[[-111,120,-114]],"type":"Polygon","properties":{"code5":"11229","name":"和光市"}},{"arcs":[[-52,121,-118,-116,122]],"type":"Polygon","properties":{"code5":"11230","name":"新座市"}},{"arcs":[[-91,123,124,125,-99,126,127]],"type":"Polygon","properties":{"code5":"11231","name":"桶川市"}},{"arcs":[[-66,128,129,130,131,132,133,-124,-90]],"type":"Polygon","properties":{"code5":"11232","name":"久喜市"}},{"arcs":[[-92,-128,134,135]],"type":"Polygon","properties":{"code5":"11233","name":"北本市"}},{"arcs":[[-105,136,137]],"type":"Polygon","properties":{"code5":"11234","name":"八潮市"}},{"arcs":[[-11,-120,138,139,-15]],"type":"Polygon","properties":{"code5":"11235","name":"富士見市"}},{"arcs":[[-104,140,141,-137]],"type":"Polygon","properties":{"code5":"11237","name":"三郷市"}},{"arcs":[[-2,-101,142,-125,-134,143]],"type":"Polygon","properties":{"code5":"11238","name":"蓮田市"}},{"arcs":[[-22,144,145,146,147,-77,148]],"type":"Polygon","properties":{"code5":"11239","name":"坂戸市"}},{"arcs":[[-130,149,150]],"type":"Polygon","properties":{"code5":"11240","name":"幸手市"}},{"arcs":[[-21,151,-145]],"type":"Polygon","properties":{"code5":"11241","name":"鶴ヶ島市"}},{"arcs":[[-20,-88,-60,152,-146,-152]],"type":"Polygon","properties":{"code5":"11242","name":"日高市"}},{"arcs":[[-103,-108,153,154,-141]],"type":"Polygon","properties":{"code5":"11243","name":"吉川市"}},{"arcs":[[-16,-140,155]],"type":"Polygon","properties":{"code5":"11245","name":"ふじみ野市"}},{"arcs":[[-3,-144,-133,156,-81]],"type":"Polygon","properties":{"code5":"11246","name":"白岡市"}},{"arcs":[[-100,-126,-143]],"type":"Polygon","properties":{"code5":"11301","name":"伊奈町"}},{"arcs":[[-17,-156,-139,-119,-122,-51]],"type":"Polygon","properties":{"code5":"11324","name":"三芳町"}},{"arcs":[[-59,157,158,-147,-153]],"type":"Polygon","properties":{"code5":"11326","name":"毛呂山町"}},{"arcs":[[-58,159,160,-158]],"type":"Polygon","properties":{"code5":"11327","name":"越生町"}},{"arcs":[[-29,-80,161]],"type":"Polygon","properties":{"code5":"11341","name":"滑川町"}},{"arcs":[[-30,-162,-79,162,163,164,165,-94]],"type":"Polygon","properties":{"code5":"11342","name":"嵐山町"}},{"arcs":[[-165,166,167,168]],"type":"Polygon","properties":{"code5":"11343","name":"小川町"}},{"arcs":[[-23,-149,-76,169,-135,-127,-98]],"type":"Polygon","properties":{"code5":"11346","name":"川島町"}},{"arcs":[[-27,-93,-136,-170,-75]],"type":"Polygon","properties":{"code5":"11347","name":"吉見町"}},{"arcs":[[-78,-148,-159,-161,170,-163]],"type":"Polygon","properties":{"code5":"11348","name":"鳩山町"}},{"arcs":[[-45,171,-167,-164,-171,-160,-57,172]],"type":"Polygon","properties":{"code5":"11349","name":"ときがわ町"}},{"arcs":[[-46,-173,-56]],"type":"Polygon","properties":{"code5":"11361","name":"横瀬町"}},{"arcs":[[-43,173,-71,174,175,176]],"type":"Polygon","properties":{"code5":"11362","name":"皆野町"}},{"arcs":[[-70,177,178,-175]],"type":"Polygon","properties":{"code5":"11363","name":"長瀞町"}},{"arcs":[[-49,179]],"type":"Polygon","properties":{"code5":"11365","name":"小鹿野町"}},{"arcs":[[-44,-177,180,-168,-172]],"type":"Polygon","properties":{"code5":"11369","name":"東秩父村"}},{"arcs":[[-69,-96,181,-178]],"type":"Polygon","properties":{"code5":"11381","name":"美里町"}},{"arcs":[[-42,182,183,-72,-174]],"type":"Polygon","properties":{"code5":"11383","name":"神川町"}},{"arcs":[[-73,-184,184]],"type":"Polygon","properties":{"code5":"11385","name":"上里町"}},{"arcs":[[-95,-166,-169,-181,-176,-179,-182]],"type":"Polygon","properties":{"code5":"11408","name":"寄居町"}},{"arcs":[[-82,-157,-132,185]],"type":"Polygon","properties":{"code5":"11442","name":"宮代町"}},{"arcs":[[-83,-186,-131,-151,186]],"type":"Polygon","properties":{"code5":"11464","name":"杉戸町"}},{"arcs":[[-85,187,-154,-107]],"type":"Polygon","properties":{"code5":"11465","name":"松伏町"}}]}}}