{"type":"Topology","arcs":[[[17274,287325],[3,-76],[73,-32],[78,-7],[-9,-56],[56,-6],[-3,-32]],[[17472,287116],[1,-46],[-49,-44],[-118,-59],[-86,-33],[-15,-60],[25,-60],[-12,-152],[-138,-148],[-195,-65]],[[16885,286449],[-91,23],[-45,-30],[-24,21],[-71,24],[-86,65],[-48,121],[-61,0],[-49,66]],[[16410,286739],[-31,97],[35,106],[96,64],[54,63],[56,93],[89,113]],[[16709,287275],[80,3],[156,-33],[85,-3],[45,-32],[54,-17],[51,12],[-44,42],[35,42],[38,-3],[5,50]],[[17214,287336],[60,-11]],[[17472,287116],[133,-47]],[[17605,287069],[5,-92],[26,-43]],[[17636,286934],[41,-55],[5,-68],[-16,-45],[-58,-86],[-25,-54],[-15,-118],[40,-166],[3,-162],[8,-73]],[[17619,286107],[-22,-2],[-174,-141],[-14,1],[-140,-114],[-68,81],[68,56],[-24,27],[-68,-55],[-22,17],[-1,104],[50,-24],[21,17],[-72,80],[-55,-49]],[[17098,286105],[-116,71],[-23,192],[4,50],[-78,31]],[[17098,286105],[-43,-108],[-24,13],[-47,-185],[27,0],[1,-205],[-16,0],[-86,56],[-14,-5],[-46,-110],[-13,-203],[-37,-38]],[[16800,285320],[-72,-39],[-49,4],[-23,43],[-115,-15],[-50,-33],[-30,73],[-56,5],[6,60],[-18,49],[-41,35],[-41,3],[3,52],[-18,19],[-79,24],[-47,-35],[-68,92],[4,42],[48,47]],[[16154,285746],[44,65],[25,-1],[22,58],[-41,178],[20,43],[-94,36],[-64,4],[-43,33],[19,33],[-34,24],[-75,84],[109,132],[24,91],[33,11]],[[16099,286537],[61,27],[10,20],[-8,75],[112,26],[37,-1],[36,88],[63,-33]],[[16991,285400],[-41,-2],[2,-96],[-84,-1]],[[16868,285301],[11,172],[26,67],[82,0],[4,-140]],[[17469,285438],[-172,-114],[-58,-46]],[[17239,285278],[-54,83]],[[17185,285361],[110,73],[65,51],[-1,22],[-48,64],[46,31],[112,-164]],[[16099,286537],[-35,41],[-41,-11],[0,66],[40,90],[-71,63],[-83,27],[-6,42],[-28,48],[-64,-7],[-12,35],[-148,-63],[-153,-127],[-42,55],[-30,94],[-20,30],[33,67],[-17,14]],[[15422,287001],[33,56],[59,128],[-20,62],[3,68],[22,71],[92,57],[26,35],[-89,11],[-46,-5],[-105,-29],[-51,29],[26,24],[-3,45],[-33,4],[-4,55],[-68,82],[-59,-26],[2,41],[44,42],[-13,44],[11,54],[34,88]],[[15283,287937],[84,-58],[28,-85],[35,-29],[47,6],[152,-14],[20,-9],[84,15],[18,28],[100,-13],[5,-65],[22,-39],[-28,-75],[27,-61],[31,11],[64,-10],[35,32],[48,-39],[168,-23]],[[16223,287509],[16,-46],[57,-31],[121,2],[13,-47],[62,21],[9,24],[145,-27],[12,-9],[30,-103],[21,-18]],[[16223,287509],[-56,43],[-46,13],[15,81],[92,31],[41,26],[-26,60],[-15,68],[43,38],[35,10],[114,-74],[45,37],[68,33],[-30,62],[61,56],[41,-31],[53,62],[-20,24],[54,51],[86,-74],[75,54]],[[16853,288079],[18,3],[131,-90],[21,16]],[[17023,288008],[38,-37]],[[17061,287971],[45,-88],[-35,-134],[81,-91],[-24,-41],[-7,-75],[41,-16],[0,-48],[-21,-58],[96,7],[-22,-39],[-1,-52]],[[17061,287971],[41,-15],[27,-65],[78,15],[112,-50],[33,-30],[98,-8],[16,38],[46,43],[69,3],[35,19],[37,62],[67,-24],[13,-32],[132,7],[173,-28]],[[18038,287906],[-8,-95],[-19,-99],[-37,-74],[-151,-172],[-49,-69],[-74,-164],[-73,-113],[-22,-51]],[[18038,287906],[34,121],[58,81],[7,65]],[[18137,288173],[44,67],[78,49]],[[18259,288289],[72,-143],[124,-164],[153,-181],[105,-116]],[[18713,287685],[-65,-55],[-74,19],[-49,-53],[10,-43],[49,-46],[70,-33],[3,-26],[-80,-79],[-26,-49],[21,-43]],[[18572,287277],[-98,0],[-38,26],[-212,99],[21,-374],[-131,-9],[-40,-20],[9,-83],[-52,-3],[2,-37],[-93,-5],[-4,43],[-90,-5],[-28,36],[-58,0],[-60,27],[-64,-38]],[[18572,287277],[175,-87],[27,-24],[54,-90],[4,-111],[-6,-61],[-43,-170],[56,-54],[-28,-133],[-28,-428]],[[18783,286119],[-54,2],[-8,-85],[-17,-67],[-16,-192],[-15,-230],[-87,-14],[-300,-34],[-8,37],[258,30],[17,236],[-267,-28],[-26,-33],[-255,-29],[-9,72],[19,38],[-54,0],[20,-199],[-117,-14],[2,-89],[-24,-43],[39,-122],[-75,-110],[-137,202],[-98,-65],[-49,58],[-126,187],[46,42],[32,-27],[36,44],[210,137],[30,-45],[46,41],[-9,75],[-59,67],[-3,-80],[-302,-197],[-29,0],[-55,77],[218,177],[121,86],[-59,83]],[[17469,285438],[53,-79],[-82,-62],[242,-358],[-123,-194],[-282,417],[6,44]],[[17283,285206],[-44,72]],[[17721,284503],[-22,16],[215,141],[14,-20]],[[17928,284640],[-207,-137]],[[18048,284543],[2,13],[-70,87],[-28,41],[306,200],[24,-44],[-40,-26],[21,-41],[-110,-72],[36,-55],[-107,-70],[-62,93],[-21,-14],[68,-100],[-19,-12]],[[18195,284943],[30,-27],[-553,-361],[-39,30],[18,42],[154,249],[9,-5],[242,158],[139,-86]],[[17786,285134],[-67,-86],[-190,280],[96,62],[167,-247],[-6,-9]],[[18670,285479],[-30,-424],[-65,-43],[-102,150],[48,31],[-26,38],[-48,-32],[-41,-4],[-33,272],[233,27],[64,-15]],[[18352,285692],[169,17],[-4,-54],[-159,-18],[9,-75],[-91,-10],[-15,125],[52,65],[67,24],[-28,-74]],[[17471,285675],[-4,10],[158,103],[5,-9],[-159,-104]],[[16991,285400],[7,-217],[-7,-7],[-131,-2],[8,127]],[[17283,285206],[-59,-38],[-61,84],[-2,92],[24,17]],[[16800,285320],[33,-1],[-7,-161],[-22,-273],[3,-36],[-43,-79],[-16,-3],[-16,-263],[-9,-51]],[[16723,284453],[-161,-57],[-61,-13],[-120,0],[-24,37],[33,83],[-34,14],[-14,42],[-148,-3],[-16,-47],[-29,11],[-33,88],[-42,14],[-19,77],[-58,17],[-220,19],[-59,54],[-59,98]],[[15659,284887],[4,119],[16,48],[37,28],[88,121],[2,59],[-17,17],[-101,36],[35,25],[62,7],[53,-29],[73,37],[33,4],[54,40],[61,27],[-5,131],[-24,82],[29,25],[15,46],[48,32]],[[16122,285742],[32,4]],[[17277,284593],[-132,-80],[-29,48],[-59,3],[6,-122],[-6,-118],[-138,-2],[1,108],[-119,3],[-17,-13]],[[16784,284420],[15,63],[-22,21],[-9,79],[8,134],[56,99],[26,325],[103,1],[83,-76],[40,-144],[-8,-5],[201,-324]],[[15659,284887],[-33,44],[-52,42],[-108,19],[-44,35],[15,-94],[1,-100],[-60,10],[-24,-67],[-9,-60]],[[15345,284716],[-1,55],[-20,68],[-42,59],[-84,5],[-98,-41],[-71,25],[-36,26],[-3,178],[34,27],[-2,38],[36,7],[-19,81],[-37,64],[-7,59],[-35,20],[9,69],[-16,37],[50,6],[169,-56],[92,-62],[32,-47],[39,21],[46,123],[46,78],[38,95],[0,63],[-37,80],[9,51],[-17,86],[14,53],[-30,60],[-76,90],[-68,104],[-25,60]],[[15235,286298],[97,-2],[116,-30],[43,-26],[79,-123],[37,-67],[121,-128],[206,-172],[42,-1],[96,17],[50,-24]],[[17928,284640],[24,-37],[127,-188],[-122,-80],[-236,168]],[[17277,284593],[-6,-6],[81,-131],[-75,-85],[48,-43],[35,1],[29,32],[67,-50],[120,-112],[-53,-60],[-41,-13],[-340,1],[50,77],[-32,31],[-73,-86],[-32,-22],[-137,-2],[-38,32],[-96,263]],[[16723,284453],[27,-37],[86,-231],[-5,-55],[-34,-14],[12,-37],[40,7],[31,-25],[47,-136],[-7,-13],[-120,-29],[-9,-19],[66,-81],[9,-29],[47,12],[61,41],[50,-30],[57,-67],[151,213],[301,39],[329,-557],[56,-57],[108,-174],[-61,-39],[-235,-134],[-152,54],[-22,37],[-45,-10],[-48,83],[-69,-43],[-48,-63],[-175,122],[-241,130],[-133,1],[-69,-19],[-153,33],[-36,-19],[-63,-85],[-40,6],[-42,39],[-96,17],[-78,-49],[-59,-60],[-46,-27],[-136,-37],[-105,-7],[-73,19],[-48,33],[-41,78],[-4,58],[14,41],[106,100],[14,60],[-23,38],[-67,52],[-43,18],[-119,13],[-51,16],[-74,52],[-94,46],[-58,45],[-49,76],[-107,313],[-41,155],[-42,61],[-60,60],[-22,8],[-147,-4],[-24,11]],[[14821,284453],[40,81],[-85,63],[18,35],[41,-21],[36,63],[50,24],[56,-38],[51,13],[96,4],[96,-134],[28,-49],[104,76],[-7,146]],[[18182,283029],[-118,-127],[-81,73],[265,282],[68,37],[61,-57],[-195,-208]],[[17091,284073],[193,-2],[-27,-53],[-137,-197],[-148,88],[-28,77],[9,74],[125,-1],[13,14]],[[14821,284453],[-98,61],[-31,57],[-188,131],[-54,68],[-50,20],[-64,54],[-13,36],[-132,63],[-19,30],[-126,73],[-49,-13],[-70,63],[-67,16],[-37,-21],[-51,4],[-97,65],[-72,2],[-73,-23],[-60,21]],[[13470,285160],[-19,71],[13,80],[43,-21],[32,74],[-48,112],[3,51],[-34,34],[-41,13],[-33,54],[-35,96],[43,42],[22,89]],[[13416,285855],[40,-26],[52,19],[-2,137],[23,4],[-15,97],[-29,-2],[-22,48],[-3,92],[-16,38],[-32,3],[5,45],[47,57],[-22,69]],[[13442,286436],[-8,28],[-83,41],[-38,41],[82,5],[3,95],[32,29],[-26,40],[14,30],[73,-3],[61,13]],[[13552,286755],[78,-8],[111,-29],[103,-106],[20,-39],[-8,-84],[46,-36],[108,-4],[8,68],[-68,7],[-25,43],[8,38],[190,-88],[71,-63],[0,-25],[158,-26],[136,-56],[45,34],[82,12],[52,19],[54,37],[100,16],[138,49]],[[14959,286514],[6,-27],[222,22],[-8,-58],[10,-65],[46,-88]],[[14959,286514],[-3,56],[52,40]],[[15008,286610],[27,16],[53,76],[70,37],[78,75],[16,34],[94,99],[76,54]],[[15008,286610],[19,67],[-51,10],[-69,62],[27,60],[-28,60],[36,2],[54,34],[12,27],[48,30],[24,33],[-33,81],[-33,13],[-67,-7],[-10,25],[38,76],[-30,55],[-4,81],[-56,9],[1,105],[-88,2],[-51,-8],[-181,63],[-25,33],[3,48],[-101,44],[-99,11],[-18,39],[11,30],[-60,33],[-98,210],[5,18]],[[14184,287956],[40,77],[40,52],[108,0],[32,-75],[28,0],[38,-107],[35,-43],[76,-25],[79,5],[1,31],[91,-10],[97,1],[120,14],[25,30],[26,71],[119,34],[22,30],[67,-12],[68,-59]],[[15296,287970],[-13,-33]],[[13552,286755],[-12,50],[-40,32],[-23,40],[54,24],[18,26],[-45,47],[-107,77]],[[13397,287051],[32,41],[41,-20],[79,213],[30,53],[-84,83],[-100,79]],[[13395,287500],[-4,54],[-28,51],[0,48],[36,43],[55,13],[91,-49],[38,81],[86,59],[45,53],[158,67],[121,40],[13,-11],[120,15],[58,-8]],[[15296,287970],[28,73],[-12,20],[42,87],[0,22]],[[15354,288172],[38,9],[147,55],[61,58],[41,-35],[90,4],[8,-67],[36,5],[26,-65],[38,-4],[89,112],[44,104],[70,-13],[21,12],[98,-18]],[[16161,288329],[10,-81],[75,-47],[49,54],[41,66],[98,9],[-18,-44],[79,-69],[114,45],[66,-34],[-7,-35],[93,-23],[25,-54],[67,-37]],[[16161,288329],[39,32],[27,173],[-20,16],[-113,172],[-63,59],[-49,13],[-13,35],[-41,10],[-41,39],[-2,37],[-37,163],[-43,153],[14,38],[-19,37],[-64,-45],[-86,9],[-77,44],[-37,60],[24,95],[26,32],[95,146],[8,30]],[[15689,289677],[175,-137],[82,-35],[171,-3],[101,-29],[18,-59],[28,-28],[44,6],[152,64],[52,-26],[45,-41],[-15,-172],[5,-7]],[[16547,289210],[-4,-70],[-36,-82],[-8,-63],[20,-36],[77,-25],[110,-52],[116,8],[77,23],[61,45],[37,-35],[8,-50],[-40,-54],[-193,-120],[-11,-43],[36,-41],[164,-40]],[[16961,288575],[-8,-42],[-139,13],[-26,-63],[3,-27],[50,-20],[52,-3],[14,-40],[50,0],[-12,-53],[65,-51],[53,6],[63,-51],[47,-4],[18,-56],[44,-34],[-102,-43],[-51,-31],[-8,-31],[-43,3],[-8,-40]],[[16961,288575],[134,-22],[151,-9],[92,1],[133,12],[45,-7],[86,-34],[49,-55],[-5,-46],[-46,-36],[5,-66],[22,-39],[51,-52],[49,-23],[159,-30],[139,56],[82,-4],[30,-48]],[[15354,288172],[-32,36],[34,91],[-103,39],[-79,-4],[61,167],[-38,87],[11,76],[-63,91],[-35,112],[-37,19],[-127,35],[-208,12],[-67,-14],[-41,14],[-62,44],[-51,-45],[-118,-8],[-2,27],[-94,61],[-17,-7],[0,121],[-15,15],[-74,11],[-10,48]],[[14187,289200],[-4,24],[68,58],[3,39],[80,42],[-3,46],[55,54],[69,13],[39,50],[24,121],[65,13],[95,-15],[106,65],[92,7],[171,0],[79,-6],[84,-27],[95,-9],[73,12],[124,39],[110,-11],[77,-38]],[[13395,287500],[-96,51],[-54,40],[-65,67],[-49,30],[-173,56]],[[12958,287744],[-8,65],[16,70],[71,178],[-44,55],[20,43],[-2,117],[-29,117],[43,4],[-22,62],[25,46],[-27,33],[1,46],[-103,163]],[[12899,288743],[49,7],[64,41],[59,-4],[-22,51],[95,21],[-5,50],[53,-3],[27,69],[85,9],[30,39],[6,52],[53,9],[46,83],[97,-33],[15,38],[64,-9],[-6,-49],[155,-35],[-123,-72],[-22,-29],[26,-47],[94,44],[14,-18],[52,21],[17,-40],[33,-13],[30,43],[97,8],[50,-13],[-9,-48],[19,-45],[109,6],[23,109],[32,44],[-28,28],[9,143]],[[16547,289210],[95,37],[76,54],[9,74],[44,-21],[72,6],[56,17],[26,43],[-13,35],[91,108],[16,77],[-20,38],[-73,70],[-21,36],[-96,88],[2,87],[24,19],[68,-5],[41,33],[86,21],[94,72],[9,43],[85,0],[30,-15],[112,-147],[43,-69],[47,-27],[134,-12],[94,-35],[61,1],[72,22],[72,59],[51,6],[101,-12],[77,0],[97,53],[35,33],[30,83],[48,-23],[32,-56],[-6,-32],[-36,-31],[-45,-97],[-23,-149],[18,-51],[41,-47],[41,-18],[34,-40],[99,32],[40,27],[80,112],[29,16],[112,-25],[70,-83]],[[18808,289617],[-51,-66],[1,-67],[19,-87],[58,-146],[34,-55],[97,-121],[71,-100],[22,-73],[-15,-51],[-31,-37],[-92,33],[-18,104],[-115,-9],[-45,-28],[-40,-49],[-84,-17],[-4,-65],[-33,-4],[-73,21],[-28,-28],[0,-91],[-24,-36],[-48,-8],[-44,45],[17,64],[-39,-8],[-18,-138],[-68,3],[-11,112],[-53,7],[-76,-27],[-7,-16],[6,-114],[22,-53],[55,-80],[66,-143]],[[18808,289617],[123,-109],[40,-27],[40,-3],[71,110],[82,-13],[80,47],[64,16],[83,-20],[38,-68],[-13,-41],[-56,-45],[-36,-60],[-4,-60],[67,-95],[56,-16],[122,35],[86,37],[136,-32],[14,-71],[-22,-40],[-102,-63],[-118,-57],[-43,-46],[-27,-104],[67,-138],[11,-85],[17,-30],[124,-167]],[[19708,288472],[-85,-2],[-67,-28],[3,-52],[43,-23],[-20,-42],[-43,-12],[-41,-107],[-48,20],[-14,-82],[-65,-19],[-6,-43],[-33,-68],[5,-60],[-39,-32],[6,-102],[-38,-22],[-52,-132],[48,-99],[-41,-42],[-90,-2],[-125,41],[-36,-41],[-66,-49],[-191,211]],[[19708,288472],[60,-67],[79,-34],[58,-58],[31,-108],[-1,-66],[-62,-139],[-15,-129],[30,-82],[111,-97],[36,-44],[50,-99],[111,-84],[58,-63],[16,-112],[34,-92],[2,-53],[-102,-170],[-108,-136],[-56,-46],[-45,-14],[-213,-28],[-117,-50],[-31,-36],[-17,-92],[1,-70],[33,-82],[-3,-107],[6,-209],[-10,-61],[-71,-216],[-81,-59],[-170,-103],[-50,13],[-61,-14],[-90,-3],[-79,17],[-96,48],[-31,27],[-51,15],[20,345],[-101,5]],[[18993,285664],[-119,-4],[19,47],[36,-2],[64,-41]],[[8081,287539],[26,-21]],[[8107,287518],[-22,-19],[-2,-53],[35,-116],[79,-90],[-24,-58],[8,-78],[90,-61],[126,-42],[120,13],[34,16],[198,15],[89,-40],[180,-13]],[[9018,286992],[52,-78],[-74,-68],[17,-55],[-19,-35],[33,-95],[-4,-48],[-70,-76],[-56,-122],[41,-70],[-213,-130],[-69,-30],[11,-64],[-43,-25],[17,-43],[65,-89],[87,-103],[69,-53],[88,-12],[74,39],[42,-32],[5,-46],[-15,-74],[82,50],[66,0],[45,-15],[73,5],[23,-33],[89,22],[41,-17],[23,35],[147,102],[55,-15],[57,34],[67,25]],[[9824,285876],[11,-45],[45,-53],[105,-49],[23,-40],[61,-39],[58,-101],[4,-50],[-54,1],[-45,-53],[-31,1],[-77,-33],[-86,-75],[-52,0],[-29,-31],[-82,-44],[-10,-32],[-55,-14],[-39,-76],[-33,-35],[-9,-44],[-48,-66],[-101,-83],[5,-11]],[[9385,284904],[-51,-35],[-34,-2],[-48,-47],[17,-61],[-41,-93],[-98,86],[-38,9],[-33,30],[-49,16],[-52,-2],[-43,40],[-50,14],[-64,58],[-89,-82],[-42,26],[-123,21],[-42,34],[-85,6],[-122,120],[-45,85],[43,66],[-32,26],[-41,65],[-14,-58],[25,-37],[-25,-134],[-34,17],[-98,13],[-19,25],[-35,-35],[-43,19],[-17,-20],[-58,-4],[-27,18],[-83,-7],[-46,-59],[-35,39],[-72,33],[-53,12],[-85,-27],[-114,23],[-26,-15],[-63,71],[-5,55],[-30,12],[-59,-20],[-46,45],[-28,-30],[-60,-1],[-20,-25],[-40,7],[-17,-32],[-45,-5],[-28,-77],[-46,-43],[-38,5],[-57,-46],[0,-70]],[[6782,284933],[-62,-50],[6,-43],[-28,-79],[-72,10],[-75,34],[-114,-64],[-31,38],[-81,51],[-30,-2],[-58,28],[-83,18],[-14,59],[-27,10],[-44,49],[-97,72],[10,64],[-31,77],[-35,22],[-36,67],[-109,45],[-15,28],[40,70],[-47,62],[-13,42],[-39,27],[-25,56],[1,55],[-22,56],[7,64],[20,40],[-20,35],[-69,54],[-94,19],[-35,43],[-151,34],[-48,-41],[-33,13],[-33,-36],[-21,-75],[-72,-20],[-84,-37],[-61,16],[-40,-4],[-64,65],[-18,39],[-72,15],[-51,28],[-48,-11],[-6,43],[22,25],[17,74],[-5,47],[-30,26],[5,56],[-42,37],[0,41],[-74,74]],[[4551,286399],[66,63],[25,114],[43,50],[41,78],[17,84],[12,132]],[[4755,286920],[54,12],[103,0],[63,-29],[44,25],[58,-26],[94,-5],[39,31],[49,-16],[79,-4],[16,47],[-1,101],[9,124],[88,15],[11,87],[-20,44],[3,61],[50,134],[67,22],[98,72],[50,59],[37,-51],[62,-16],[41,11],[48,-18],[54,9],[24,-22],[64,-2],[57,-21],[31,-29],[78,18],[47,-39],[36,22],[27,-60],[68,-11],[48,44],[66,11],[62,-12],[58,-45],[168,-10],[37,17],[31,48],[-5,47],[49,12],[53,-26],[103,-8],[28,-21],[46,14],[70,-5],[55,13],[60,-7],[33,-48],[159,27],[30,-25],[72,86],[2,22],[106,-48],[48,7],[69,121],[77,-70],[47,-84],[51,-63],[30,48],[45,29]],[[9812,288029],[37,-24],[115,-20],[85,-6],[13,-22]],[[10062,287957],[-42,-12],[190,-65],[43,-59],[218,-47]],[[10471,287774],[-41,-250],[-16,1],[-37,73],[-105,-26],[-67,90],[-105,-26],[71,-143],[7,-27],[75,-171],[-111,-4]],[[10142,287291],[-14,21],[-49,-19],[-35,-44],[40,-88],[86,-36],[-36,-75],[24,-9],[3,-82],[-58,21],[-29,-58],[-48,-53],[-67,47],[-46,-93],[-36,-53]],[[9877,286770],[-92,18],[-156,54],[-219,89],[-154,30],[-55,23]],[[9201,286984],[73,44],[-1,53],[35,91],[57,7],[21,83],[-12,20],[23,74],[23,13],[58,110],[-56,45],[-23,-31],[-74,93],[-42,-24],[-40,57],[37,31],[-70,64],[-63,7],[-66,25],[52,34],[-36,62],[-49,-34],[-28,31],[-64,-4],[-68,-20],[-4,32],[-63,-16],[-103,29],[13,-53],[-111,41],[-44,-18]],[[8576,287830],[6,30],[-41,42],[-18,122],[20,5],[-11,75],[127,32],[18,56]],[[8677,288192],[116,-12],[83,-80],[17,37],[79,-17],[81,-40],[11,-39],[56,33],[48,-45],[8,62],[97,-47],[54,0],[-80,85],[-46,15],[-4,97],[46,-8],[20,-45],[151,-148],[62,36],[41,-29],[44,6],[134,-10],[13,-25],[104,11]],[[13397,287051],[-40,82],[-102,39],[-68,66],[-82,-62],[-42,-3],[-172,77],[-255,122],[11,-291],[-35,-3],[-140,41],[-2,-35],[-118,1],[-2,74],[-52,17]],[[12298,287176],[-7,53],[-29,46],[7,155],[-111,20],[4,73],[-45,6],[26,105]],[[12143,287634],[9,31],[65,-25],[-12,-118],[51,-5],[114,-32],[73,46],[177,94],[108,97],[55,24],[97,6],[78,-8]],[[13442,286436],[-60,32],[-95,-5],[-64,67],[-6,-73],[17,-33],[19,-85],[48,-12],[-79,-64],[-12,-36],[-47,-25],[-12,55],[-39,48],[-87,-17],[-56,19],[-38,120],[2,81],[-45,143],[-29,121],[-131,-18],[-50,-32],[-140,31],[-15,-44],[-37,4],[-15,-81],[-17,-183],[11,-49],[51,-33],[-58,-59],[-52,7],[-34,23],[0,39],[-39,56],[-25,-44],[-63,4],[22,56],[-40,26],[-26,69],[-27,19],[-35,69],[7,48],[-25,44],[68,7],[4,42],[-41,34]],[[12152,286807],[-13,68],[-38,37],[9,42],[41,-15],[35,29],[75,-33],[-16,132],[59,7],[-6,102]],[[8063,289545],[-39,-46],[33,-29],[-80,-90],[-87,69],[-27,-37],[-2,-124],[72,-57],[-8,-26],[-56,-70]],[[7869,289135],[-54,29],[-129,-72],[-18,31],[-46,-26],[-24,38],[-98,22],[-29,44],[-73,35],[-61,-91],[-70,-57],[20,-83],[44,-56],[30,-88],[-2,-79],[19,-76],[-19,-139]],[[7359,288567],[-46,20],[-88,118],[-41,-11],[-8,33],[-242,17],[-40,-18],[-101,6],[-45,-27],[-60,12],[-58,-18],[-97,22]],[[6533,288721],[-39,56],[-64,39],[-23,38],[-124,35],[-46,-15],[-89,5],[-1,31],[-63,28],[-32,-19],[-41,7],[-22,28],[-142,71],[-27,-10],[-38,39],[-59,-27],[-55,8],[-19,21],[-80,-23],[-85,132],[-59,43],[-30,58],[-68,50],[-13,49],[-57,10],[-90,46],[-50,10],[-54,-32],[-88,-4],[-57,-37],[-75,-32],[-73,-67],[-101,-27],[-33,-39],[-55,-33]],[[4581,289160],[-51,-27],[-41,19],[-23,-110],[-60,-7],[-34,23],[-13,45],[-67,72],[-19,-24],[0,-65],[-35,1],[-43,41],[-35,-15],[-71,-108],[-36,10]],[[4053,289015],[-10,140],[69,24],[48,51],[104,25],[-19,76],[14,99],[0,65],[-13,35],[37,36],[23,48],[100,33],[35,23],[41,-8],[55,23],[81,60],[52,3],[88,46],[3,38],[41,43],[39,1],[-27,150],[66,184],[-45,166],[66,94],[-31,62],[9,52],[-42,23],[-75,99],[-13,-1],[-104,75],[6,40],[-35,67],[-44,58],[19,33]],[[4591,290978],[55,-23],[61,1],[40,-34],[70,-8],[61,-43],[132,-76],[11,-19],[56,1],[116,-64],[70,-6],[73,30],[79,-1],[35,46],[2,38],[54,46],[46,-6],[61,11],[27,-29],[112,-73],[16,-29],[93,-22],[66,-36],[61,-58],[39,-2],[65,42],[33,47],[77,-1],[33,-85],[89,3],[113,34],[137,-25],[35,-31],[66,35],[95,21],[76,36],[169,-9],[38,5],[22,-59],[47,-29],[21,22],[99,27],[31,-24],[66,-79],[15,32],[101,-4],[12,-87],[-11,-43],[31,-94],[-2,-49],[87,-26],[98,56],[71,-1],[26,-39],[7,-108],[-30,-64],[0,-63],[35,-40],[1,-30],[33,-41],[9,-53],[56,-142],[16,-61],[36,-69],[36,-41],[97,-22],[0,-18]],[[10844,287133],[-5,-45],[63,-3],[20,-71],[-39,-23],[-7,-70],[47,-11],[118,20],[81,5],[17,26],[111,22],[61,23],[33,70],[32,12]],[[11376,287088],[-25,-63],[13,-49],[70,-36],[71,-22],[11,-48],[50,-28],[24,39],[64,2],[-38,-67],[39,3],[60,47],[160,-18],[21,6],[3,76],[31,39],[43,14],[83,-97]],[[12056,286886],[-7,-54],[-30,-90],[9,-27],[70,-21],[16,-93],[29,-90],[-21,-79],[-47,-36],[-33,-90],[-45,-94],[-41,-52],[2,-49],[65,-67],[6,-68],[-3,-121]],[[12026,285855],[-83,78],[-99,48],[-110,-8],[-77,-24],[-76,38],[-69,11],[-120,3],[-28,-13],[-53,29],[-150,-17],[-110,-31],[-4,-35]],[[11047,285934],[-26,-1],[-97,48],[-262,78],[-77,28],[-199,63]],[[10386,286150],[-27,55],[-83,94],[-118,149],[-26,24]],[[10132,286472],[40,46],[90,-29],[20,17],[93,-37],[9,35],[102,25],[83,-39],[54,3],[-47,48],[-9,77],[19,68],[-6,32],[33,72],[14,103],[51,91],[70,27]],[[10748,287011],[17,187],[57,1],[22,-66]],[[8107,287518],[21,20],[112,61],[12,38],[-13,51],[58,47],[30,7],[67,-16],[57,15],[74,34],[8,49],[43,6]],[[9201,286984],[-183,8]],[[13416,285855],[-43,-17],[-36,75],[-67,-30],[-85,76],[-46,10],[-50,-32],[-51,-11],[-15,-39],[-42,3],[-35,-64],[-35,-91],[-3,-100],[-26,-120]],[[12882,285515],[-71,29],[-72,11],[-118,4],[-36,58],[-245,70],[-105,62],[-114,18]],[[12121,285767],[-31,19],[-64,69]],[[12056,286886],[46,14],[14,-48],[36,-45]],[[9385,284904],[38,2],[19,34],[40,20],[99,-25],[96,66],[47,-50],[53,55],[63,-2],[53,-49],[46,-11],[54,-79],[57,-19],[50,13],[-1,42],[83,-47],[34,-8],[50,22],[40,71],[82,-3],[79,-19],[36,54],[29,19]],[[10532,284990],[48,-51],[32,-53],[10,-72],[37,14],[47,52],[67,30],[53,-9],[13,27],[60,-13],[-2,-51],[77,-78],[19,-60],[58,-34],[60,-4],[32,-29],[19,-66],[53,-10],[93,-93],[117,-80],[19,17],[33,-71],[-28,-48],[17,-40],[72,-17],[38,-28],[130,-155],[39,-25],[-16,-52],[-46,-2],[-78,-30],[5,-47],[-58,-16],[-37,-82],[-33,6],[-38,-59],[-38,-27],[-37,9],[-4,35],[-55,144],[-74,61],[18,14],[22,93],[31,72],[42,-3],[33,129],[-64,28],[-38,-2],[-58,-72],[-85,-26],[-44,1],[-57,-102],[0,-70],[-36,-75],[-39,-34],[-13,-116],[-15,-39],[44,-73],[100,-16],[24,69],[29,-48],[41,-30],[47,-94],[0,-141],[8,-65],[-31,-36],[-12,-71],[27,-80],[49,-19],[20,-28],[-2,-53],[39,-8],[-20,-107],[42,-87],[-26,-32],[20,-62],[-36,-44],[15,-52],[-66,-28],[-61,-111],[-70,-88],[86,-148],[77,-31],[-93,-27],[-83,-41],[-53,-2],[-50,20],[-76,5],[10,99],[-16,39],[-55,78],[-17,61],[-1,78],[-15,35],[-51,38],[-97,24],[-28,61],[45,65],[27,67],[-70,53],[-12,27],[-78,57],[-40,44],[-10,63],[-64,84],[-92,46],[-53,65],[-44,31],[-54,-12],[-30,60],[-68,41],[-50,92],[-50,46],[-30,89],[-93,62],[-38,1],[1,46],[-58,61],[-56,120],[-37,108],[-51,12],[-68,-6],[-41,49],[-3,56],[-28,51],[-13,71],[-90,-13],[-13,37],[-65,-9],[-51,82],[-69,-8],[-172,88],[-38,54],[-51,27],[-48,-14],[-80,71],[-74,45],[-79,-11],[-53,10],[-38,33],[-91,17],[-168,58],[-12,31],[-41,25],[-42,-30],[-119,-2],[-56,-15],[-49,4],[-19,21],[-117,46],[-136,-54],[-96,-3],[-69,31],[-28,-20],[-66,33],[-50,6],[-10,31],[-35,13],[-4,36],[-88,60],[-136,17],[-17,22],[-49,-3],[-63,-45],[-116,-10],[-61,-30],[-53,-13]],[[11376,287088],[28,41],[10,79],[-145,50],[22,52],[22,-1],[18,54],[-36,49]],[[11295,287412],[10,7],[113,-15],[15,47],[64,-8],[10,88],[97,-21],[151,-2],[16,103],[128,22],[175,46]],[[12074,287679],[-5,-31],[74,-14]],[[10062,287957],[46,-3],[151,80],[136,78],[64,-33],[33,4],[81,45]],[[10573,288128],[226,122],[94,55],[96,-33],[84,-52],[46,-19],[-2,-60],[34,-8],[1,-50],[92,-4],[62,-13],[12,131],[-32,28],[10,75]],[[11296,288300],[85,15],[31,-74],[142,71],[-1,38],[118,-76],[-10,-36],[22,-29],[-8,-87],[17,-3],[-7,-111],[24,-4],[7,106],[17,93],[29,-40],[93,-11],[52,29],[125,-4],[-20,-138]],[[12012,288039],[-72,-72],[20,-78],[118,-105],[28,-96],[-32,-9]],[[11295,287412],[-114,149],[-36,-141],[-40,5],[-97,53],[2,109],[-148,37],[-130,26],[-16,73],[-245,51]],[[9877,286770],[30,-14],[71,-76],[112,-161],[42,-47]],[[10386,286150],[-59,-21],[-18,-64],[-13,-114],[-76,21],[-20,-65],[-57,-28],[-74,-83],[-24,25],[-88,36],[-96,70],[-37,-51]],[[10573,288128],[-18,47],[29,27],[-18,51],[10,112],[-50,34],[-25,35],[-14,70],[14,14],[-28,77],[-43,2],[-75,112],[8,50],[-19,38],[16,82]],[[10360,288879],[87,-9],[26,32],[107,35],[150,9],[8,50],[48,42],[41,-12],[36,22],[102,11],[27,-20],[70,49],[20,39],[64,39],[20,37],[41,15],[73,6],[96,-41],[27,33],[59,-22],[-5,53],[52,-3],[16,-72]],[[11525,289172],[-5,-45],[24,-119],[33,-12],[21,-54],[20,-98],[-84,-80],[158,-33]],[[11692,288731],[-160,-45],[-49,-25],[10,-45],[-27,-14],[-1,-53],[-105,-76],[-52,-58],[14,-27],[-26,-88]],[[10748,287011],[-79,59],[-147,156],[-56,-17],[-88,2],[-13,24],[-115,0],[-72,8],[-36,48]],[[8081,287539],[-35,173],[-23,83],[0,104],[-135,122],[-39,14],[-70,251],[-60,95]],[[7719,288381],[76,49],[27,41],[45,-16],[23,88],[60,32],[31,-11],[19,-37],[42,-14],[46,18],[7,-35],[80,-14],[42,20],[20,-46],[81,-7]],[[8318,288449],[-6,-92],[66,23],[136,-146],[27,32],[-61,66],[11,47],[77,-36]],[[8568,288343],[29,-13],[-24,-58],[75,-37],[29,-43]],[[13470,285160],[-80,51],[-75,29],[-57,10],[-56,-5],[-130,65],[-71,63],[-43,7],[11,56],[-73,49],[-14,30]],[[9812,288029],[-17,55],[-50,50],[18,46],[-22,45],[-9,73],[1,93],[-66,28],[-4,90],[36,75],[6,75],[-36,66],[-50,30],[-53,-24],[-43,22],[-121,20],[-25,-15],[-38,30]],[[9339,288788],[88,22],[52,4],[39,84],[95,35],[60,-18],[37,6],[133,-60],[76,-10],[55,48],[112,-34],[25,13],[57,-16],[35,25],[46,-5],[59,21],[28,30],[24,-54]],[[11525,289172],[26,62],[28,24],[91,18],[62,-3],[36,48],[72,10],[26,24],[18,62],[59,11],[71,-14],[48,21],[61,67],[78,56],[52,67],[16,37],[90,141],[101,85],[54,-17],[20,-52],[40,-48],[-20,-85],[-44,-69],[-89,-69],[-47,-75],[67,-22],[63,-42],[0,-134],[-17,-76],[-114,-73],[-33,-43],[-77,-44],[-79,-9],[-52,-23],[-60,-5],[-52,-47],[-87,-112]],[[11933,288843],[-162,-88],[-79,-24]],[[11933,288843],[104,50],[118,17],[68,3],[52,27],[79,20],[105,44],[102,53],[27,-4],[-17,-149],[13,-46],[-20,-87],[6,-60],[-39,-68],[-11,-71]],[[12520,288572],[-154,-158],[-76,-88],[-31,-12],[-75,7],[-26,-27],[83,-79],[-30,-19],[-199,-157]],[[8568,288343],[37,26],[-11,48],[14,54],[32,1],[-12,120],[55,79],[14,39],[37,-1],[8,58],[54,92],[37,40],[-5,36],[29,45],[-15,47],[98,-45],[37,-53],[36,30],[62,25]],[[9075,288984],[25,-121],[96,-29],[99,48],[46,-7],[-28,-69],[26,-18]],[[11047,285934],[0,-64],[-42,-11],[-61,-43],[4,-112],[53,-161],[-62,-52],[-85,-51],[14,-22],[-21,-105]],[[10847,285313],[-42,9],[-30,-68],[-112,-99],[-50,-3],[-11,-58],[-35,-65],[-35,-39]],[[12121,285767],[-23,-29],[-19,-67],[-46,-52],[19,-55],[27,-25],[-3,-35],[-120,-37],[-18,-27],[7,-43],[-17,-55],[-37,-26],[-99,-14],[-73,-32],[-55,1],[-88,-66],[-25,-45],[-65,-26],[-10,-48],[29,-78],[88,-127],[-6,-45],[-45,-15],[-74,23],[-103,-28],[-17,62],[-35,32],[-64,5],[-46,36],[-34,80],[-34,12],[-27,40],[-10,89],[-44,19],[-130,22],[-77,100]],[[7869,289135],[161,-148],[57,40],[44,-49],[-9,-84],[37,-41],[21,-115],[-3,-52],[54,-61],[14,-57],[64,-9],[18,-25],[-9,-85]],[[7719,288381],[-58,88],[-91,50],[-85,64],[-126,-16]],[[4755,286920],[-35,25],[-1,28],[45,45],[16,105],[-10,121],[-37,39],[-49,21],[-55,54],[-2,133],[25,63],[-15,109],[32,91],[-37,13],[-3,113],[18,58],[-25,23],[-14,54],[32,92],[-28,40],[-9,89],[-61,43],[-95,42],[-13,48],[-37,41],[-4,46],[-43,35],[-54,69],[-40,-6],[-54,29],[-85,7],[-17,54],[10,35],[37,24],[51,6],[54,48],[-45,47],[-32,58],[-91,42],[-63,56]],[[4021,288960],[32,55]],[[4581,289160],[74,-67],[11,12],[207,-132],[40,-10],[35,-45],[-1,-113],[18,-29],[100,-18],[24,-26],[36,28],[94,-37],[46,-28],[46,-49],[68,-4],[61,-44],[17,-50],[60,-31],[62,-19],[37,7],[-8,-88],[50,-47],[18,-57],[61,1],[157,-110],[43,2],[92,-31],[142,22],[96,-24],[27,-54],[158,-7],[91,-24],[15,-23],[71,-21],[30,-32],[150,23],[165,9],[117,-57],[16,22],[-16,136],[21,73],[-47,-1],[-65,39],[25,57],[3,73],[-15,51],[-29,11],[-19,63],[-45,33],[-42,7],[-65,-12],[-36,26],[-83,25],[-57,3],[-125,95],[21,33]],[[12520,288572],[46,9],[8,-43],[60,25],[41,40],[67,-6],[3,50],[50,46],[84,1],[20,49]],[[8063,289545],[50,-43],[44,45],[75,22],[87,-14],[84,60],[62,-38],[12,-37],[58,-11],[75,12],[40,-12],[26,-34],[210,3],[-25,-36],[24,-67],[-43,-15],[-7,-66],[40,-28],[11,-43],[76,-47],[40,20],[96,-43],[25,-37],[5,-70],[-53,-82]],[[4551,286399],[-166,-47],[-46,17],[-88,2],[-89,64],[-1,15],[-81,15],[-46,46],[-67,13],[-52,-22],[-48,84],[-39,37],[-86,38],[-70,53],[-63,85],[-77,27],[-44,69],[-47,50],[-54,32],[-178,31],[-35,-30],[-51,10],[-15,-22],[-86,26],[-134,98],[-78,2],[-29,-18],[-36,17],[-56,-4],[-31,55],[-81,20],[-39,-6],[-36,57],[-95,41],[-136,71],[-28,61],[-47,16],[-36,37],[-80,7],[-86,38],[-82,92],[-50,32],[-70,14],[-90,78],[-44,52],[-12,77],[-22,56],[-36,42],[-26,54],[-86,97],[-31,92]],[[1445,288170],[48,-3],[59,27],[88,12],[113,57],[15,47],[86,-2],[52,-43],[112,51],[32,39],[-6,44],[-30,57],[9,32],[54,93],[9,64],[56,10],[70,50],[84,-10],[35,13],[42,87],[29,19],[55,-8],[55,38],[60,1],[53,30],[33,42],[62,38],[30,49],[105,-48],[59,-5],[80,34],[36,-26],[103,-6],[41,68],[0,51],[25,30],[95,42],[21,19],[76,19],[35,-57],[46,-33],[96,-49],[14,-24],[65,-29],[63,-47],[37,-4],[45,-45],[65,-16],[52,-46],[44,32],[68,96]],[[1445,288170],[-40,90],[-98,147],[-11,58],[-67,-8],[-65,25],[-67,66],[-66,43],[7,52],[-32,39],[-39,109],[-42,38],[-17,36],[-44,33],[-15,106],[34,60],[23,197],[-30,30],[2,45],[-66,45],[-49,1],[-55,48],[-17,71],[21,22],[-53,60],[-24,67],[-33,30],[-14,60],[6,42],[-23,37],[16,135],[24,29],[-4,64],[-47,54],[-7,75],[13,61],[-9,37],[18,115],[-25,101],[-105,-50],[-43,6],[-56,40],[-20,37],[-110,96],[-86,99],[-37,70],[13,38],[-2,74],[14,45],[-36,82],[-60,50],[-19,59],[-3,74],[76,105],[-29,90],[26,19],[60,8],[107,129],[1,19],[117,46],[42,0],[65,25],[25,30],[6,42],[27,39],[93,-6],[71,32],[63,44],[99,-61],[33,-34],[73,-1],[121,52],[27,30],[102,-11],[44,56],[43,29],[35,56],[3,100],[78,87],[59,29],[105,4],[51,-32],[56,5],[29,-34],[91,-77],[98,-50],[74,-46],[57,-69],[53,-18],[113,-110],[32,-59],[119,-35],[47,1],[28,-61],[47,-34],[188,-54],[43,5],[49,59],[60,31],[99,-11],[30,-37],[109,-60],[51,-50],[59,12],[96,-21],[48,-74],[26,22],[115,-23],[74,-25],[56,18],[33,-23],[67,-4],[54,16],[88,2],[65,14],[42,-28],[86,23],[74,-34],[114,-29],[66,-4],[57,-44],[100,-59],[89,-38],[58,-124],[28,-31]],[[8702,264654],[51,-20],[68,-47],[28,0],[86,51],[44,-40],[30,-48],[44,-26],[53,11],[33,-74],[44,-34],[94,-18],[25,-17],[35,28],[133,-46],[41,4],[66,-24],[53,13],[48,-36],[83,16],[56,-76],[68,-46],[56,-22],[56,-5],[29,-55],[86,-86],[90,-72],[75,-118],[8,-72],[15,-11],[20,-80],[18,-23],[27,-109],[-10,-57],[59,-147],[48,-12],[51,-70],[16,-85],[-17,-69],[-29,-54],[-24,-10],[-27,-48],[-7,-45],[24,-32],[9,-66],[-14,-72],[27,-69],[56,-71],[10,-99],[-12,-63],[-79,-61],[-22,-91],[-3,-102],[46,-61],[38,-14],[37,-43],[10,-44],[-71,-90],[-17,-77],[-31,-31],[10,-102],[-23,-5],[-90,28],[-1,57],[-43,25],[-17,-30],[91,-138],[-11,-53],[-32,-31],[-103,-12],[-53,9],[-44,34],[-18,35],[-30,-5],[-32,39],[-35,-14],[-58,8],[-97,-33],[-99,13],[-23,-24],[-79,13],[-49,35],[-44,-16],[-38,20],[-15,34],[-77,-4],[-34,77],[-65,19],[-77,55],[-54,51],[-18,45],[-66,51],[-84,0],[-39,26],[-45,69],[-100,22],[-62,0],[-79,37],[-37,0],[14,135],[24,73],[-86,99],[-16,36],[-55,39],[-21,48],[-2,148],[18,47],[-3,98],[78,105],[-17,120],[4,85],[-63,73],[-9,59],[7,45],[-31,44],[8,35],[-28,83],[-32,56],[-7,85],[3,90],[41,17],[22,70],[-9,54],[-46,83],[23,222],[40,10],[28,125],[47,57],[59,42],[48,147]],[[6924,257977],[120,-4],[73,5],[124,-88],[31,-50],[16,-55],[-8,-43],[-41,-60],[-118,-121],[-88,-97],[-95,-19],[-85,41],[-52,62],[-35,58],[-14,137],[28,110],[66,89],[44,34],[34,1]],[[6932,252849],[48,-9],[28,-38],[-47,-35],[-46,59],[17,23]],[[5618,253087],[25,-41],[12,-54],[48,12],[81,-37],[97,-30],[24,-80],[-46,-110],[-38,11],[-49,-32],[-48,-55],[-30,-80],[-31,17],[-33,-39],[-32,7],[-18,41],[-62,-16],[-22,56],[10,35],[-97,-4],[-13,-73],[-27,-48],[-64,-1],[-25,37],[-36,16],[-20,51],[59,75],[45,44],[41,9],[-4,30],[22,60],[54,-56],[46,38],[46,74],[-56,87],[40,16],[25,36],[45,-22],[31,26]],[[5858,254056],[103,-76],[-19,-96],[10,-32],[-52,-4],[32,90],[-73,62],[-1,56]],[[7000,255452],[31,-23],[40,-1],[29,-47],[36,7],[56,-50],[-1,-33],[44,-35],[20,-142],[-99,-108],[-4,-66],[99,-84],[-42,-52],[11,-88],[-34,-42],[-62,-20],[-115,-162],[-38,-82],[-28,-212],[-15,-306],[4,-187],[0,-219],[5,-140],[-8,-110],[-56,-67],[-20,-100],[-8,-147],[-25,2],[-98,49],[-105,31],[-65,40],[-50,63],[-58,26],[-58,97],[-13,47],[-97,86],[12,128],[14,18],[-10,116],[-20,56],[-47,66],[24,34],[3,67],[52,0],[48,74],[16,3],[74,137],[26,66],[19,97],[20,22],[35,216],[-1,67],[-42,27],[27,64],[-16,38],[67,46],[38,61],[62,35],[70,58],[-21,45],[36,38],[-17,45],[34,50],[79,32],[29,-35],[54,13],[64,56],[34,70],[12,80],[-27,73],[5,55],[-25,11],[-4,46]],[[7150,256627],[53,-20],[70,-57],[104,-57],[40,-41],[-7,-27],[-90,-13],[-62,9],[2,24],[-48,99],[-62,83]],[[2733,249308],[13,-27],[-34,-35],[-26,18],[47,44]],[[2786,249364],[16,-24],[-18,-36],[-35,36],[37,24]],[[5192,249894],[14,-17],[-25,-66],[-55,63],[66,20]],[[4171,250755],[113,-101],[32,-10],[40,16],[90,-17],[35,-38],[84,-33],[23,-19],[90,-38],[55,-76],[30,-171],[-1,-113],[16,-30],[39,-17],[15,-40],[-38,-63],[4,-57],[22,-27],[3,-95],[14,-22],[-103,-21],[-40,93],[-60,-8],[-74,-42],[-99,-39],[-80,-97],[17,-58],[33,7],[14,-42],[-25,-57],[-77,-61],[-21,55],[-31,12],[-4,38],[-54,-36],[2,-57],[-12,-55],[12,-53],[-42,-4],[-29,-27],[-74,-38],[-83,24],[-45,-3],[-14,-35],[-46,-22],[-36,25],[-13,35],[-51,-8],[1,35],[-31,36],[-28,-36],[-45,58],[-10,63],[10,66],[26,38],[-2,46],[66,19],[15,23],[70,15],[54,-2],[18,27],[13,69],[-11,56],[3,86],[-34,35],[-10,103],[62,23],[-1,31],[-54,16],[-53,53],[-1,41],[63,17],[58,-1],[34,22],[22,41],[-8,120],[-17,21],[8,46],[-38,38],[37,58],[33,12],[-10,87],[52,51],[77,12]],[[12266,247774],[74,-31],[71,11],[42,-36],[63,-26],[49,-39],[19,-76],[75,-13],[87,-92],[73,-42],[55,-70],[37,-65],[-3,-72],[41,-10],[-30,-38],[33,-69],[-2,-105],[-49,-86],[11,-42],[-36,-40],[-11,-46],[10,-63],[23,-21],[24,-60],[-20,-43],[17,-101],[-21,-64],[-1,-61],[-36,2],[-29,-78],[-91,-57],[3,-21],[-37,-57],[-54,-37],[-96,-23],[-16,9],[-68,-48],[-40,-2],[-42,-56],[-80,-21],[-24,-107],[-45,-50],[-54,-3],[-68,67],[-61,-25],[-15,-31],[-57,23],[-34,-5],[-104,23],[-63,-30],[-60,3],[-110,-49],[-89,63],[-58,15],[-14,-15],[-57,33],[-18,45],[-41,24],[-65,4],[-48,-26],[-29,67],[2,69],[-40,1],[-7,60],[-25,20],[5,67],[19,60],[43,1],[20,56],[-40,8],[6,70],[-42,51],[-37,1],[-38,30],[-29,77],[18,34],[87,47],[72,73],[12,42],[-27,49],[48,129],[51,30],[56,71],[-12,47],[11,72],[64,14],[32,30],[21,76],[-45,64],[0,29],[-54,82],[20,71],[54,107],[82,18],[37,37],[64,-13],[43,6],[60,28],[93,-58],[61,5],[75,37],[36,46],[70,26],[51,-20],[50,27],[42,-1],[9,-26],[51,13]],[[13748,242180],[44,-7],[81,-49],[67,-79],[78,-75],[41,-9],[65,-112],[76,-104],[61,-157],[27,-41],[10,-48],[40,-66],[-4,-68],[-100,-217],[-19,-14],[-49,-106],[-61,-70],[-28,-10],[-113,12],[-58,27],[-206,27],[-143,3],[-42,-8],[-79,29],[-109,52],[-82,49],[-23,37],[-34,126],[10,127],[2,96],[-14,70],[35,127],[98,161],[121,144],[43,69],[67,32],[109,27],[23,21],[66,4]],[[15461,223045],[31,-30],[6,-34],[39,-60],[40,-34],[79,-26],[41,-38],[37,-80],[3,-98],[17,-56],[22,-20],[-49,-51],[-10,30],[-91,22],[-82,-16],[-22,-20],[-80,36],[-24,24],[-66,181],[-74,92],[-35,32],[26,32],[-27,37],[24,31],[43,-7],[53,12],[39,41],[60,0]],[[17004,223605],[73,-4],[95,-33],[58,17],[61,-19],[44,-29],[9,-33],[108,-90],[40,-62],[68,-25],[45,-64],[89,-37],[37,-42],[23,8],[0,-90],[18,-35],[-3,-47],[32,-6],[-6,-46],[57,-26],[43,10],[56,-86],[45,23],[47,-8],[41,-47],[53,3],[52,-124],[1,-78],[62,0],[82,-22],[49,-41],[85,-15],[118,26],[131,-45],[52,-1],[85,-117],[19,-94],[35,-81],[77,-86],[45,-70],[-41,-59],[-22,-62],[6,-70],[33,-66],[50,-58],[12,-52],[-37,-83],[1,-38],[-56,-36],[-64,-1],[-37,15],[-68,-25],[-27,-35],[-62,18],[-50,-9],[-22,-25],[-2,-47],[-30,-75],[-43,-54],[-32,-8],[-14,-48],[25,-79],[-18,-196],[61,-71],[11,-32],[-27,-53],[-71,-78],[-54,75],[-50,41],[-59,84],[-46,48],[-45,65],[-29,23],[-72,18],[-60,3],[-36,-22],[-61,14],[-52,72],[-63,41],[-123,-32],[-66,84],[-53,14],[-95,72],[-33,9],[-67,86],[-17,62],[4,155],[-19,126],[12,66],[-7,78],[-20,81],[-44,58],[15,35],[-83,-22],[-14,-24],[-63,63],[-57,37],[-122,20],[-74,2],[-51,34],[-35,60],[-12,60],[-22,34],[13,54],[-31,89],[-66,70],[-67,101],[-22,86],[-32,15],[-16,66],[-29,52],[2,68],[-33,109],[4,78],[23,54],[-13,44],[49,46],[43,101],[9,49],[45,57],[65,34],[84,24],[77,9],[12,22],[54,-5]],[[16971,206448],[22,-2],[61,-49],[100,-28],[56,-33],[39,-82],[50,-60],[64,-42],[43,-54],[30,-58],[-13,-55],[22,-59],[-3,-57],[-41,-77],[-123,-62],[-65,-40],[-57,-4],[-69,69],[-62,8],[-80,81],[-30,9],[-24,41],[6,102],[-4,269],[-6,25],[16,115],[68,43]],[[312973,1822],[21,-30],[-5,-55],[7,-104],[32,-151],[-2,-48],[-42,-30],[-48,10],[-95,50],[-126,27],[19,56],[111,106],[79,101],[25,51],[24,17]],[[66234,62308],[32,-113],[51,-27],[31,-61],[-9,-58],[52,-41],[12,-67],[44,20],[98,-32],[45,-7],[-37,63],[20,52],[-25,48],[4,48],[23,27],[65,-53],[45,34],[109,-30],[9,54],[31,2],[64,-61],[16,-64],[132,-27],[-37,-61],[-71,26],[-112,-54],[-66,-45],[-7,-74],[-45,10],[-62,-32],[28,-151],[-12,-50],[66,-42],[83,9],[105,52],[11,19],[117,-1],[24,15],[7,43],[43,19],[-15,-98],[-36,-32],[3,-49],[18,-45],[-31,-23],[-32,-56],[-8,-41],[-41,-82],[23,-69],[-12,-89],[35,-56],[-7,-44],[21,-41],[63,-75],[40,11],[66,-55],[49,-10],[21,23],[66,-31],[31,38],[33,-4],[-6,64],[44,10],[12,-33],[53,28],[22,-22],[3,-82],[-77,10],[-11,-28],[-82,-40],[-40,41],[-50,8],[-33,-17],[-11,-43],[16,-118],[-27,-36],[5,-46],[-48,-31],[42,-106],[-11,-77],[94,-50],[67,-76],[-7,-37],[21,-30],[-15,-28],[-3,-75],[33,-41],[-1,-51],[-19,-105],[1,-56],[26,-55],[-12,-48],[-58,-52],[-25,-5],[-24,46],[-59,8],[32,69],[34,24],[22,46],[-27,23],[16,71],[-22,57],[-32,30],[29,28],[-60,46],[-3,62],[-20,2],[-20,69],[-34,32],[-93,-23],[-18,-32],[-49,6],[-17,36],[6,58],[-13,146],[-46,-25],[-43,-81],[-49,7],[-1,33],[-48,208],[24,19],[-20,35],[-52,17],[-19,26],[9,36],[-52,49],[12,99],[-38,-9],[1,45],[84,95],[1,96],[-32,43],[-28,9],[-19,-33],[-55,-8],[-28,23],[53,64],[-8,60],[28,57],[-6,46],[-32,11],[-140,119],[0,69],[-24,43],[-35,14],[-59,63],[3,32],[-18,98],[-30,26],[1,93],[-10,59],[-25,-4],[-33,42],[2,30],[-47,42],[1,95],[-15,26],[19,87],[52,5]],[[66254,86499],[-9,-63],[-25,4],[-10,54],[44,5]],[[52421,508],[184,-80],[26,1],[14,-58],[-19,-161],[-42,-82],[-24,-67],[-199,-61],[-75,13],[-40,41],[-9,57],[7,181],[29,136],[74,74],[74,6]],[[48791,14562],[-3,-84],[-22,-37],[-12,-87],[-25,28],[30,166],[32,14]],[[49536,14713],[88,-24],[46,-25],[93,-99],[30,-14],[107,-164],[54,-151],[19,-77],[2,-47],[36,-166],[15,-17],[-17,-64],[-41,-27],[-26,-72],[-48,-27],[-26,-32],[-32,-8],[-34,-34],[-146,1],[-87,-9],[-27,-32],[-96,-77],[-33,-17],[-138,-104],[-143,-99],[-43,-15],[-151,-103],[-61,-96],[-76,-65],[-49,-7],[10,50],[-22,70],[14,101],[55,68],[42,82],[15,54],[31,161],[16,40],[6,167],[-13,30],[2,69],[-39,102],[-53,44],[-41,-36],[-27,32],[37,71],[48,23],[143,117],[70,40],[112,36],[74,52],[6,29],[47,29],[49,58],[62,14],[99,63],[41,105]],[[48717,30634],[84,-36],[43,-94],[8,-76],[39,-32],[14,-70],[-18,-83],[19,-103],[2,-83],[-59,-83],[-59,-40],[-62,-18],[-60,-29],[-71,-3],[-46,16],[-25,57],[-57,192],[13,251],[18,57],[96,121],[38,36],[48,21],[35,-1]],[[68035,58559],[73,-15],[38,-55],[-45,-75],[-9,-47],[-63,-14],[-138,-51],[-19,16],[-66,-34],[0,79],[52,58],[2,83],[36,-15],[76,58],[63,12]],[[66837,58561],[37,-65],[74,-11],[21,-54],[-37,-38],[-11,-50],[39,-77],[5,-93],[-24,-49],[-43,-9],[4,-62],[-44,-23],[-98,82],[-4,45],[78,22],[-1,60],[-21,13],[-6,83],[-29,78],[23,19],[-21,103],[58,26]],[[68412,58838],[54,-57],[35,-58],[68,-16],[41,-35],[-96,-38],[-35,-21],[-47,-2],[-62,-69],[-38,0],[-21,66],[55,66],[-40,47],[61,104],[25,13]],[[66971,59159],[-9,-50],[-28,-20],[-31,-57],[-70,25],[-47,-20],[-41,-45],[-55,31],[33,74],[52,-14],[55,59],[74,9],[16,-14],[51,22]],[[67021,59270],[31,-16],[19,-46],[-39,-14],[-11,76]],[[67308,59586],[6,-60],[-44,-3],[38,63]],[[66339,59714],[36,-13],[22,-43],[-6,-46],[23,-30],[27,-99],[-63,-125],[-83,-35],[-38,23],[-38,-8],[9,72],[35,20],[-22,77],[-43,40],[-33,8],[60,73],[40,81],[16,-32],[32,-11],[26,48]],[[67233,70563],[77,-183],[-50,-2],[34,-120],[-34,-4],[-27,122],[-18,170],[18,17]],[[68633,71857],[103,-22],[48,-47],[-9,-53],[-49,-16],[-23,47],[-29,12],[-34,44],[-7,35]],[[67634,72108],[4,-50],[27,-8],[20,36],[39,-11],[141,23],[24,-51],[71,-7],[52,8],[70,-75],[60,-8],[0,-43],[38,-65],[64,-66],[20,-60],[25,-24],[4,-49],[-38,-48],[40,-72],[-14,-22],[32,-38],[52,16],[92,-95],[8,-51],[-9,-64],[-30,-36],[-12,-61],[21,-156],[-31,-52],[-3,-31],[36,-33],[0,-34],[59,-15],[53,-58],[5,-64],[-46,-45],[-37,47],[-80,78],[-21,58],[-49,-43],[-26,-40],[-56,11],[-9,-28],[91,-76],[-24,-45],[19,-55],[-50,6],[-19,-46],[52,-65],[14,-69],[52,0],[26,-28],[-6,-45],[-74,8],[-57,-9],[-73,9],[-15,33],[35,72],[-21,23],[-45,5],[-59,-46],[-44,22],[-89,-7],[-38,94],[-166,35],[-55,-38],[-23,-51],[-74,12],[-26,37],[-54,23],[-39,-45],[-27,62],[23,6],[26,61],[54,10],[17,46],[-15,51],[10,76],[-39,15],[11,136],[98,-54],[27,-1],[22,43],[-8,45],[-28,34],[-44,24],[39,50],[-45,27],[-32,45],[-34,-6],[-16,46],[-57,-28],[-42,12],[-15,46],[24,57],[19,4],[60,-64],[86,23],[30,45],[97,-20],[39,13],[68,-56],[23,1],[56,48],[-15,44],[36,33],[8,113],[24,33],[-41,61],[-47,-33],[-5,37],[-40,26],[37,66],[-9,31],[9,59],[-13,37],[-37,17],[30,69],[-37,21],[-44,-42],[-16,-42],[-124,-76],[-37,-94],[-53,-32],[-33,15],[-6,68],[-71,46],[-11,54],[18,44],[-25,84],[27,68],[86,60],[35,-24],[45,-2],[48,34]],[[67476,72431],[36,-32],[-16,-30],[-46,46],[26,16]],[[67117,72502],[40,-61],[30,-70],[-27,-34],[-44,-10],[-22,14],[-36,-56],[-83,9],[8,46],[39,1],[33,34],[0,36],[-34,53],[28,32],[39,-24],[29,30]],[[67600,73067],[49,-13],[-6,-65],[47,-37],[-29,-43],[76,-76],[39,-18],[4,-35],[40,11],[28,35],[32,8],[37,-20],[-2,-33],[-33,-42],[-4,-55],[89,14],[11,22],[85,28],[53,28],[9,26],[57,-23],[-22,-77],[39,-62],[44,-20],[31,-82],[54,26],[-9,-106],[23,-39],[-26,-33],[34,-50],[27,-11],[132,-9],[16,-64],[-46,-62],[-46,2],[-19,28],[-35,-11],[-63,32],[-69,-26],[-43,19],[-13,-50],[-74,-10],[-81,28],[-55,-18],[-67,7],[-50,31],[-74,-15],[-4,37],[52,74],[55,45],[13,50],[-92,48],[-13,51],[-60,30],[-90,2],[-86,-65],[-59,22],[64,43],[13,38],[-35,44],[-25,81],[44,54],[63,40],[-85,86],[18,60],[21,13],[16,107]],[[67549,74215],[0,-74],[42,-31],[96,-31],[30,-52],[59,8],[-4,-37],[-96,-56],[-14,-68],[10,-78],[62,-57],[-1,-55],[86,8],[-28,-74],[-10,-89],[-54,-69],[34,-43],[-38,-26],[-27,-64],[-67,-51],[-14,-47],[-63,2],[-30,-13],[-7,-64],[14,-34],[-20,-39],[-138,43],[-21,48],[32,62],[73,-33],[19,23],[-19,54],[35,52],[-40,55],[-53,-8],[52,69],[-23,169],[21,14],[-10,52],[37,69],[44,22],[-10,40],[7,69],[-35,16],[-4,66],[39,53],[3,53],[-41,12],[-14,64],[86,70]],[[67744,74384],[-3,-49],[-59,-28],[-44,5],[4,40],[33,23],[45,-23],[24,32]],[[40204,75816],[112,-16],[117,-52],[63,-76],[20,-65],[-23,-72],[-47,-96],[-54,-45],[-45,-3],[-88,23],[-64,-5],[-110,131],[-1,25],[39,74],[0,97],[46,73],[35,7]],[[67918,81710],[40,-40],[-71,-3],[31,43]],[[68011,82029],[32,-101],[-18,-49],[41,-41],[22,-125],[-35,-7],[-30,18],[-18,47],[18,42],[-11,28],[-125,41],[-20,17],[-4,61],[22,24],[93,-9],[33,54]],[[67255,85374],[20,-49],[45,-7],[4,-40],[25,-41],[73,-1],[37,-116],[49,-81],[-38,-76],[-45,37],[-28,56],[-34,-9],[-25,53],[-71,-47],[-46,32],[0,31],[-26,66],[-1,51],[-18,18],[19,53],[26,13],[8,40],[26,17]],[[66343,86697],[21,-21],[9,-60],[74,46],[44,-25],[42,13],[-5,43],[52,-2],[12,-54],[68,-32],[34,-37],[-8,-39],[19,-30],[-14,-30],[18,-153],[-35,-52],[-31,-22],[-43,27],[-52,-5],[-30,15],[-38,60],[22,111],[-72,30],[-45,2],[-37,-19],[-44,17],[-9,39],[-36,2],[-7,46],[-31,16],[-3,70],[61,30],[64,14]],[[65622,87492],[49,-6],[76,-75],[-69,3],[-57,46],[1,32]]],"transform":{"scale":[0.000048058595494287954,0.000039955333362971416],"translate":[138.94286758866838,24.224754162474657]},"objects":{"municipalities":{"type":"GeometryCollection","geometries":[{"arcs":[[0,1,2,3,4,5]],"type":"Polygon","properties":{"code5":"13101","name":"千代田区"}},{"arcs":[[-2,6,7,8,9,10]],"type":"Polygon","properties":{"code5":"13102","name":"中央区"}},{"arcs":[[[-3,-11,11,12,13,14]],[[15,16]],[[17,18,19]]],"type":"MultiPolygon","properties":{"code5":"13103","name":"港区"}},{"arcs":[[-4,-15,20,21,22,23]],"type":"Polygon","properties":{"code5":"13104","name":"新宿区"}},{"arcs":[[-5,-24,24,25,26,27]],"type":"Polygon","properties":{"code5":"13105","name":"文京区"}},{"arcs":[[-1,-6,-28,28,29,-7]],"type":"Polygon","properties":{"code5":"13106","name":"台東区"}},{"arcs":[[-8,-30,30,31,32,33,34]],"type":"Polygon","properties":{"code5":"13107","name":"墨田区"}},{"arcs":[[[-9,-35,35,36]],[[-18,37,38]],[[39,40]],[[41]],[[42]],[[43]],[[44]],[[45]],[[46]]],"type":"MultiPolygon","properties":{"code5":"13108","name":"江東区"}},{"arcs":[[[-16,47]],[[-19,-39,48]],[[-13,49,50,51,52]],[[53,54]]],"type":"MultiPolygon","properties":{"code5":"13109","name":"品川区"}},{"arcs":[[-52,55,56,57]],"type":"Polygon","properties":{"code5":"13110","name":"目黒区"}},{"arcs":[[[-41,58]],[[-54,59]],[[-51,60,61,-56]],[[62]],[[63]]],"type":"MultiPolygon","properties":{"code5":"13111","name":"大田区"}},{"arcs":[[-57,-62,64,65,66,67,68,69]],"type":"Polygon","properties":{"code5":"13112","name":"世田谷区"}},{"arcs":[[-14,-53,-58,-70,70,71,-21]],"type":"Polygon","properties":{"code5":"13113","name":"渋谷区"}},{"arcs":[[-22,-72,72,73,74]],"type":"Polygon","properties":{"code5":"13114","name":"中野区"}},{"arcs":[[-69,75,76,77,-73,-71]],"type":"Polygon","properties":{"code5":"13115","name":"杉並区"}},{"arcs":[[-23,-75,78,79,80,-25]],"type":"Polygon","properties":{"code5":"13116","name":"豊島区"}},{"arcs":[[-26,-81,81,82,83,84]],"type":"Polygon","properties":{"code5":"13117","name":"北区"}},{"arcs":[[-27,-85,85,-31,-29]],"type":"Polygon","properties":{"code5":"13118","name":"荒川区"}},{"arcs":[[-80,86,87,-82]],"type":"Polygon","properties":{"code5":"13119","name":"板橋区"}},{"arcs":[[-74,-78,88,89,90,-87,-79]],"type":"Polygon","properties":{"code5":"13120","name":"練馬区"}},{"arcs":[[-32,-86,-84,91,92]],"type":"Polygon","properties":{"code5":"13121","name":"足立区"}},{"arcs":[[-33,-93,93,94]],"type":"Polygon","properties":{"code5":"13122","name":"葛飾区"}},{"arcs":[[[-34,-95,95,-36]],[[96]]],"type":"MultiPolygon","properties":{"code5":"13123","name":"江戸川区"}},{"arcs":[[97,98,99,100,101,102,103,104]],"type":"Polygon","properties":{"code5":"13201","name":"八王子市"}},{"arcs":[[105,106,107,108,109,110,111,112]],"type":"Polygon","properties":{"code5":"13202","name":"立川市"}},{"arcs":[[-77,113,114,115,-89]],"type":"Polygon","properties":{"code5":"13203","name":"武蔵野市"}},{"arcs":[[-68,116,117,-114,-76]],"type":"Polygon","properties":{"code5":"13204","name":"三鷹市"}},{"arcs":[[118,119,120,121,122,123,124]],"type":"Polygon","properties":{"code5":"13205","name":"青梅市"}},{"arcs":[[125,126,127,128,129,130,131,132]],"type":"Polygon","properties":{"code5":"13206","name":"府中市"}},{"arcs":[[-99,133,-111,134]],"type":"Polygon","properties":{"code5":"13207","name":"昭島市"}},{"arcs":[[-67,135,136,137,-128,138,-117]],"type":"Polygon","properties":{"code5":"13208","name":"調布市"}},{"arcs":[[-102,139,140]],"type":"Polygon","properties":{"code5":"13209","name":"町田市"}},{"arcs":[[-115,-118,-139,-127,141,142,143]],"type":"Polygon","properties":{"code5":"13210","name":"小金井市"}},{"arcs":[[-107,144,145,146,147,-143,148]],"type":"Polygon","properties":{"code5":"13211","name":"小平市"}},{"arcs":[[-100,-135,-110,149,-131,150]],"type":"Polygon","properties":{"code5":"13212","name":"日野市"}},{"arcs":[[-146,151,152,153,154]],"type":"Polygon","properties":{"code5":"13213","name":"東村山市"}},{"arcs":[[-108,-149,-142,-126,-133,155]],"type":"Polygon","properties":{"code5":"13214","name":"国分寺市"}},{"arcs":[[-109,-156,-132,-150]],"type":"Polygon","properties":{"code5":"13215","name":"国立市"}},{"arcs":[[-98,156,157,158,159,-112,-134]],"type":"Polygon","properties":{"code5":"13218","name":"福生市"}},{"arcs":[[-66,160,-136]],"type":"Polygon","properties":{"code5":"13219","name":"狛江市"}},{"arcs":[[-106,161,162,-152,-145]],"type":"Polygon","properties":{"code5":"13220","name":"東大和市"}},{"arcs":[[-154,163,164]],"type":"Polygon","properties":{"code5":"13221","name":"清瀬市"}},{"arcs":[[-147,-155,-165,165,166]],"type":"Polygon","properties":{"code5":"13222","name":"東久留米市"}},{"arcs":[[-113,-160,167,168,-162]],"type":"Polygon","properties":{"code5":"13223","name":"武蔵村山市"}},{"arcs":[[-101,-151,-130,169,170,-140]],"type":"Polygon","properties":{"code5":"13224","name":"多摩市"}},{"arcs":[[-129,-138,171,-170]],"type":"Polygon","properties":{"code5":"13225","name":"稲城市"}},{"arcs":[[-120,172,-158,173]],"type":"Polygon","properties":{"code5":"13227","name":"羽村市"}},{"arcs":[[-105,174,175,-123,176,-121,-174,-157]],"type":"Polygon","properties":{"code5":"13228","name":"あきる野市"}},{"arcs":[[-90,-116,-144,-148,-167,177]],"type":"Polygon","properties":{"code5":"13229","name":"西東京市"}},{"arcs":[[-119,178,-168,-159,-173]],"type":"Polygon","properties":{"code5":"13303","name":"瑞穂町"}},{"arcs":[[-122,-177]],"type":"Polygon","properties":{"code5":"13305","name":"日の出町"}},{"arcs":[[-104,179,180,-175]],"type":"Polygon","properties":{"code5":"13307","name":"檜原村"}},{"arcs":[[-124,-176,-181,181]],"type":"Polygon","properties":{"code5":"13308","name":"奥多摩町"}},{"arcs":[[182]],"type":"Polygon","properties":{"code5":"13361","name":"大島町"}},{"arcs":[[183]],"type":"Polygon","properties":{"code5":"13362","name":"利島村"}},{"arcs":[[[184]],[[185]],[[186]],[[187]],[[188]]],"type":"MultiPolygon","properties":{"code5":"13363","name":"新島村"}},{"arcs":[[[189]],[[190]],[[191]],[[192]]],"type":"MultiPolygon","properties":{"code5":"13364","name":"神津島村"}},{"arcs":[[193]],"type":"Polygon","properties":{"code5":"13381","name":"三宅村"}},{"arcs":[[194]],"type":"Polygon","properties":{"code5":"13382","name":"御蔵島村"}},{"arcs":[[[195]],[[196]]],"type":"MultiPolygon","properties":{"code5":"13401","name":"八丈町"}},{"arcs":[[197]],"type":"Polygon","properties":{"code5":"13402","name":"青ヶ島村"}},{"arcs":[[[198]],[[199]],[[200]],[[201]],[[202]],[[203]],[[204]],[[205]],[[206]],[[207]],[[208]],[[209]],[[210]],[[211]],[[212]],[[213]],[[214]],[[215]],[[216]],[[217]],[[218]],[[219]],[[220]],[[221]],[[222]],[[223]],[[224]],[[225]]],"type":"MultiPolygon","properties":{"code5":"13421","name":"小笠原村"}}]}}}