{"type":"Topology","arcs":[[[7788,4233],[1,-19],[-102,-63],[37,-23],[97,50],[42,-74],[-68,-67],[-183,106],[-41,31],[-5,58],[198,87],[24,-86]],[[8093,4290],[-126,-70],[-68,131],[-56,52],[19,24],[123,72]],[[7985,4499],[108,-209]],[[7175,4229],[49,-15],[-3,-81],[-26,-25],[30,17],[56,-37],[26,-73],[52,-38],[53,79],[64,-58],[-66,-31],[33,-39],[38,20],[63,107],[39,-20],[-57,-120],[26,-18],[41,87],[62,-52],[-61,-127],[29,-16],[71,148],[52,-35],[-52,-160],[-42,-3],[-32,-130],[33,-16],[-18,-52],[-99,-101],[-7,45],[-57,2],[-106,82],[-102,-18],[-86,-41],[-27,33],[-34,-24],[36,-55],[105,27],[36,-52],[-133,-32],[-61,16],[-38,-70],[24,-57],[67,37],[52,-54],[-91,-52],[19,-28],[45,-15],[59,32],[60,66],[75,-40],[-21,-59],[-52,-59],[46,-62],[60,-7],[0,-78],[-56,-2],[1,-83],[38,-79],[21,-2],[1,-147],[-112,-28],[-68,12],[-52,-60],[12,-42],[-52,-39],[-63,7],[81,-62]],[[7156,2452],[-70,-83],[-105,-27],[-46,-52]],[[6935,2290],[-73,57],[-60,-7],[-30,51]],[[6772,2391],[-2,46],[-43,76],[-8,82],[-143,5],[-6,70],[-34,65],[-84,-17],[-35,12],[-35,59],[-57,47],[5,53],[-48,43],[-21,-76],[-57,-27],[-55,26],[-53,-1],[-40,59],[-28,1],[-48,10],[-114,66],[-72,-125]],[[5794,2865],[-95,21],[28,82],[13,76],[37,42],[-21,57],[-55,34],[-18,65],[-55,56],[-31,236],[24,123],[-53,53]],[[5568,3710],[12,85],[-8,63],[75,163],[-65,106],[-20,68],[24,95],[-27,30],[-18,75],[-6,93],[11,93],[-43,34],[-13,36],[28,54]],[[5518,4705],[86,-13],[85,34],[-37,16],[-42,75],[63,101],[32,14],[13,97],[-20,44],[11,53],[-52,56],[-13,41],[20,54],[-4,105],[-22,47],[-93,13],[-22,37],[17,84]],[[5540,5563],[55,19],[74,0]],[[5669,5582],[36,-31],[46,-96],[52,41],[43,74],[60,16],[4,52]],[[5910,5638],[59,-79],[89,19],[25,32],[6,68],[42,42],[-25,48],[17,22],[-17,60],[100,-15],[193,-50],[93,-108],[27,-94],[39,2],[31,-32],[52,1],[206,-46],[94,-13],[34,-46],[129,20],[69,-14],[96,-39],[54,18],[40,-37],[60,-27],[-39,-151],[12,-51],[109,-74],[84,53],[30,32],[70,4],[-13,-109],[51,-64],[-5,-48],[35,-40],[49,-173],[23,-40],[45,22],[13,-44],[68,-130]],[[7955,4557],[-152,-85],[-31,106],[-49,-34],[45,-106],[-33,-32],[-77,-7],[0,-69],[-134,-65],[-5,73],[52,20],[-58,107],[19,-77],[-153,-10],[-24,61],[-32,-14],[33,-51],[-69,-5],[-27,-32],[-39,-105],[-46,-3]],[[7297,4353],[47,-3],[56,-54],[-37,-41],[6,-43],[-108,103],[36,38]],[[7761,3531],[-67,-68],[38,-76],[-68,-72],[-31,26],[61,86],[-31,33],[-59,-61],[-52,41],[90,93],[40,-16],[47,49],[32,-35]],[[7183,2517],[38,-42],[-45,-50],[-40,72],[47,20]],[[7985,4499],[196,107],[49,-71],[-39,-21],[67,-132],[-165,-92]],[[5910,5638],[-15,-13],[-62,79],[-53,23],[5,44],[-176,169],[-57,19],[-9,31],[-65,72],[-64,-25],[-45,3],[-36,55],[32,51],[83,81],[46,24],[25,-45],[84,-20],[5,-46],[45,-67],[53,-20],[25,-48],[85,2],[25,31],[-43,65],[-9,64],[86,69],[111,24],[29,75],[58,19],[-21,59],[42,75],[55,-9],[51,-32],[117,-35],[18,-30],[80,-4],[50,-21],[86,-101],[63,-33],[90,-17],[55,-35],[48,8],[34,0],[47,-32],[74,0],[58,-25],[69,-52],[63,-32],[121,-116],[71,-71],[64,-37],[65,3],[60,-66],[71,-237],[47,-59],[85,-52],[82,-15],[53,-36],[4,-50],[-50,-50],[-6,-51],[56,-61],[73,-1],[65,18],[88,70],[85,-32],[48,53],[74,-16],[97,9],[116,-67],[84,-61],[-20,-29],[131,-99],[26,-56],[59,-18],[-46,-67],[27,-20],[-35,-49],[-105,69],[-40,-48],[-61,55],[-91,208],[-51,-31],[-98,-112],[29,-124],[-2,-31],[-150,-79],[-14,119],[-23,16],[13,-154],[-199,-106]],[[5540,5563],[33,50],[27,88],[62,12],[28,37],[49,-13],[-36,-64],[-34,-91]],[[8552,4753],[49,-35],[26,-49],[-331,-185],[-52,40],[-41,80],[249,143],[100,6]],[[8410,5013],[19,-3],[71,-163],[-10,-25],[-112,-39],[-20,12],[-33,113],[5,20],[80,85]],[[4393,5016],[-6,8]],[[4387,5024],[-110,71],[-182,138],[-81,-73],[-44,47],[-55,35],[-38,46],[-4,41],[-53,26],[-34,38],[-79,-4],[-98,-132],[-95,53],[-49,2],[-125,-41],[-17,-56]],[[3323,5215],[-72,-52],[-26,-54],[-65,-28],[-21,57],[-96,-24],[-25,-24],[52,-52],[-55,-46],[-19,-49],[-46,-6],[-14,-66],[-49,-19],[-50,-89],[-73,-9],[-109,-115],[-57,-92],[-89,-88],[-10,-55],[-29,-53]],[[2470,4351],[-53,50],[-65,-22],[-26,12],[-17,70],[-66,38],[-99,-18],[-36,-85],[-95,-3],[-26,-11],[-61,25],[-60,0],[-57,97],[-56,19],[-45,63],[-123,39],[-9,47],[-58,55],[-16,67]],[[1502,4794],[26,19],[59,-12],[63,35],[50,-8],[85,124],[98,64],[25,67],[73,81],[-22,77],[3,66],[32,50],[61,31],[71,83],[12,56],[-26,59],[8,118],[-38,15],[-26,60],[32,73],[47,25],[37,151],[-6,31],[-46,47],[59,41],[-39,26],[-38,65],[-25,13],[9,85],[-8,43],[34,99],[-97,165],[25,70],[41,32],[74,116],[54,5],[105,-71],[64,-10],[80,24],[56,-77],[21,-132],[59,-22],[40,-53],[48,-6],[75,29],[10,38],[55,33],[73,-18],[61,-31],[43,-45],[-13,-53],[10,-57],[60,-95],[-12,-49],[52,-24],[35,-44],[10,-72],[81,-67],[6,-30],[82,-22],[54,-45],[55,32],[71,-22],[10,62],[84,47],[57,5],[29,23],[98,-18],[66,-71],[55,-20],[93,-4],[65,27],[89,-36],[85,9],[187,-68],[46,0],[114,-51],[43,-42],[83,-45],[33,5],[24,-42],[81,-8],[21,-90],[20,-25],[57,-3],[45,-116],[47,-56],[43,-30],[15,-45],[48,-70],[73,-45],[46,-49],[44,-24],[36,-75],[96,-91],[-34,-68],[9,-28]],[[5398,4935],[-86,-47],[-44,-57],[-135,-63]],[[5133,4768],[-16,51],[-71,51],[-96,-111],[-12,-55],[-29,-38],[-72,-34],[-44,11],[-76,-84],[-137,11]],[[4580,4570],[24,143],[2,124],[-12,57],[-115,46],[-86,76]],[[7198,2429],[11,15],[0,1],[4,5],[2,3],[2,4],[30,60],[83,-37],[117,9],[5,-75],[-55,-9],[-167,-265],[-65,9],[29,-67],[36,-15],[35,54],[43,-47],[29,-95],[55,-41],[56,-24],[-1,54],[-32,48],[79,21],[-36,103],[69,14],[55,-17],[56,-59],[-24,-46],[26,-36],[-59,-31],[32,-87],[85,-57],[-12,-26],[56,-31],[8,-59],[122,-32],[179,-10],[63,12],[58,-33],[63,-1],[67,-65],[2,-38],[-86,-48],[-36,-46],[-10,-65],[-60,-15],[-70,8],[75,-90],[16,-52],[-26,-58],[-41,-5],[-13,39],[-36,14],[-43,-56],[26,-71],[68,-1],[22,-81],[-82,-15],[-20,14],[-221,-30],[-72,-30],[-184,-146],[-23,-32]],[[7488,772],[-47,67],[-19,52],[-30,26],[0,67],[-79,-44],[-65,3],[-79,-17],[-37,-76],[-28,2],[-58,-35],[-49,-85]],[[6997,732],[-54,3],[-45,49],[-45,-6],[-21,36],[60,39],[-2,54],[40,66],[51,13],[30,-22],[60,-7],[39,71],[-3,45],[-52,42],[-85,39],[-44,-13],[-59,42],[14,79],[-44,43],[2,49],[-140,161],[-78,23]],[[6621,1538],[40,19],[148,15],[66,26],[98,-4],[50,48],[33,-52],[60,-18],[21,32],[64,40],[17,39],[16,113],[-79,17],[-35,48],[-49,7]],[[7071,1868],[-20,66],[27,50],[-13,61],[-39,82],[-5,40],[-61,49],[-25,74]],[[7156,2452],[6,-39],[36,16]],[[7359,2225],[45,-70],[-45,-35],[9,-30],[-43,-26],[-48,71],[82,90]],[[4575,3332],[12,-76],[-37,-262],[-23,-59],[33,-33],[2,-67],[-17,-54]],[[4545,2781],[-17,-87],[8,-53],[53,-4],[-36,-58],[-19,-69],[1,-83],[41,-50],[8,-51]],[[4584,2326],[-65,-15],[-93,12],[-201,-19],[-83,-19]],[[4142,2285],[-15,47],[7,66],[48,28],[-31,37],[-32,-16],[-91,3],[3,-32],[-66,-6],[-53,-36],[-115,70],[6,75],[-118,-7],[-46,31],[-74,18],[-102,3],[-25,-40],[-88,-29]],[[3350,2497],[-16,14]],[[3334,2511],[-50,70],[-37,-4],[-18,144],[125,98]],[[3354,2819],[118,37],[41,-10],[68,149],[12,62],[81,16],[84,-10],[-12,103]],[[3746,3166],[102,-4],[35,25],[41,-17],[52,-48],[22,-71],[60,-38],[-27,104],[34,39],[93,1],[31,50],[122,-72],[61,31],[25,32],[18,86],[-23,33]],[[4392,3317],[-1,135],[40,-116],[144,-4]],[[6772,2391],[-58,-3],[-20,-35],[-117,-55],[-46,-35],[-90,-39],[-34,-58],[-48,-42]],[[6359,2124],[2,44],[-51,50],[-75,32],[-51,-9],[-27,-62],[-58,-25],[-162,41],[-210,33]],[[5727,2228],[28,75],[56,77],[0,62],[35,45],[23,61],[69,11],[71,98],[-73,59],[-12,60],[-76,77],[-54,12]],[[5727,2228],[-58,-37],[-62,85],[-79,46],[-143,35],[-164,17]],[[5221,2374],[54,163],[5,123],[-13,72],[-28,68],[-25,19],[-17,65],[9,53],[34,23],[-7,56],[-75,39],[7,87],[-42,57],[-123,9],[-96,-64],[-13,-30]],[[4891,3114],[-33,33],[-21,58],[35,71],[-77,9],[5,56],[-20,31],[15,47]],[[4795,3419],[58,-8],[57,90]],[[4910,3501],[65,105],[-5,40],[111,-36],[9,44],[51,-2],[125,-82],[2,-73],[60,2],[78,92],[1,30],[-130,133],[41,5]],[[5318,3759],[133,-67],[46,21],[71,-3]],[[5667,2167],[45,-54],[-104,-15],[59,69]],[[2714,2425],[52,-69],[48,-11],[57,-67],[93,38],[16,35],[99,-18],[30,28],[62,22]],[[3171,2383],[52,-65],[-18,-43],[20,-87],[-3,-49],[-26,-32],[20,-32],[-6,-66],[-27,-50]],[[3183,1959],[-127,-66],[-135,-51],[-215,-205],[-153,-91],[-135,-131],[-94,-64],[-40,-60],[-25,-108],[10,-90],[-13,-39],[10,-82],[-14,-77],[-27,-40],[-6,-89],[24,-60],[-41,-69],[12,-46]],[[2214,591],[-60,-11],[-56,51],[-149,56],[-77,9]],[[1872,696],[-93,32],[-26,47],[-41,2],[-87,34],[-16,51]],[[1609,862],[50,34],[20,54],[13,97],[72,76],[85,56],[98,13],[51,22],[-15,55],[62,57],[-25,43],[-86,-17],[-57,21],[-36,-7],[-23,32],[-57,14],[-7,-43],[-44,-63],[-33,-15],[-110,104],[-54,-10],[-82,82],[60,40],[41,54],[-41,17],[-17,109],[-31,86]],[[1443,1773],[61,12],[55,-9],[201,73],[160,25],[103,3],[21,66],[106,38],[17,161],[-8,92],[20,27],[-30,95]],[[2149,2356],[48,15],[7,47],[69,12]],[[2273,2430],[55,-126],[68,-3],[54,47],[47,12],[36,47],[12,64],[62,9],[48,26],[59,-81]],[[4545,2781],[44,-12],[200,24],[19,53],[-28,88],[68,65],[43,115]],[[5221,2374],[-146,-10],[-87,-28],[-114,27],[-62,-27],[-128,1],[-14,-13],[-86,2]],[[7071,1868],[-2,-41],[-92,21],[-79,-20],[-63,21],[-16,44],[66,8],[71,61],[-20,44],[-78,22],[-95,-20],[-29,13],[-56,-62],[-47,9],[-44,-59],[-50,32]],[[6537,1941],[37,27],[-23,77],[-100,-5],[-74,19],[-18,65]],[[7488,772],[-53,-56],[-45,-100],[8,-94],[42,-28],[4,-88],[30,-62],[50,-23],[86,4],[24,-15],[16,-72],[-40,-149],[-79,33],[-37,58],[-20,-43],[9,-37],[-73,-15],[-42,6],[-67,-22],[-62,42],[-97,-15],[-27,-34],[-44,23],[-81,1],[-74,46],[38,47],[47,12],[-60,69],[38,37],[26,75],[61,50],[-57,18],[-1,59],[34,24],[-17,70],[-23,24],[17,47],[-22,68]],[[6938,70],[114,-18],[7,-52],[-117,6],[-4,64]],[[3354,2819],[-69,16],[-36,-32],[-71,-20],[-113,30],[-47,-25],[-57,60],[9,23],[-74,39],[-53,-27],[-40,-46],[-68,-26],[-10,-22]],[[2725,2789],[-62,-35],[-17,-38],[-65,66],[-30,94],[-106,-27]],[[2445,2849],[-29,112],[-83,96],[-50,112],[4,81],[58,50],[6,50],[-18,66],[9,39],[-38,40],[-7,45],[24,41],[6,79],[-30,119],[-41,71],[0,115]],[[2256,3965],[133,12],[28,50],[34,9],[25,54]],[[2476,4090],[100,-16],[33,-16],[23,-52],[148,46],[32,-17],[52,66],[14,64],[39,-9],[86,26],[57,-34],[69,-20],[-4,-61]],[[3125,4067],[32,-79],[-3,-64]],[[3154,3924],[-11,-40],[26,-41],[-12,-30],[35,-91],[39,-36],[-2,-56],[54,-54],[33,-11],[18,-53],[55,-43],[-1,-38],[37,-59],[-75,-83],[19,-77],[29,-41],[96,49],[14,-16],[138,21],[33,-38],[67,-21]],[[4580,4570],[6,-102],[50,-172]],[[4636,4296],[2,-93],[-13,-59],[-72,-108],[-6,-57],[25,-79],[21,-24],[-19,-45],[8,-62],[-39,-158],[-10,-120],[26,-80]],[[4559,3411],[16,-79]],[[4392,3317],[-28,87],[-44,77],[6,75],[-16,50],[-134,91],[-37,14],[-33,48],[-37,7],[-10,-53],[-53,-38],[-66,34],[-68,54],[-11,61],[-23,27],[-113,62],[-90,13],[-22,22],[-129,29],[-91,35],[-38,-15],[-84,3],[-23,-63],[-94,-13]],[[3125,4067],[23,2],[63,86],[88,47],[34,-35],[166,17],[72,-3],[81,16],[44,-17],[108,48],[1,61],[21,27],[3,78],[-32,37],[-49,12],[-34,96],[-54,69],[15,33],[-45,39],[-28,88]],[[3602,4768],[22,71],[60,-7],[54,34],[58,69],[69,4],[51,24],[36,-26],[5,-44],[40,-44],[7,-41],[64,-57],[45,2],[74,-21],[93,-80],[38,9],[-10,97],[36,32],[-29,100],[72,28],[-35,58],[35,48]],[[5318,3759],[16,50],[3,175],[49,84],[-3,58],[-21,32],[-11,106],[-146,-5]],[[5205,4259],[-16,127]],[[5189,4386],[40,33],[-52,205],[-44,144]],[[5398,4935],[75,-34],[16,-88],[34,-60],[-5,-48]],[[4795,3419],[-68,-18],[-44,15],[-124,-5]],[[4636,4296],[80,2],[83,16],[16,25],[58,1],[55,-28],[54,-1],[64,-35],[143,110]],[[5205,4259],[-142,-18],[-11,26],[-67,-92],[15,-40],[-72,-16],[-23,-45],[6,-46],[-41,-8],[40,-70],[0,-43],[33,-128],[-10,-90],[-28,-147],[5,-41]],[[1443,1773],[-41,30],[-66,95],[-129,-44],[-58,-52],[-46,42],[-86,22],[-14,31],[-54,11],[-7,34],[-54,61]],[[888,2003],[21,72],[-6,31],[46,160],[-11,39],[72,121],[17,85]],[[1027,2511],[43,22],[88,9],[-17,51],[66,71],[71,8],[57,31],[10,54],[90,28],[42,-39],[77,-15],[98,37],[48,-20],[57,24],[20,-46],[38,-3],[48,56],[104,16]],[[1967,2795],[-59,-95],[35,-65],[45,-12],[24,-98],[38,-83],[-2,-37],[53,-44],[48,-5]],[[6616,1538],[-10,-3],[33,35],[-29,87],[-46,44],[-13,116],[-25,113],[11,11]],[[6621,1538],[-5,0]],[[4142,2285],[-86,-30],[-39,-32],[-53,-16],[-430,-110]],[[3534,2097],[-30,100],[2,51],[-31,85],[-52,-11],[-13,57],[-60,118]],[[3534,2097],[-194,-57],[-157,-81]],[[3171,2383],[37,14],[24,41],[65,61],[37,12]],[[2714,2425],[65,75],[-16,87],[-24,32],[70,49],[-92,64],[8,57]],[[2273,2430],[-51,87],[-24,81]],[[2198,2598],[63,14],[77,85],[98,21],[29,46],[4,60],[-24,25]],[[2198,2598],[-14,54],[-51,74],[-102,53],[-44,13]],[[1987,2792],[10,66],[71,70],[20,149],[-30,85],[-47,17],[-169,98],[-6,93],[20,48],[-11,66],[58,38],[-43,68],[-9,47],[67,107],[81,55],[22,57],[53,28],[49,54],[16,51],[117,-24]],[[2470,4351],[34,-117],[-9,-109],[-19,-35]],[[1987,2792],[-20,3]],[[1027,2511],[-77,105],[1,73],[-28,82],[42,99],[-54,41],[-16,161],[6,17],[-66,86],[-7,24],[24,100],[8,90],[-36,47],[-46,11],[-95,-22],[-40,37],[-106,4],[-31,-40],[-183,-8],[-23,-19],[-80,-8],[-64,25],[-150,-6],[-6,48],[23,89],[76,51],[11,60],[34,11],[5,69],[-39,53],[6,91],[47,66],[224,216],[48,30],[100,17],[42,38],[53,-35],[63,61],[37,64],[90,17],[104,-5],[67,68],[61,-14],[66,27],[3,46],[27,53],[63,28],[70,108],[21,130],[54,12],[19,-22],[68,-17],[59,24]],[[1609,862],[-19,14],[-44,-57],[-63,-50],[-72,-40],[-75,-56],[-32,-51],[-53,-44],[-55,-22],[-89,-8]],[[1107,548],[-48,52],[-1,30],[-109,9],[-77,65],[-18,38],[-81,103],[-53,25],[-13,61],[13,90],[-55,63],[14,52],[-31,83],[-11,63],[-34,32],[27,47],[-28,31],[-15,76],[11,52],[-12,54],[11,96],[60,75],[8,47],[37,63],[112,133],[74,15]],[[2214,591],[62,-76],[18,-70],[-47,-52],[37,-45],[-6,-100],[56,-54],[84,-3],[42,-73],[-64,3],[-47,-15],[-31,49],[-50,6],[-52,45]],[[2216,206],[-42,71],[-65,66],[24,80],[-87,74],[-47,80],[-112,83],[-15,36]],[[2216,206],[-56,29],[-117,-21],[-80,-99],[-36,6],[-73,-19],[-111,-2],[-65,11],[-108,52],[-67,-13],[-58,25],[-89,13],[-28,32],[-90,13],[-92,-12],[-20,65],[21,50],[-41,23],[31,53],[-4,70],[-26,66]],[[3602,4768],[-55,-4],[-64,51],[-26,92],[-106,78],[-33,53],[-21,70],[26,107]]],"transform":{"scale":[0.00010002771176656663,0.00007865820598738166],"translate":[138.9157679118597,35.13234483874339]},"objects":{"municipalities":{"type":"GeometryCollection","geometries":[{"arcs":[[[0]],[[1,2]],[[3,4,5,6,7,8,9,10,11,12,13]],[[14]],[[15]],[[16]]],"type":"MultiPolygon","properties":{"code5":"14100","name":"横浜市"}},{"arcs":[[[-3,17]],[[-13,18]],[[-11,19]],[[20]],[[21]]],"type":"MultiPolygon","properties":{"code5":"14130","name":"川崎市"}},{"arcs":[[22,23,24,25,26,27,28,29]],"type":"Polygon","properties":{"code5":"14150","name":"相模原市"}},{"arcs":[[[30,31,32,33,34,-5,35]],[[36]]],"type":"MultiPolygon","properties":{"code5":"14201","name":"横須賀市"}},{"arcs":[[37,38,39,40,41,42,43,44,45]],"type":"Polygon","properties":{"code5":"14203","name":"平塚市"}},{"arcs":[[-7,46,47,48]],"type":"Polygon","properties":{"code5":"14204","name":"鎌倉市"}},{"arcs":[[[-8,-49,49,50,51,52,53,54]],[[55]]],"type":"MultiPolygon","properties":{"code5":"14205","name":"藤沢市"}},{"arcs":[[56,57,58,59,60,61,62,63,64]],"type":"Polygon","properties":{"code5":"14206","name":"小田原市"}},{"arcs":[[-39,65,-51,66]],"type":"Polygon","properties":{"code5":"14207","name":"茅ヶ崎市"}},{"arcs":[[-6,-35,67,68,-47]],"type":"Polygon","properties":{"code5":"14208","name":"逗子市"}},{"arcs":[[[-32,69]],[[70]]],"type":"MultiPolygon","properties":{"code5":"14210","name":"三浦市"}},{"arcs":[[-44,71,72,73,74,75,76,77]],"type":"Polygon","properties":{"code5":"14211","name":"秦野市"}},{"arcs":[[-23,-30,78,79,80,-46,81,-77,82,83]],"type":"Polygon","properties":{"code5":"14212","name":"厚木市"}},{"arcs":[[-9,-55,84,85,86,-28,87]],"type":"Polygon","properties":{"code5":"14213","name":"大和市"}},{"arcs":[[-45,-78,-82]],"type":"Polygon","properties":{"code5":"14214","name":"伊勢原市"}},{"arcs":[[-53,88,-80,89,-86,90]],"type":"Polygon","properties":{"code5":"14215","name":"海老名市"}},{"arcs":[[-29,-87,-90,-79]],"type":"Polygon","properties":{"code5":"14216","name":"座間市"}},{"arcs":[[-63,91,92,93,94]],"type":"Polygon","properties":{"code5":"14217","name":"南足柄市"}},{"arcs":[[-54,-91,-85]],"type":"Polygon","properties":{"code5":"14218","name":"綾瀬市"}},{"arcs":[[95,-68,-34,96]],"type":"Polygon","properties":{"code5":"14301","name":"葉山町"}},{"arcs":[[-38,-81,-89,-52,-66]],"type":"Polygon","properties":{"code5":"14321","name":"寒川町"}},{"arcs":[[-41,97,98]],"type":"Polygon","properties":{"code5":"14341","name":"大磯町"}},{"arcs":[[-42,-99,99,-58,100]],"type":"Polygon","properties":{"code5":"14342","name":"二宮町"}},{"arcs":[[-43,-101,-57,101,-72]],"type":"Polygon","properties":{"code5":"14361","name":"中井町"}},{"arcs":[[-65,102,103,-73,-102]],"type":"Polygon","properties":{"code5":"14362","name":"大井町"}},{"arcs":[[-74,-104,104,105]],"type":"Polygon","properties":{"code5":"14363","name":"松田町"}},{"arcs":[[-26,106,-75,-106,107,-94,108]],"type":"Polygon","properties":{"code5":"14364","name":"山北町"}},{"arcs":[[-64,-95,-108,-105,-103]],"type":"Polygon","properties":{"code5":"14366","name":"開成町"}},{"arcs":[[-62,109,110,-92]],"type":"Polygon","properties":{"code5":"14382","name":"箱根町"}},{"arcs":[[-60,111,112]],"type":"Polygon","properties":{"code5":"14383","name":"真鶴町"}},{"arcs":[[-61,-113,113,-110]],"type":"Polygon","properties":{"code5":"14384","name":"湯河原町"}},{"arcs":[[-24,-84,114]],"type":"Polygon","properties":{"code5":"14401","name":"愛川町"}},{"arcs":[[-25,-115,-83,-76,-107]],"type":"Polygon","properties":{"code5":"14402","name":"清川村"}}]}}}