{"type":"Topology","arcs":[[[10097,8315],[-69,-39],[-13,-24],[30,-58],[56,-1],[96,-19],[10,-41],[-33,-47],[-8,-48],[22,-56],[76,-7],[-5,-38]],[[10259,7937],[-48,27],[-76,-21],[12,-38],[-77,-34],[-28,18],[-50,-34],[1,-56],[-46,-20],[-48,-41],[-14,-76],[-68,-38],[-64,10],[-22,-65]],[[9731,7569],[-58,63],[-75,-19],[-34,-37],[-93,30],[-46,-18],[-95,-67],[-35,-70],[-63,-74],[1,-55]],[[9233,7322],[-50,9],[-1,86],[-53,36],[-69,-51],[-37,-2],[-53,-61],[-18,-79],[17,-43]],[[8969,7217],[-58,-6],[-112,13]],[[8799,7224],[48,9],[-11,51],[-72,31],[29,98],[-68,-17],[-65,11],[3,86],[-39,33],[-65,8],[14,71],[-118,-1],[-20,-90],[-78,-33],[-105,-7],[-82,-15],[-44,-36]],[[8126,7423],[-90,18],[-47,43],[-76,-2],[-109,30],[-54,-88]],[[7750,7424],[-74,26],[-39,-37],[-38,14]],[[7599,7427],[4,105],[49,77],[23,107],[28,79],[58,111],[41,140],[118,147],[9,24],[161,164],[65,55],[150,107],[168,93],[29,29],[222,114],[85,60],[213,127],[273,190],[75,62],[31,40],[55,-16],[66,53],[112,30],[8,25],[98,0],[93,28],[58,-1],[398,132],[79,44],[4,26],[68,35],[40,-28],[47,-106],[-3,-34],[35,-41]],[[10559,9405],[-13,-18],[29,-60],[-26,-56],[71,-11]],[[10620,9260],[40,-2],[72,-67],[-64,-34],[-13,-131],[36,16],[15,-50],[44,-27],[22,-49],[-32,-74]],[[10740,8842],[-2,-65],[-32,-4],[-42,51],[-25,-108],[-60,-5],[-21,-80],[-138,0],[-44,18],[-48,-6],[-41,-31],[-92,21],[-126,-110],[-7,-37],[-35,-26],[38,-46],[102,-32],[22,-20],[-15,-59],[-77,12]],[[7750,7424],[20,-46],[-17,-71],[-26,-43],[5,-61]],[[7732,7203],[-79,7],[-37,-55],[-5,-125],[138,-143],[35,50],[63,16],[3,-73],[93,-134],[-37,-13],[-42,-60],[37,-37],[-1,-78],[65,88],[71,47],[194,67]],[[8230,6760],[9,-26],[-10,-97],[-37,-35],[-11,-55]],[[8181,6547],[19,-126],[-33,-59],[29,-56],[-5,-34],[66,-72],[-40,-48],[26,-39],[-26,-77],[46,-69],[51,-37],[-43,-19],[10,-32],[84,-12],[-1,-87],[101,-29],[110,3],[31,-38],[20,-102],[53,-15],[108,44],[-24,69],[-36,-3],[1,52],[140,75],[55,-10],[20,116],[49,23],[27,74]],[[9019,6039],[181,31],[132,-65],[111,24],[108,6],[23,-35],[56,6],[73,-44],[44,-1],[13,-37],[-15,-55],[-32,-18],[-17,-69],[22,-51],[-69,-69],[-47,-11],[-5,-55],[37,-137],[102,-89],[91,-91],[11,-52],[-5,-75]],[[9833,5152],[-100,5],[-89,-8],[-32,-29],[-61,-17],[-125,16],[-43,61],[-57,-40],[17,-51],[-100,-14],[-36,-16],[-67,-70],[-29,-79],[-93,-29],[-39,-23],[-38,8],[-58,55],[-73,31],[-44,-74],[-34,-6],[0,-101],[48,-47],[-60,-21],[-24,-47],[-72,-40],[-50,-9],[46,-108],[-6,-49],[-49,-41],[13,-66],[-48,-58],[-78,-33],[-23,8]],[[8429,4260],[26,41],[-60,54],[-31,-26],[-39,56],[-128,43],[-22,40],[-35,5],[58,108],[11,39],[-48,50],[-7,38],[-52,1],[-5,-31],[-49,-38],[-134,-36],[-39,-27],[-27,33],[2,57],[-16,83],[-65,74],[-64,2],[-54,48],[12,49],[-35,18],[-103,15],[-37,-21],[-31,-50],[-43,-123],[32,-80],[-19,-11],[-51,-158],[21,-75],[-21,-40],[22,-53],[-32,-34],[-19,-99],[32,-42],[-57,-42],[27,-87],[-53,-57],[-48,-81],[-18,-99],[-30,-32]],[[7200,3772],[-42,41],[-105,-13],[-102,18],[-32,-12],[-53,24]],[[6866,3830],[-91,208],[3,32],[-49,14],[-11,43],[-33,8],[-22,49],[1,85],[52,33],[42,86],[-10,35],[45,34],[-15,31],[40,47],[58,6],[1,35],[37,71],[51,51],[64,12],[11,60],[89,112],[23,93],[-80,63],[-31,4],[-15,47]],[[7026,5089],[62,136],[-43,10],[-30,37],[1,52],[-41,44]],[[6975,5368],[27,41],[22,97],[39,72],[71,84],[44,83]],[[7178,5745],[44,32],[68,-9],[7,51],[-41,43],[55,53],[0,46],[67,4],[9,55],[32,9],[21,67],[-52,59],[-83,47],[30,47],[23,68],[-45,-5],[-57,26],[-71,5],[27,56],[-2,40]],[[7210,6439],[40,101],[103,112],[12,48],[62,134],[3,41],[46,70],[104,368],[19,114]],[[8365,4225],[-17,-60],[-49,-14],[-25,-109],[36,-74],[-31,-41],[-4,-50],[-42,-27],[6,-70],[-13,-49],[-62,-31],[-14,-93],[-35,-41],[-38,3],[-33,-101],[-28,-40],[-90,-62]],[[7926,3366],[11,89],[-23,102],[3,34]],[[7917,3591],[37,13],[17,40],[-28,82],[-40,26],[19,50],[-17,41],[32,32],[40,-9],[42,22],[22,41],[-73,96],[-97,95],[24,63],[37,-4],[20,73],[31,66],[38,-9],[2,67],[40,-4],[112,-42],[25,-30],[50,13],[31,-74],[39,11],[45,-25]],[[8969,7217],[94,-16],[23,-31],[-35,-63],[46,-23],[76,-64],[23,-49],[51,-21],[28,-53],[0,-53],[-47,-88],[58,-49],[75,24],[39,-35],[60,-11],[59,6],[1,-84],[60,-50],[90,8],[61,-31],[-1,-64],[61,2],[34,-16],[75,-105],[89,-18],[35,-25],[147,-40],[142,-8],[94,48],[80,-15],[29,-20],[38,19]],[[10554,6292],[10,-30],[56,-42],[35,-85],[73,-20],[-20,-71],[29,-55],[-2,-55],[42,2],[52,26],[14,-46]],[[10843,5916],[12,-22],[63,5],[17,-75],[38,-40],[16,-58],[-99,-9],[-46,-63],[-125,-85],[-40,-92]],[[10679,5477],[-91,-55],[-96,26],[-66,-76],[-36,-75],[5,-90],[-73,-48]],[[10322,5159],[-66,8],[-100,-12],[-55,23],[-104,-70],[-37,-47],[-40,-2],[-59,28],[-28,65]],[[9019,6039],[3,55],[-63,40],[-57,16],[-5,51],[28,23],[-36,79],[-29,13],[-54,-55],[-16,-69],[-74,-39],[-6,52],[-45,8],[-16,55],[-62,-11],[-44,71],[-36,-6],[-81,20],[-49,65],[-30,3],[-50,69],[-82,78],[-34,-10]],[[8230,6760],[31,23],[86,-3],[138,63],[87,1],[16,35],[-52,39],[-3,55],[-29,33],[27,24],[66,-55],[115,76],[20,42],[-5,71],[72,60]],[[6866,3830],[-22,-62],[40,-53],[-31,-30],[-1,-81],[-55,-39],[-14,-39],[-46,-24],[-29,-41],[-8,-89],[-64,-20],[-105,37],[-35,-14],[1,-103],[-44,1],[-82,55],[-39,-2],[-64,-35],[-65,4],[-57,24]],[[6146,3319],[21,66],[-37,48],[-63,38],[15,64],[-50,25],[-79,-26],[-58,53],[-8,90],[-32,32],[-111,58],[70,72],[-3,62],[32,47],[98,73],[-2,36],[-31,47],[-45,27],[-72,-24],[-83,51],[-62,62],[-111,13],[-30,20],[-72,2],[-39,25],[-54,6],[-44,-17],[-24,54],[-37,-8],[-33,-47],[-32,93]],[[5170,4361],[125,120],[61,15],[98,94],[23,-6],[140,81],[19,40],[77,4],[98,36],[77,68],[114,24],[100,112],[190,287],[24,61],[99,172],[77,182],[-5,69],[52,6],[43,29],[13,49],[32,16],[60,70],[83,131]],[[6770,6021],[92,0],[38,-48],[-25,-60],[-24,-11],[17,-97],[150,24],[160,-84]],[[6975,5368],[-69,-36],[-14,-80],[42,-60],[92,-103]],[[6575,5489],[-84,-23],[-98,-62],[-25,-48],[44,-13],[11,-35],[-50,-122],[-63,-95],[18,-23],[107,31],[81,-4],[19,41],[52,44],[90,-44],[125,-12],[30,43],[-162,147],[-87,24],[32,35],[-2,32],[38,82],[-49,27],[-27,-25]],[[10620,9260],[-5,22],[102,44],[76,-15],[161,16],[37,90],[46,23],[54,118],[-94,29],[-12,-18],[-76,-11],[-24,31],[-76,37],[92,74],[49,22],[51,50],[-66,73],[-11,56]],[[10924,9901],[98,79],[69,66]],[[11091,10046],[58,-96],[188,-132],[35,3],[26,90],[149,10],[45,-39],[64,20],[57,-25],[65,-55],[59,-2],[54,18],[104,-48],[64,-60],[95,11],[17,-49],[57,-2],[50,-38],[5,-107],[-22,-61],[-9,-103],[20,-26],[-2,-75],[77,-84],[55,-132],[-78,-151],[46,-96],[94,-8],[53,-16],[68,18],[11,-25],[76,-20],[41,-62],[-20,-82],[77,-16],[120,18],[35,51],[30,-5],[69,82],[4,44],[117,38],[34,19]],[[13179,8853],[57,-75],[3,-29],[79,-32],[42,-31],[3,-63],[144,-92],[19,-36]],[[13526,8495],[-56,-66],[-86,-40],[-101,-27],[-78,25],[-22,-19],[-67,1],[-61,-43],[-19,-44],[-91,-28],[-60,-34],[-44,12],[-66,-8],[-35,-40],[-45,-17],[-40,20],[-98,-18],[-14,-58],[-60,-27],[-113,30],[-115,-25],[-52,25],[-90,-47],[-88,25],[-2,21],[-75,70],[-61,28],[-33,42],[-39,12],[-82,-20],[-138,96],[-107,-13],[-79,-24]],[[11409,8304],[-14,22],[35,113],[28,49],[-59,9],[-28,50],[-74,15],[-118,66],[-57,-34],[-54,-10],[-19,29],[-55,-37],[-125,91],[-17,45],[-37,25],[-8,52],[-67,53]],[[7917,3591],[-40,20],[-53,54],[-78,15],[-90,-3],[-60,19],[-24,46],[-36,-42],[-109,-33],[-30,12],[-151,4],[-39,29],[-7,60]],[[8429,4260],[-37,-1],[-27,-34]],[[9233,7322],[-5,-21],[55,-47],[40,-104],[153,24],[154,47],[38,-5]],[[9668,7216],[17,-13],[-7,-63],[28,-13],[35,-56],[-33,-30],[30,-37],[76,37],[90,0],[-16,-46],[15,-66],[36,-36],[6,-61],[67,-28],[20,-45],[-11,-51],[17,-35],[87,-35],[15,-37],[69,2],[61,57],[32,55],[65,-24],[96,-67],[4,-61],[38,-92],[40,-35],[18,-71],[-9,-73]],[[7926,3366],[66,-84]],[[7992,3282],[5,-28],[57,-27],[43,-75],[49,3],[43,-65],[-31,-56],[-71,-15],[-10,-46],[-112,-50],[-8,-48],[-37,-69],[-29,-11],[-18,-81],[-22,-33],[43,-80],[-74,-32],[-51,-41],[3,-60],[-55,-40],[-12,-73],[-64,-110],[-25,-1],[-44,-103],[-40,-51],[21,-32],[-32,-41],[-17,-128],[-43,-46],[26,-108],[69,-43]],[[7556,1692],[-40,-87],[-67,-85],[-64,-33],[-4,-35],[-55,-33],[-40,-73],[-50,-25],[13,-52],[-26,-46],[-49,-48],[-45,-65],[-4,-60],[-88,-43]],[[7037,1007],[-53,63],[-118,37],[-44,83],[-54,28],[-42,85],[56,47],[-2,110],[18,58],[66,56],[103,58],[-3,-80],[92,51],[52,9],[32,106],[-54,58],[15,50],[-11,41],[-66,73],[4,98],[-51,91],[-45,-26],[-6,144],[54,45],[-9,35],[-51,74],[20,52],[-122,63],[-151,-68],[-11,-55],[-43,1],[-22,-43],[-46,-18],[-54,19],[-27,-32],[-100,-6],[-74,-64],[-66,4],[-63,-40],[-14,-36]],[[6147,2178],[-88,18],[-27,-18],[-79,-2],[-52,29],[-27,43]],[[5874,2248],[3,30],[101,80],[-24,86],[6,60],[-11,60],[56,108],[-64,44],[-4,56],[-55,49],[-18,48],[26,34],[15,60],[-27,39],[26,68],[86,10],[46,60],[85,64],[24,62],[1,53]],[[13545,10887],[-36,9],[-65,-20],[-98,79],[-65,-28],[-48,8],[-146,-13],[-28,26],[-68,-7],[-89,25],[-53,-37],[-16,-31],[-106,-30],[-30,-64],[-72,-5],[-50,25],[-60,-15],[-55,-54],[-64,10],[-48,-66],[69,-60],[-68,-27],[-14,-57],[70,-57],[-5,-66],[-37,-1],[-33,-57],[-41,-15],[-32,-43]],[[12257,10316],[-22,-46],[-35,-4],[-75,24],[-115,63],[-57,42],[-10,57],[-81,-39],[-106,88],[25,30],[-63,58],[-3,74],[19,41],[-19,30],[27,37],[-20,42]],[[11722,10813],[34,76],[105,165],[-13,123],[57,139],[83,142],[6,59],[-58,40],[35,115],[-7,44],[20,41],[-5,85],[22,192],[-16,28],[25,184],[-11,187],[61,147],[-34,70],[15,59],[35,28],[63,168],[69,80],[-4,48],[102,145],[70,196],[43,48],[42,76],[7,38],[106,143],[80,145],[44,15],[100,-51],[36,8],[37,-54],[84,-44],[26,-35],[96,31],[115,-34],[61,-84],[45,-2],[38,-28],[59,12],[34,-15],[104,-12],[66,14],[58,-40],[126,-40],[33,-75],[-64,-58],[-26,-56],[26,-34],[-6,-59],[33,-67],[-24,-142],[4,-86],[-33,-63],[-41,-39],[-16,-57],[9,-51],[50,-50],[64,54],[60,-96],[-14,-35],[25,-42],[129,-95],[62,16],[60,-63],[87,1],[38,-32],[92,48],[86,7],[59,-43],[12,-41],[75,-17],[64,0],[-4,-48],[61,-32],[55,-50],[11,-32],[53,-38],[29,-101],[61,-19],[68,-60],[-5,-115],[12,-18],[-154,-106],[-6,-75],[-47,-31],[-56,-130],[-87,-50],[-55,-7],[-128,-83],[-55,-10],[-71,-69],[-126,-63],[-34,30],[-81,7],[-37,-46],[-75,26],[-54,44],[-48,-10],[-121,44],[-98,-88],[-13,-65],[-58,-66],[-34,-64],[20,-24],[-5,-54]],[[7732,7203],[22,-31],[110,-27],[113,-11],[4,-34],[-29,-53],[57,4],[51,115],[86,-17],[23,111],[-35,50],[37,33],[-45,39],[0,41]],[[2853,3149],[35,-25],[10,-56],[65,-127],[-23,-68],[9,-27],[-45,-44],[-7,-88],[41,-5],[11,-49],[32,-37],[-12,-78],[68,-55],[-17,-113],[-20,-35],[-12,-95],[9,-53],[-14,-67],[46,-147],[12,-88],[-16,-59],[57,-37]],[[3082,1796],[1,-33],[66,-83],[-32,-72],[-48,8],[-139,-42],[-80,-154],[-41,-16],[-49,11],[-78,-24],[-58,22],[-59,-75],[-59,-7],[-10,-50]],[[2496,1281],[-72,8],[-75,43],[-100,-18],[-45,19],[-48,-66],[-60,22],[-39,61],[-101,10],[-82,42],[-58,-15],[-68,-48],[-49,-13],[-97,22],[-26,24],[-74,-23],[-6,-45],[59,-33],[-65,-91],[31,-27],[13,-72],[63,-36],[-29,-73],[-35,-7],[-81,-101],[7,-43],[-78,-71],[-93,-128],[-1,-75],[-54,-16],[-18,-59],[-137,-75],[-40,-14],[-12,-57],[-63,-47],[-41,4],[-73,-45],[-45,52],[-54,40],[7,89],[23,40],[-22,31],[-11,69],[-29,43],[-85,64],[16,59],[-11,105],[15,78],[-20,141],[-47,33],[-79,121],[-3,79],[35,28],[1,114],[16,31],[-46,64],[-15,70],[-83,-15],[-74,7],[-50,40],[-91,40],[-55,47],[-41,71],[-92,57],[-9,25],[98,7],[48,32],[64,8],[79,36],[135,29],[71,32],[102,28],[14,15],[255,102],[308,96],[102,73],[111,37],[257,60],[182,66],[109,73],[75,38],[17,41],[42,39],[81,20],[79,46],[17,33],[84,42],[44,44],[64,39],[80,-9],[69,20],[140,86],[61,76],[13,42],[52,37]],[[3082,1796],[32,37],[109,-78],[36,-48],[86,-33],[46,-43],[23,-41],[58,4],[37,20],[66,-13],[104,15],[88,35],[47,-42],[-8,-32],[63,-14],[63,30],[-3,45],[62,46],[16,81],[52,84],[-37,53],[-8,39],[33,78],[1,83],[-70,-24],[-72,-96],[-29,-7],[-28,45],[-113,-68],[-111,-52],[-68,-107],[-85,0],[-57,-47],[-90,46],[-36,-14],[-28,58],[14,99],[57,58],[-17,94],[21,12],[-37,85],[18,69],[62,2],[77,38],[-3,55],[27,13],[95,-15],[41,13],[-12,51],[-36,57],[14,18],[84,8],[31,29],[74,15],[71,-23],[56,0],[64,21],[114,-20],[2,-31],[69,-29],[5,61],[101,-15],[-38,-62],[-42,-36],[18,-42],[38,13],[46,-42],[-17,-44],[56,-136],[-12,-44],[36,-79],[29,-33],[67,-8],[151,-32],[33,-36],[54,-13],[33,-71],[96,-6],[60,10],[48,26]],[[4909,1866],[24,-31],[-42,-31],[-43,-64],[-8,-51],[-30,-30],[5,-70],[-31,-33],[-14,-47],[-58,-37],[-38,-63],[-37,32],[-55,15],[-77,-13],[-57,-37],[-84,-73],[-15,-75],[-24,-32],[59,-77],[-42,-66],[3,-37],[-32,-37],[51,-78],[-50,-55],[-7,-41],[-84,-37],[-29,26],[8,82],[-23,42],[-68,27],[-21,45],[-36,-35],[-132,-9],[-108,32],[-44,-41],[-5,-29],[-67,-42],[-117,-15],[-8,-25],[-92,-32],[-140,22],[-64,27],[-43,-20],[-69,18],[-57,-51],[-47,-2],[-118,-104],[-55,-100],[14,-48],[-47,-51],[-21,4],[-84,-34],[-2,58],[-46,17],[-74,-7],[-32,63],[-79,14],[-89,57],[71,95],[38,26],[-7,63],[-21,15],[6,62],[29,23],[35,77],[35,35],[8,62],[-12,39],[-62,-6],[-40,21],[-12,82]],[[10259,7937],[156,-75],[63,-47],[31,-51],[-14,-50],[53,-23],[41,31],[159,-21],[152,-62],[16,20]],[[10916,7659],[38,5],[24,-70],[-36,-47],[-35,-16],[-4,-104],[-31,-40],[43,-50],[98,-5],[55,-57],[-16,-95],[41,-61],[67,-37],[-6,-53],[21,-36],[-29,-24],[44,-63],[43,-14],[86,-58],[-22,-46],[-10,-96],[31,-34],[4,-46],[-64,-36],[-108,1],[20,-55],[-63,-95],[-48,-89],[4,-45],[28,-44],[47,-20],[9,-56],[-91,-92],[-43,-10],[-73,-92],[-97,-63]],[[9668,7216],[24,36],[-13,35],[36,44],[-3,43],[-78,71],[32,28],[13,57],[52,39]],[[5874,2248],[-153,-41],[-27,11],[-38,-46],[-68,8],[-88,-28],[-86,14],[-28,-36],[-54,-15],[-75,-53],[-58,-6],[-71,-25],[-5,-26],[-71,-6],[-43,-21],[-21,-51],[-79,-61]],[[2853,3149],[100,76],[57,92],[68,31],[139,-30],[58,-46],[107,-7],[26,-16],[96,6],[73,17],[129,45],[69,-16],[60,10],[102,37],[101,75],[52,60],[67,46],[16,-22],[56,26],[-38,45],[49,58],[52,-59],[200,158],[262,230],[416,396]],[[11409,8304],[16,-53],[-56,-43],[-48,-63],[-33,-13],[-19,-53],[-46,-49],[5,-32],[-46,-22],[-20,-66],[-64,-35],[-105,-31],[-62,-38],[18,-99],[-33,-48]],[[5731,12209],[79,-1],[14,-54],[26,-20],[-58,-59],[-11,-109],[-17,-38],[8,-81],[-8,-164],[-32,-173],[-62,-121],[-17,-175],[-62,-73],[-34,-97],[-110,-140],[-6,-32],[-60,-87],[-21,-94],[-36,-46],[-42,-99],[18,-100],[-23,-61],[15,-89],[96,-79],[105,-47],[87,-26],[78,58],[91,19],[24,-16],[78,8],[96,56],[62,19],[54,1],[51,39],[51,-19],[26,-40],[-20,-33],[20,-92],[-35,-49],[-28,-77],[4,-28],[-67,-84],[-14,-90],[-33,-87],[-48,-37],[-7,-36],[-47,-54],[-27,-67],[-40,-38],[-1,-33],[-57,-101],[-9,-46],[-52,-79],[6,-54],[-31,-93],[7,-29],[-67,-10],[-113,-128],[-15,-45],[-146,-51],[-45,-54],[-96,-27],[-69,-63],[-39,-19],[-2,-44],[-68,-20],[-96,-91],[-29,-42],[-145,-98],[-66,-11],[-33,-31],[-34,13],[-97,-17],[-26,18],[-108,-1],[-44,-44],[-40,9],[-68,-46],[-8,-36],[-63,-2],[-44,-38],[-95,-23],[-89,35],[-38,-11],[-102,32],[-70,75],[20,62],[61,68],[55,-13],[46,24],[88,-4],[29,39],[65,-12],[64,47],[73,115],[34,90],[-13,20],[42,63],[-2,87],[-49,39],[-24,42],[42,61],[2,37],[50,29],[54,57],[30,63],[158,77],[22,49],[54,28],[20,43],[-16,95],[-87,104],[-63,59],[-81,47],[-51,13],[-82,-3],[-80,-34],[-9,-75],[-72,-59],[-59,-156],[-32,30],[-139,88],[49,32],[5,88],[-14,103],[-78,43],[43,66],[55,17],[18,47],[-26,57],[20,61],[-32,117],[49,36],[48,70],[-54,36],[29,63],[113,69],[-7,30],[80,99],[-8,51],[126,94],[8,68],[26,9],[46,62],[8,104],[55,25],[24,75],[72,117],[-1,26],[90,13],[75,41],[26,39],[59,27],[57,57],[25,53],[74,39],[19,51],[97,79],[76,35],[80,2],[57,59],[-1,61],[45,58],[-26,70],[76,106],[11,60],[71,50],[-2,65],[65,-9],[35,30],[101,45],[60,1]],[[10322,5159],[31,-16],[37,-62],[1,-34],[50,-38],[44,16],[64,-45],[-1,-55],[44,-56],[-30,-122],[0,-102],[-36,-3],[-68,-70],[21,-80],[21,-17],[-14,-49],[-43,-49],[-22,-171],[-45,-20],[-91,-109],[-113,-100],[-65,-129],[7,-56],[44,-55],[70,-58],[27,-59],[50,-44],[13,-76],[57,2],[52,41],[31,76],[55,-46],[15,-49],[48,-66],[31,-7],[28,-49],[-9,-83],[52,-34],[12,-35],[-48,-126],[-16,-135],[-52,-101],[2,-88],[34,-67],[-14,-25],[25,-43],[41,-27],[-11,-80],[68,-114],[15,-97],[-33,-23],[-9,-46],[-31,-26],[0,-53],[-34,-67],[50,-81],[18,-109],[-3,-51],[-40,-27],[33,-28],[-27,-39],[20,-72],[-62,-99],[-9,-60],[-77,153],[-67,-4],[-87,-36],[-79,39],[-69,3],[-52,93],[28,131],[-56,86],[-59,16],[-83,47],[-27,66],[-89,52],[-60,165],[-50,2],[-27,59],[-94,26]],[[9659,2464],[5,60],[-95,62],[-45,90],[27,43],[-14,49],[-5,135],[-14,48],[29,28],[-11,40],[-101,19],[-58,35],[4,32],[-102,16],[-86,37],[-8,44],[16,81],[-44,17],[11,96],[19,24],[-56,32],[-96,-2],[-66,49],[-86,6],[-74,-26],[-32,5],[-53,-49],[-15,-78],[-47,-1],[-49,-27],[-72,69],[69,74],[40,59],[-57,40],[-20,41],[-118,-59],[-48,-52],[27,-68],[-47,-82],[-53,4],[-45,-27],[-29,46],[-22,104],[-64,25],[-31,-58],[-72,-79],[-60,-21],[-19,-63]],[[9659,2464],[-44,-105],[7,-38],[-17,-84],[16,-69],[-71,-86],[-47,-1],[-154,-105],[-16,-55],[-115,-30],[-98,35],[-98,-69],[-204,16],[-22,-19],[-3,-163],[-15,-37],[20,-168],[65,-77],[-15,-58],[35,-66],[-3,-102],[-51,-30],[-30,29],[-88,32],[-26,-17],[-62,16],[-52,-12]],[[8571,1201],[-44,86],[2,62],[-65,76],[-19,70],[-101,34],[9,33],[-67,67],[-93,13],[-71,-28],[-38,18],[-26,77],[-93,-1],[-18,-43],[-119,-24],[-25,47],[-61,38],[-72,13],[-78,0],[-36,-47]],[[11091,10046],[143,140],[97,105],[95,119],[148,195],[130,191],[18,17]],[[12257,10316],[51,28],[72,1],[33,-43],[72,-2],[15,-64],[-22,-30],[-5,-60],[37,-81],[-8,-18],[64,-66],[19,-67],[-39,-68],[10,-31],[-27,-49],[77,-50],[19,-63],[49,-20],[80,-87],[-17,-59],[2,-81],[-38,-28],[-4,-40],[39,-11],[-6,-87],[43,-94],[88,5],[26,20],[89,-11],[52,12],[25,-68],[97,-61]],[[13150,9043],[24,-46],[-15,-25],[37,-78],[-17,-41]],[[10559,9405],[35,48],[-52,76],[-33,77],[12,54],[92,59],[31,-17],[204,138],[76,61]],[[13526,8495],[105,7],[86,51],[28,-14],[37,-99],[55,-64],[47,-26],[37,-78],[-132,-63],[-53,-80],[-57,-24],[-56,-82],[-108,-77],[-17,-38],[-59,-52],[-14,-48],[-57,-15],[8,-36],[-12,-73],[-33,-22],[-18,-68],[-44,-11],[-122,-147],[-19,-66],[44,-60],[-7,-27],[-62,3],[-56,-34],[-56,-119],[-47,-28],[-34,16],[-133,-108],[-36,5],[-91,-36],[22,-50],[-7,-44],[-37,-61],[12,-54],[28,-23],[-24,-68],[39,-57],[53,-18],[22,-55],[-10,-31],[41,-71],[9,-86],[-28,-42],[18,-94],[0,-88],[55,-68],[80,-17],[-37,-115],[-119,-81],[-78,29],[-82,46],[-151,13],[-41,-40],[-113,31],[-71,-18],[-67,-59],[-65,44],[-58,73],[-44,-4],[-77,-32],[-70,8],[-94,-45],[-23,-48],[22,-40],[-40,-33],[13,-66],[-27,-48],[4,-87],[-59,-49],[-79,29],[-113,14],[-39,34],[-75,-33],[-36,-41],[-71,-19],[-57,36],[-128,-29],[-136,-49],[-61,5],[-121,-45],[-51,41]],[[6770,6021],[34,49],[74,63],[122,67],[94,65],[36,37],[80,137]],[[8571,1201],[-13,-50],[-50,-28],[-39,-99],[33,-72],[-27,-32],[-6,-60],[46,-13],[38,-75],[-5,-37],[-175,-42],[-152,-16],[-26,-49],[-73,-18],[-48,-32],[-42,-1],[-75,40],[-118,3],[-1,-34],[30,-59],[19,-77],[4,-72],[-31,-78],[13,-27],[-61,-82],[-75,23],[-73,-49],[-17,-78],[-22,-24],[-76,22],[-50,-12],[-60,22],[-53,46],[-174,70],[-37,-38],[3,-73],[-40,-30],[-18,-50],[-51,-20],[-53,8],[-36,65],[-2,95],[-24,56],[-53,4],[-69,56],[14,76],[83,33],[35,43],[-2,37],[44,82],[-57,68],[-46,16],[3,31],[61,63],[3,101]],[[6970,834],[84,33],[22,70],[-39,70]],[[6970,834],[21,52],[-34,63],[-79,51],[-64,-5],[-63,11],[-42,49],[-60,9],[-6,22],[-116,47],[-37,55],[21,94],[-54,34],[-110,-11],[-45,64],[17,76],[-32,5],[-17,45],[13,169],[-7,26],[18,149],[-12,76],[-70,75],[-31,67],[-8,77],[-26,44]],[[13545,10887],[39,-31],[6,-78],[-21,-80],[25,-166],[-62,-38],[-53,-126],[-16,-112],[63,-12],[31,11],[33,-43],[-33,-40],[41,-68],[-16,-35],[-54,-23],[-13,-48],[-35,-20],[-81,-5],[-34,-20],[-5,-68],[-29,-60],[13,-45],[-11,-90],[11,-50],[-62,-35],[-37,-57],[32,-36],[-37,-84],[44,-47],[-34,-79],[19,-42],[-24,-92],[-50,-34],[-45,-91]],[[10710,13424],[55,-16],[-37,-49],[-33,-132],[3,-24],[-41,-68],[-142,-122],[-76,2],[52,76],[14,52],[-11,33],[56,40],[45,56],[-8,27],[123,125]]],"transform":{"scale":[0.00015122808114448878,0.00013069155305157947],"translate":[137.63632274989504,36.736576278872235]},"objects":{"municipalities":{"type":"GeometryCollection","geometries":[{"arcs":[[0,1,2,3,4,5,6,7,8,9,10,11]],"type":"Polygon","properties":{"code5":"15100","name":"新潟市"}},{"arcs":[[[-8,12,13,14,15,16,17,18,19,20,21,22,23,24]],[[25,26,27]]],"type":"MultiPolygon","properties":{"code5":"15202","name":"長岡市"}},{"arcs":[[-5,28,29,30,31,32,-17,33,-15,34]],"type":"Polygon","properties":{"code5":"15204","name":"三条市"}},{"arcs":[[-21,35,36,37,38,-23,39],[40]],"type":"Polygon","properties":{"code5":"15205","name":"柏崎市"}},{"arcs":[[-11,41,42,43,44,45,46]],"type":"Polygon","properties":{"code5":"15206","name":"新発田市"}},{"arcs":[[-28,47,-19,48]],"type":"Polygon","properties":{"code5":"15208","name":"小千谷市"}},{"arcs":[[-4,49,50,-29]],"type":"Polygon","properties":{"code5":"15209","name":"加茂市"}},{"arcs":[[-27,51,52,53,54,55,56,-36,-20,-48]],"type":"Polygon","properties":{"code5":"15210","name":"十日町市"}},{"arcs":[[-16,-34]],"type":"Polygon","properties":{"code5":"15211","name":"見附市"}},{"arcs":[[57,58,59]],"type":"Polygon","properties":{"code5":"15212","name":"村上市"}},{"arcs":[[-6,-35,-14,60]],"type":"Polygon","properties":{"code5":"15213","name":"燕市"}},{"arcs":[[61,62,63]],"type":"Polygon","properties":{"code5":"15216","name":"糸魚川市"}},{"arcs":[[64,65,-63]],"type":"Polygon","properties":{"code5":"15217","name":"妙高市"}},{"arcs":[[-2,66,67,-30,-51,68]],"type":"Polygon","properties":{"code5":"15218","name":"五泉市"}},{"arcs":[[-37,-57,69,-65,-62,70]],"type":"Polygon","properties":{"code5":"15222","name":"上越市"}},{"arcs":[[-12,-47,71,-67,-1]],"type":"Polygon","properties":{"code5":"15223","name":"阿賀野市"}},{"arcs":[[72]],"type":"Polygon","properties":{"code5":"15224","name":"佐渡市"}},{"arcs":[[-26,-49,-18,-33,73,74,-52]],"type":"Polygon","properties":{"code5":"15225","name":"魚沼市"}},{"arcs":[[-53,-75,75,76]],"type":"Polygon","properties":{"code5":"15226","name":"南魚沼市"}},{"arcs":[[-44,77,-59,78,79]],"type":"Polygon","properties":{"code5":"15227","name":"胎内市"}},{"arcs":[[-10,80,-42]],"type":"Polygon","properties":{"code5":"15307","name":"聖籠町"}},{"arcs":[[-7,-61,-13]],"type":"Polygon","properties":{"code5":"15342","name":"弥彦村"}},{"arcs":[[-3,-69,-50]],"type":"Polygon","properties":{"code5":"15361","name":"田上町"}},{"arcs":[[-31,-68,-72,-46,81]],"type":"Polygon","properties":{"code5":"15385","name":"阿賀町"}},{"arcs":[[-24,-39,82]],"type":"Polygon","properties":{"code5":"15405","name":"出雲崎町"}},{"arcs":[[-54,-77,83,84]],"type":"Polygon","properties":{"code5":"15461","name":"湯沢町"}},{"arcs":[[-55,-85,85]],"type":"Polygon","properties":{"code5":"15482","name":"津南町"}},{"arcs":[[[-22,-40]],[[-41]]],"type":"MultiPolygon","properties":{"code5":"15504","name":"刈羽村"}},{"arcs":[[-58,86,-79]],"type":"Polygon","properties":{"code5":"15581","name":"関川村"}},{"arcs":[[87]],"type":"Polygon","properties":{"code5":"15586","name":"粟島浦村"}}]}}}