{"type":"Topology","arcs":[[[2511,2684],[105,-111]],[[2616,2573],[-17,-24],[9,-57],[-72,16],[-21,-82]],[[2515,2426],[-51,6],[-58,-52]],[[2406,2380],[-10,-31],[-61,-18],[26,-123],[-3,-119],[26,-94],[135,-198],[6,-38],[68,-71],[120,-45],[61,6],[148,40],[62,25],[84,6],[91,-69],[80,-38],[62,-3],[98,-69],[8,-32],[52,-14],[70,24],[26,-16],[128,54],[91,-9],[41,-36],[218,-127],[39,-29],[77,39],[88,-39],[56,39]],[[4293,1395],[8,-49],[-169,-47],[-11,-90],[-66,-28],[-5,-45],[27,-54],[-7,-65],[-45,-23],[-25,-49],[-10,-80],[-20,-35],[-50,-8],[-61,-32],[-25,-51],[7,-34],[-59,-72],[-68,18],[-83,-30],[-86,22],[-50,66],[-45,15],[-35,58],[-5,39],[-68,15],[-25,-14],[-80,10],[-61,-73],[-37,21],[-48,-10],[-29,34],[-118,24],[-69,65],[-2,107],[-26,9],[-127,-40],[-16,-77],[-36,-18],[-53,5],[-88,-52],[-30,4],[-36,61],[40,30],[18,53],[-4,55],[-47,16],[-38,-31],[-94,36],[-64,-36],[-35,-40],[-40,60],[-75,-98],[-42,-4],[-41,-31],[-3,-43],[-82,91],[-17,47],[-69,-23],[-75,30],[-22,-40],[-58,-33],[-83,-118],[-58,-37],[-44,-90],[-26,1],[-6,-86],[-75,2],[-93,-68]],[[1328,535],[-52,1],[34,115],[18,26],[-10,80],[27,84],[-34,57],[44,83],[-20,103],[-23,42],[-21,138],[-101,17],[29,43],[-9,107],[16,44]],[[1226,1475],[21,164],[-5,53],[65,113],[0,118],[12,47],[41,45],[-63,43]],[[1297,2058],[56,60],[43,-42],[32,80],[33,-25],[57,136],[37,-16],[64,30],[15,51],[-27,88],[60,78],[63,-3],[24,89],[72,15],[56,28],[5,54]],[[1887,2681],[68,17],[45,-9],[108,12],[67,23],[240,-48],[96,8]],[[1373,2881],[-43,-48],[71,-24],[16,-41],[68,-9]],[[1485,2759],[52,-13]],[[1537,2746],[-53,-38],[-59,-3],[-118,55],[-24,-45],[11,-51],[-52,-133],[-132,-177],[128,-53],[-17,-57],[36,-37],[19,-72]],[[1276,2135],[-25,-9],[-139,78],[-19,-73],[-95,-11],[13,68],[-53,8],[-58,-62],[-42,5],[2,53],[-30,55],[-77,32],[-44,-3]],[[709,2276],[-46,10],[-46,88],[-60,-22],[-24,96],[-39,5],[-90,88],[-72,18],[-38,39]],[[294,2598],[26,11],[45,78],[10,52],[-36,72],[35,31]],[[374,2842],[102,-27],[51,17],[15,-42],[52,-20],[48,8],[81,-30],[100,66],[46,3],[124,66],[50,8],[76,-29],[22,37],[-57,31],[-24,41],[56,31],[-4,44],[24,32]],[[1136,3078],[128,-85],[57,-69],[52,-5],[0,-38]],[[3773,2254],[-49,-45],[-80,15],[-44,-11],[-123,38],[-40,-11],[-38,40],[-6,73],[15,39],[-55,81],[-78,19],[-56,-113],[-62,-11],[-39,66]],[[3118,2434],[-62,100],[-38,89],[-52,54],[-60,96],[-28,64],[-62,80]],[[2816,2917],[48,37],[0,68],[35,99],[50,62],[-8,71]],[[2941,3254],[61,-32],[33,-37],[101,-42],[29,-23],[129,-32],[92,-40],[-1,-50],[-31,-64],[33,-44],[-3,-48],[71,-51],[54,22],[51,-63],[88,-25],[91,-70],[33,-79],[42,-45],[38,-6],[12,-62],[-72,-89],[-35,-21],[-5,-53],[21,-46]],[[374,2842],[14,46],[-24,98],[52,91],[-17,59],[32,17],[-4,97],[40,13],[55,79],[11,47],[-35,79],[5,38],[76,103],[89,32],[58,95],[122,46],[90,-64],[36,39],[24,88],[47,-4],[33,-28],[155,31],[36,-19],[10,-42],[-95,-94],[26,-85],[-34,-55],[-35,-18],[-69,-118],[-47,-59],[-35,-9],[1,-45],[26,-85],[72,-95],[47,-42]],[[2511,2684],[81,23],[74,110],[88,65],[62,35]],[[3118,2434],[-33,-45],[-38,11],[20,63],[-50,50],[-32,-37],[-64,17],[-66,-36],[-35,36],[-80,5],[-124,75]],[[2941,3254],[33,38],[10,71],[-42,101],[75,131]],[[3017,3595],[58,-58],[64,-46],[143,-38],[74,-33],[114,-88],[44,-6],[34,-31],[44,40],[44,5],[58,-44],[59,-27],[13,-66],[28,4],[72,78]],[[3866,3285],[36,-13],[60,-76],[59,3],[12,-82],[458,-384],[33,-74]],[[4524,2659],[24,-75],[-38,-76],[8,-42],[-12,-80],[44,-106],[-6,-54],[15,-51],[-37,-51],[12,-61],[-22,-111],[-21,-12]],[[4491,1940],[-88,-10],[-51,21],[-113,93],[-32,8],[-48,-52],[-127,-2],[-11,23],[-79,2]],[[3942,2023],[-36,83],[-24,3],[-109,145]],[[1226,1475],[-154,17],[4,31],[-64,28],[-54,80],[-35,89],[-60,72],[-55,40],[-99,39],[-3,32],[-66,19],[-13,7],[6,23]],[[633,1952],[57,66],[-30,70],[20,24],[-17,52],[30,51],[61,-10],[-45,71]],[[1276,2135],[27,-44],[-6,-33]],[[633,1952],[-15,-17],[19,-17],[4,-33],[-40,-70],[-157,14],[-64,-45],[-6,-53],[-30,-8],[-96,81],[-62,24],[9,64],[-49,6],[-8,-44],[-46,-21]],[[92,1833],[-28,54],[4,67],[72,51],[-1,45],[66,82],[39,119],[-53,24],[10,100],[-66,38],[-41,43],[44,70],[93,3],[9,52],[54,17]],[[1328,535],[17,-35],[-60,-112],[15,-90],[-68,-67],[-88,-8],[13,-38],[-86,-124],[-57,2],[-65,-63],[-82,10],[33,81],[26,130],[-33,20],[-41,112],[-70,55],[-34,-4],[-44,36],[-70,33],[-80,-85],[-62,7],[-2,77],[-34,18],[-17,-80],[-61,-11],[-36,19],[-30,-21],[23,-78],[-73,-170],[-143,0],[-32,54],[3,70],[-20,105],[11,25],[87,39],[3,44],[-28,34],[-25,178],[-75,72],[-35,-1],[-8,92],[40,1],[78,70],[-28,62],[42,40],[-12,73],[32,55],[-35,64],[1,81],[81,152],[20,81],[-68,89],[-52,6],[20,76],[-32,53],[5,69]],[[1537,2746],[66,-18],[17,73],[69,-23],[-4,-26],[91,-42],[111,-29]],[[1492,2776],[-2,-13],[-5,-4]],[[1373,2881],[83,-58],[100,-25],[6,-34],[-70,12]],[[2515,2426],[-1,-44]],[[2514,2382],[-49,-95],[-41,7],[14,47],[-32,39]],[[3942,2023],[-19,-56],[-39,-47],[-4,-50],[-26,-31],[8,-39],[-67,-41],[-50,4],[-55,36],[-79,-18],[-68,62],[-43,3],[-54,-37],[-80,-3],[-5,38],[-63,18],[-58,-10],[-75,-35],[-76,13],[-18,63],[-46,52],[-66,12],[-113,85],[-52,76],[-37,1],[-79,141],[-44,5],[-67,122],[-53,-5]],[[4491,1940],[-13,-66],[42,-106],[-24,-38],[-105,-1],[-54,-53],[-117,-84],[8,-47],[-23,-88],[90,-6],[-2,-56]],[[3017,3595],[45,49],[111,41],[140,87],[91,25],[150,14]],[[3554,3811],[-11,-84],[-42,-27],[-20,-85],[22,-95],[124,10],[-16,-98],[55,-53],[73,-12],[39,35],[88,-117]],[[3554,3811],[146,17],[69,61],[101,7],[107,19],[76,-60],[68,-85],[97,-59],[109,6],[10,-51],[33,-46],[-12,-106],[-24,-20],[2,-58],[54,-88],[33,-23],[14,-103],[-10,-57],[7,-76],[-11,-43],[59,-47],[43,-103],[-21,-94],[63,-64],[-43,-79]]],"transform":{"scale":[0.0002176323490863985,0.00017979963873199006],"translate":[136.7694598049261,36.275882360382695]},"objects":{"municipalities":{"type":"GeometryCollection","geometries":[{"arcs":[[0,1,2,3,4,5,6,7,8]],"type":"Polygon","properties":{"code5":"16201","name":"富山市"}},{"arcs":[[9,10,11,12,13,14,15,16]],"type":"Polygon","properties":{"code5":"16202","name":"高岡市"}},{"arcs":[[17,18,19,20]],"type":"Polygon","properties":{"code5":"16204","name":"魚津市"}},{"arcs":[[-16,21]],"type":"Polygon","properties":{"code5":"16205","name":"氷見市"}},{"arcs":[[-1,22,-19,23]],"type":"Polygon","properties":{"code5":"16206","name":"滑川市"}},{"arcs":[[-21,24,25,26,27,28,29]],"type":"Polygon","properties":{"code5":"16207","name":"黒部市"}},{"arcs":[[-7,30,31,-13,32]],"type":"Polygon","properties":{"code5":"16208","name":"砺波市"}},{"arcs":[[-14,-32,33,34]],"type":"Polygon","properties":{"code5":"16209","name":"小矢部市"}},{"arcs":[[-6,35,-34,-31]],"type":"Polygon","properties":{"code5":"16210","name":"南砺市"}},{"arcs":[[[-8,-33,-12,36]],[[37,-10,38]]],"type":"MultiPolygon","properties":{"code5":"16211","name":"射水市"}},{"arcs":[[-3,39,40]],"type":"Polygon","properties":{"code5":"16321","name":"舟橋村"}},{"arcs":[[-2,-24,-18,-30,41,-40]],"type":"Polygon","properties":{"code5":"16322","name":"上市町"}},{"arcs":[[-4,-41,-42,-29,42]],"type":"Polygon","properties":{"code5":"16323","name":"立山町"}},{"arcs":[[-26,43,44]],"type":"Polygon","properties":{"code5":"16342","name":"入善町"}},{"arcs":[[-27,-45,45]],"type":"Polygon","properties":{"code5":"16343","name":"朝日町"}}]}}}