{"type":"Topology","arcs":[[[2687,4556],[-141,-138],[17,-45],[-44,-197],[32,-15],[-38,-56],[-95,-94],[20,-58],[-62,-136],[-61,-58],[-6,-147],[105,-64],[25,-41]],[[2439,3507],[42,-82],[-26,-41],[-52,-12],[67,-131],[22,-11],[8,-64],[24,-53],[-121,-61],[-67,-44],[1,-105],[52,-5],[4,-88],[-108,-59],[-1,-36],[89,-72],[69,-16],[39,-121],[-41,-53],[48,-26],[35,-61],[46,-9],[11,-46],[46,-36],[1,-29]],[[2627,2246],[-77,-19],[-87,-71],[-105,17]],[[2358,2173],[-36,47],[-7,42]],[[2315,2262],[-32,63],[7,56],[36,54],[-70,39]],[[2256,2474],[1,40],[-49,64],[3,29],[-41,44],[-49,25],[15,54],[-18,89],[-30,25],[-2,53]],[[2086,2897],[-32,33],[17,54],[-21,54],[33,34],[-55,47],[-26,-29]],[[2002,3090],[-44,113],[33,61],[-2,40],[-55,100],[-8,77],[57,42],[41,-5],[35,83],[66,44],[27,47],[-23,44],[-43,13],[7,65],[-69,8],[-13,83],[36,98],[21,23],[-13,55]],[[2055,4081],[7,42],[37,33],[2,103],[133,-2],[26,21],[31,84],[23,26],[52,4],[30,73],[64,13],[6,56]],[[2466,4534],[38,18],[33,-21],[46,31],[104,-6]],[[3568,2351],[23,-32],[62,-11],[19,-37],[-20,-59],[38,-62],[87,24]],[[3777,2174],[8,-41],[41,-37],[9,-50]],[[3835,2046],[-112,-91],[-84,-14],[-79,48],[-24,-95],[-35,-35]],[[3501,1859],[22,-37],[-6,-73],[136,-64],[-29,-111],[197,-120],[-7,-22]],[[3814,1432],[-65,2],[-94,-42],[-67,-63],[-36,15],[-90,1],[-384,-89]],[[3078,1256],[-3,42],[18,156],[-33,186],[126,127]],[[3186,1767],[46,57],[29,129],[34,69],[7,75],[48,-6],[6,71],[74,108],[48,31],[22,51]],[[3500,2352],[68,-1]],[[3777,2174],[-13,113],[7,29],[60,29],[-68,45],[-33,44],[-52,28],[-31,-9],[-125,15]],[[3522,2468],[-49,48],[-11,92]],[[3462,2608],[66,22],[40,36],[108,15],[142,-61],[194,50],[33,42],[55,9],[92,74],[56,22],[19,-53],[38,-31],[2,-111],[36,-34],[63,12],[35,27],[94,18],[29,20],[48,-13]],[[4612,2652],[12,-48],[59,-65],[4,-48],[51,-30],[-18,-34]],[[4720,2427],[-67,-7],[-38,-27],[-7,-68],[-35,-28],[-101,-24],[-31,5],[-18,-79],[-22,-27],[-110,-65],[-43,-6],[-59,-61],[-1,-67],[-30,-103]],[[4158,1870],[-89,-49],[-37,0]],[[4032,1821],[-39,25],[-57,110],[-10,53],[-32,40],[-59,-3]],[[2687,4556],[84,-26],[38,75],[17,80],[34,13],[90,89],[118,-3],[112,-49],[52,5],[41,-21],[64,8],[67,-46],[44,-136],[64,-14],[29,-49]],[[3541,4482],[-53,-70],[-7,-68],[-74,-38],[-28,-64],[8,-112],[-10,-92],[14,-45],[-72,15],[-185,0],[-9,-33],[35,-43],[-20,-85],[-103,-71],[-16,-72],[-56,-53],[5,-41],[-52,-98],[63,-25],[-19,-87],[31,-60],[-87,-70],[38,-28],[5,-48]],[[2949,3194],[-161,-15],[-73,12],[34,77],[-90,26],[-77,40],[29,20],[-172,153]],[[3462,2608],[-35,-15]],[[3427,2593],[-36,32],[-11,69],[-67,7],[7,43],[-40,78]],[[3280,2822],[69,28],[12,38],[68,12],[56,38],[63,-8],[29,48],[55,-3],[27,43],[89,86],[-1,76],[-19,77],[31,60],[41,43],[-26,86],[-1,81],[27,101]],[[3800,3628],[44,25],[80,14],[26,21],[111,16],[53,-17],[43,8],[108,-42],[16,-31],[115,-54],[30,-56]],[[4426,3512],[-19,-49],[53,-29],[30,-71],[64,-45],[-12,-43],[43,-35],[111,-20],[30,-86],[-65,-106],[42,-31],[22,-103],[107,-30],[85,31],[24,-7],[12,-188],[-146,-13],[-80,-25],[-33,22],[-82,-32]],[[1788,3882],[76,7],[31,-21],[-7,-88],[-41,-97],[3,-44],[-55,-64],[-32,-4],[-42,-45],[-79,27],[-50,-102],[38,-82],[48,-69],[33,-17]],[[1711,3283],[-40,-25],[-60,-2],[-119,-44],[-91,-21],[-51,17],[-73,57],[-60,-16],[-149,78],[-83,0],[-14,-51],[-97,-24],[-84,28],[-33,29],[-7,44],[-36,70],[-65,76]],[[649,3499],[16,17],[70,-20],[39,6],[78,67],[9,42],[94,118],[132,54],[-49,70],[45,26],[144,24],[17,-44],[40,6],[46,45],[47,-37],[47,-99],[77,-108],[51,67],[103,43],[62,60],[8,31],[63,15]],[[1711,3283],[63,-38],[28,-116],[14,-126],[23,0]],[[1839,3003],[7,-64]],[[1846,2939],[-22,-6],[-1,-70],[20,-79],[-29,-86],[-27,-19],[-25,-65]],[[1762,2614],[-94,-61]],[[1668,2553],[-23,57],[-51,36],[-83,19],[-71,-19],[-93,24],[-3,38],[-71,42],[-38,-27],[-103,7],[-30,25],[-48,-55],[-115,24]],[[939,2724],[-55,7],[-17,83],[-43,36],[-79,-50],[-30,34],[24,44],[11,73],[-19,42],[24,30],[-27,46],[-145,17],[-42,-17],[-128,12],[-74,31],[-73,-28]],[[266,3084],[-50,-10],[-64,73],[-14,55],[-68,52],[3,150],[-15,41],[-58,60],[6,46],[87,56],[179,168]],[[272,3775],[27,-48],[0,-49],[43,-40],[119,-30],[10,-32],[127,-80],[51,3]],[[2055,4081],[-56,9],[-52,32],[-84,-55],[-17,-90],[-58,-95]],[[272,3775],[40,30],[-25,38],[-42,14],[-108,109],[-77,11],[-36,43],[15,58],[100,102],[-12,44],[18,58],[33,35],[79,132],[32,121],[32,41],[58,23],[89,-65],[47,-71],[60,-36],[53,50],[82,131],[93,96],[40,78],[59,73],[17,101],[39,43],[45,20],[10,74],[48,57],[63,-1],[50,-32],[187,-47],[107,-51],[41,-37],[21,-45],[-38,-59],[-17,-74],[54,-94],[35,2],[63,-47],[59,16],[42,-15],[28,37],[0,58],[45,7],[16,43],[88,-1],[45,-27],[89,2],[48,27],[59,-11],[68,-38],[25,36],[64,8],[56,-54],[55,-8],[-29,-58],[-2,-137],[22,-30],[61,-21]],[[2002,3090],[-61,-58],[5,-56],[-107,27]],[[2949,3194],[31,-1],[-1,-113],[26,15],[32,-55],[81,-18],[9,-36],[94,-68],[57,-7],[2,-89]],[[3427,2593],[-9,-60],[-50,-14],[-97,4],[-62,-35],[-123,-45],[-31,-24],[-182,-61],[-55,-37],[-44,-53],[-147,-22]],[[4426,3512],[113,29],[111,142]],[[4650,3683],[60,-108],[91,-69],[186,-103],[54,1],[59,-32],[75,3],[119,-92],[25,-31],[-79,-110],[54,-84],[-18,-51],[-1,-64],[57,-54],[-33,-20],[29,-40],[-21,-77],[-44,-49],[36,-38],[3,-120],[-92,-83]],[[5210,2462],[-128,-39],[-61,32],[-75,-23],[-43,13],[-174,-27],[-9,9]],[[3541,4482],[83,21],[22,-22],[73,33],[63,-18],[34,-38]],[[3816,4458],[-1,-75],[16,-38],[-24,-60],[-51,-25],[-4,-29],[49,-49],[-18,-61],[34,-16],[28,-137],[-28,-23],[-256,-18],[13,-74],[48,-65],[97,-40],[39,-51]],[[3758,3697],[10,-49],[32,-20]],[[2256,2474],[-58,-9],[-2,-28],[-79,4],[-121,55],[29,144],[-47,34],[-55,-35],[-161,-25]],[[1846,2939],[29,-1],[24,-84],[67,-4],[6,47],[57,12],[57,-12]],[[2315,2262],[-148,-10],[-64,-17],[-118,28],[-54,-26],[-13,-38],[-106,6],[-53,-39],[20,-32],[-117,-92],[-77,-3],[-11,-41],[-81,-62],[-2,64],[41,51],[-3,40],[-38,45]],[[1491,2136],[90,50],[26,34],[-12,53],[-80,26],[6,76],[67,0],[6,40],[49,68],[25,70]],[[939,2724],[-89,-71],[-44,-117],[8,-80],[34,21],[129,-25],[-10,-171],[24,-28],[17,-84],[41,-33],[8,-71],[39,-12],[43,-52]],[[1139,2001],[-30,-75],[5,-117],[83,-58],[12,-33],[59,-48],[12,-35],[70,-35],[-27,-120],[-72,-10],[-61,-49],[8,-87],[-8,-62],[-34,-63],[-89,-43],[-117,63],[-45,-56],[3,-58],[-42,-94]],[[866,1021],[-63,5],[-120,-68],[-36,-1],[-63,-79],[-49,20],[-37,45],[-67,14],[-51,97],[46,45],[-34,128],[2,33],[-108,50],[46,109],[32,19],[3,56],[65,49],[8,153],[-23,87],[-40,17],[-22,45],[11,60],[40,16],[25,65],[13,193],[49,53],[-36,84],[-29,24],[15,78],[-3,65],[-42,17],[-42,51],[4,37],[-27,47],[-5,66],[23,32],[-17,87],[-27,7],[2,104],[-43,32],[22,83],[-22,38]],[[2358,2173],[-44,-61],[8,-78],[-74,-58],[7,-174],[-11,-11]],[[2244,1791],[-25,-31],[-103,-44],[-19,-52],[-56,-60],[-77,-48],[-4,-47],[26,-79],[-43,-70]],[[1943,1360],[-44,-7],[-71,-67],[0,-35],[-65,-23],[-15,-51],[-64,-36],[-14,-45],[16,-99],[-10,-64],[-30,-24],[-126,-7],[-17,53],[-117,-14],[-49,-38],[-33,11],[-51,-63],[-119,-30],[-62,25]],[[1072,846],[-10,35],[-73,84],[-43,-16],[-37,17],[-43,55]],[[1139,2001],[48,24],[22,41],[38,4],[68,54],[66,16],[84,-35],[26,31]],[[1943,1360],[14,-18],[0,-198],[23,-29],[2,-67],[-54,-57],[-75,-53],[23,-114],[31,-81],[-8,-82],[-34,-55],[36,-44],[35,-148],[30,-59],[-27,-43],[32,-102],[-26,-22],[-62,7],[-29,-62],[-34,-19],[-28,-61],[-54,-53],[-41,37],[-129,35],[-24,-9],[-145,14],[-66,112],[-65,34],[-44,-18],[-30,49],[-20,78],[6,32],[-31,138],[-45,50],[-62,105],[-2,130],[32,59]],[[5210,2462],[11,-73],[-55,-74],[-54,-33],[-48,-63],[-97,-8],[-47,-22],[-79,14],[-11,-66],[-39,-54],[-36,-15],[-17,-50],[-71,-7],[-38,-34],[-108,-6],[-56,-64],[-109,-10],[-123,-86]],[[4233,1811],[-75,59]],[[3500,2352],[-21,84],[43,32]],[[4032,1821],[-46,-51],[-161,-37],[-35,43],[36,42],[-82,43],[-14,-70],[-75,-34],[-154,102]],[[4233,1811],[-55,-72],[18,-73],[-28,-72],[-42,-25],[-10,-69],[-76,-28],[-83,-64],[-48,-3],[-33,-27],[-62,54]],[[3078,1256],[-34,15],[-136,-16],[-10,-20],[-101,-12],[-53,226],[-43,36],[-138,0]],[[2563,1485],[26,15],[45,105],[73,23],[-31,74],[1,70],[-26,45],[57,182],[47,40],[118,23],[69,42],[58,8],[81,-45],[-30,-81],[-15,-77],[47,-5],[73,-37],[30,-100]],[[2563,1485],[-167,-33],[-64,249],[-51,32],[-37,58]],[[3758,3697],[38,8],[86,82],[9,44],[83,35],[30,-18],[135,34],[69,68],[96,-63],[81,-12],[108,6]],[[4493,3881],[49,-90],[71,-33],[37,-75]],[[3816,4458],[37,-10],[58,-66],[33,1],[36,-47],[40,45],[66,38],[86,-24],[105,35],[12,-72],[83,-89],[40,12],[6,-173],[37,-101],[53,-44],[-15,-82]]],"transform":{"scale":[0.0001787056808282845,0.00015486908362886937],"translate":[138.18085608304182,35.16838444128899]},"objects":{"municipalities":{"type":"GeometryCollection","geometries":[{"arcs":[[0,1,2,3,4,5,6,7,8,9]],"type":"Polygon","properties":{"code5":"19201","name":"甲府市"}},{"arcs":[[10,11,12,13,14,15,16,17]],"type":"Polygon","properties":{"code5":"19202","name":"富士吉田市"}},{"arcs":[[-12,18,19,20,21,22,23,24]],"type":"Polygon","properties":{"code5":"19204","name":"都留市"}},{"arcs":[[-1,25,26,27]],"type":"Polygon","properties":{"code5":"19205","name":"山梨市"}},{"arcs":[[-21,28,29,30,31,32]],"type":"Polygon","properties":{"code5":"19206","name":"大月市"}},{"arcs":[[33,34,35]],"type":"Polygon","properties":{"code5":"19207","name":"韮崎市"}},{"arcs":[[-35,36,37,38,39,40,41,42,43]],"type":"Polygon","properties":{"code5":"19208","name":"南アルプス市"}},{"arcs":[[-9,44,-36,-44,45]],"type":"Polygon","properties":{"code5":"19209","name":"北杜市"}},{"arcs":[[-8,46,-37,-34,-45]],"type":"Polygon","properties":{"code5":"19210","name":"甲斐市"}},{"arcs":[[-2,-28,47,-30,48]],"type":"Polygon","properties":{"code5":"19211","name":"笛吹市"}},{"arcs":[[-22,-33,49,50,51]],"type":"Polygon","properties":{"code5":"19212","name":"上野原市"}},{"arcs":[[-27,52,53,54,-31,-48]],"type":"Polygon","properties":{"code5":"19213","name":"甲州市"}},{"arcs":[[-6,55,-39,56]],"type":"Polygon","properties":{"code5":"19214","name":"中央市"}},{"arcs":[[-5,57,58,-40,-56]],"type":"Polygon","properties":{"code5":"19346","name":"市川三郷町"}},{"arcs":[[-42,59,60,61]],"type":"Polygon","properties":{"code5":"19364","name":"早川町"}},{"arcs":[[-4,62,63,64,65,-61,66,-58]],"type":"Polygon","properties":{"code5":"19365","name":"身延町"}},{"arcs":[[-65,67]],"type":"Polygon","properties":{"code5":"19366","name":"南部町"}},{"arcs":[[-41,-59,-67,-60]],"type":"Polygon","properties":{"code5":"19368","name":"富士川町"}},{"arcs":[[-7,-57,-38,-47]],"type":"Polygon","properties":{"code5":"19384","name":"昭和町"}},{"arcs":[[-23,-52,68,69]],"type":"Polygon","properties":{"code5":"19422","name":"道志村"}},{"arcs":[[-11,-18,70,-19]],"type":"Polygon","properties":{"code5":"19423","name":"西桂町"}},{"arcs":[[-13,-25,71]],"type":"Polygon","properties":{"code5":"19424","name":"忍野村"}},{"arcs":[[-14,-72,-24,-70,72]],"type":"Polygon","properties":{"code5":"19425","name":"山中湖村"}},{"arcs":[[-16,73,74]],"type":"Polygon","properties":{"code5":"19429","name":"鳴沢村"}},{"arcs":[[-3,-49,-29,-20,-71,-17,-75,75,-63]],"type":"Polygon","properties":{"code5":"19430","name":"富士河口湖町"}},{"arcs":[[-32,-55,76,77,-50]],"type":"Polygon","properties":{"code5":"19442","name":"小菅村"}},{"arcs":[[-54,78,-77]],"type":"Polygon","properties":{"code5":"19443","name":"丹波山村"}}]}}}