{"type":"Topology","arcs":[[[2708,4991],[9,2]],[[2717,4993],[18,-66],[-26,-63],[11,-45]],[[2720,4819],[-31,8],[-62,-158],[-37,-31],[-51,20],[-27,-22],[-55,7],[-26,-106],[-64,10],[-28,-55],[11,-70]],[[2350,4422],[-12,-56],[-58,-1],[-23,-32],[-47,78],[-20,-29],[-53,-5],[-41,74],[-35,10],[-41,-23]],[[2020,4438],[-43,74],[-10,55],[-52,-14],[-37,52],[-56,-1],[-33,5],[-137,-16]],[[1652,4593],[44,29],[6,184],[-43,-11],[-74,16],[-52,-21],[6,-57],[-108,-240],[-62,1],[-38,24],[24,47],[31,130],[-19,47],[-173,-28]],[[1194,4714],[-115,125],[-94,33]],[[985,4872],[1,46],[-48,98],[17,92],[27,-1],[-2,59],[22,40],[6,147]],[[1008,5353],[62,-5],[4,57],[-53,5],[-7,67],[47,65]],[[1061,5542],[82,-33],[-9,-54],[101,-16],[24,72],[17,43],[44,43]],[[1320,5597],[53,61]],[[1373,5658],[65,72],[74,33],[31,22],[71,124],[-4,20],[-79,24],[-21,-47],[-42,10],[34,50],[-33,18],[-31,55],[12,89]],[[1450,6128],[101,4],[30,-56],[190,92],[30,53]],[[1801,6221],[44,-1],[16,-37],[74,18],[50,40]],[[1985,6241],[18,-89],[-28,-19],[48,-76],[63,12],[-25,-76],[152,12],[62,-6],[74,15],[60,64],[59,14],[6,105],[26,28],[95,-4],[42,40],[22,65],[51,7],[70,62],[60,-5],[104,17]],[[2944,6407],[24,-23],[12,-69],[38,-39]],[[3018,6276],[-61,-30],[-21,-50],[-43,35],[-36,-32],[-153,-64],[-66,-95],[-32,-18],[-41,-94],[50,-26],[41,-51],[-10,-57],[55,-13],[6,46],[97,-63]],[[2804,5764],[-95,-10],[45,-53],[8,-54],[-22,-52],[26,-48],[-35,-52],[32,-66]],[[2763,5429],[-38,-28],[-29,-58],[38,-68],[-49,-32],[-54,4],[-14,-53],[-38,-26],[87,-107],[42,-70]],[[1378,4488],[49,-7],[-23,-108],[-33,28],[-28,-49],[31,-46],[-20,-26],[-59,168],[21,40],[62,0]],[[1607,4637],[30,-24],[-54,-163],[-21,-21],[-55,2],[39,122],[-6,48],[33,36],[34,0]],[[5027,1598],[-1,-144],[-82,18],[48,127],[35,-1]],[[6425,2334],[22,-32],[-52,-37],[-11,-39],[-51,-33],[57,-94],[-21,-55],[10,-85],[-84,-43],[-42,-70],[6,-171],[-26,-63],[50,-88],[-15,-61],[22,-29],[9,-104],[37,-27],[34,-137],[-29,-142],[-26,-33],[2,-92],[-385,-69],[-154,-40],[-231,-52],[-345,-88]],[[5202,650],[-17,126],[-118,-4],[-135,38],[32,89],[-28,55]],[[4936,954],[68,81],[-59,33],[25,40],[81,-11],[-15,47],[-63,-5],[-26,24],[1,211],[164,1],[0,-33],[66,-1],[1,36],[83,39],[-13,28],[-66,-33],[-144,40],[6,361],[36,-2],[41,89],[-42,47],[-49,-47],[-83,-16],[-17,54]],[[4931,1937],[107,38],[70,76],[11,-66],[66,-30],[79,59],[-3,-80],[112,63],[15,-13],[88,25],[78,81],[20,-22],[69,-19],[33,10],[20,65],[59,19],[64,41],[83,-10],[12,55],[46,4],[-4,47],[34,32],[-43,31],[-52,-27],[-58,128],[22,42],[74,8],[22,34],[60,-30],[76,32],[37,51],[6,54]],[[6134,2635],[83,24],[47,-17],[27,-36],[-19,-67],[63,-51],[12,-99],[48,-47],[30,-8]],[[5542,3875],[43,-74],[75,-8],[41,-30],[-41,-28],[-66,-93],[83,-63],[43,-10],[-46,-63],[10,-27],[72,-60],[-24,-43],[22,-67],[-10,-27],[47,-39],[30,-73],[-4,-56]],[[5817,3114],[-69,-23],[-62,-49],[7,-76],[-82,-100],[-42,34],[-49,9],[-39,52],[-81,-37],[-46,-35],[-18,50],[-50,4],[-16,63],[-112,-67],[-177,-69],[-73,-57],[-51,80],[-42,-36],[-100,-10],[-33,35],[-47,2],[-40,-33],[-3,-58],[-51,-59],[1,-78]],[[4542,2656],[-135,54],[-50,-20],[-52,51],[-105,-23]],[[4200,2718],[-19,42],[9,54],[-55,27],[-24,37],[13,57],[46,16],[-40,62],[-57,17],[-22,43],[-124,41],[-76,-38],[-42,-50],[-28,-105],[-35,-22],[-123,34]],[[3623,2933],[-72,-9],[-87,-91],[-110,-9],[25,78],[50,6],[19,28],[-18,47],[14,39],[-52,39]],[[3392,3061],[-20,71],[42,76],[65,69],[-32,25],[-27,65],[-24,-12],[-22,80],[83,117],[2,47],[26,30],[-36,49],[75,71],[-46,42],[-21,90]],[[3457,3881],[51,-7],[53,79],[86,-11],[14,-50],[40,0],[96,38],[46,59],[-44,130],[-5,89],[83,81],[53,0],[65,-33],[55,65],[49,-38],[67,-11],[37,79],[40,-36],[61,23],[89,-8],[44,-97],[100,-7],[46,-107],[38,26],[30,80],[23,3],[71,-71],[52,-27],[54,8],[31,-20],[68,-5],[50,40],[33,-46],[70,18],[134,-76],[14,56],[56,-9],[124,11],[45,-131],[-11,-34],[77,-67]],[[1265,7307],[60,-98],[-2,-76],[21,-8],[10,-66],[88,-71],[-16,-49],[94,-46],[42,-37],[-5,-32],[43,-22]],[[1600,6802],[-35,-43],[-59,-10],[-6,-57],[-62,-101],[-57,0],[-40,-81],[53,-61]],[[1394,6449],[-58,-46],[0,-76]],[[1336,6327],[-50,-10]],[[1286,6317],[-28,85],[-30,20],[-3,70],[-47,61],[-120,5],[-30,-50],[-96,-24],[-38,-48],[-58,-1],[-23,-27],[-114,32],[-9,38],[-69,-14],[-7,-22],[-77,-55],[-31,95],[-115,33],[-37,-2],[-94,38]],[[260,6551],[45,67],[70,57],[69,103],[64,153],[105,193],[70,194],[70,91],[59,26],[145,-12],[-12,-46],[88,-31],[101,-8],[131,-31]],[[2944,6407],[42,48],[98,-22],[96,108],[8,42],[113,110]],[[3301,6693],[11,61],[26,42],[139,-35],[98,-40],[110,-130],[53,-5],[49,27],[51,1],[87,-114],[-2,-91],[101,-74]],[[4024,6335],[-41,-24],[-29,-52],[-22,-77],[26,-73],[-59,-100],[-5,-64],[-34,-53],[-58,11],[-139,-91],[1,-31],[-64,-15],[-42,-33],[-26,-57],[-38,27],[-93,4],[-24,-60],[-53,20],[-28,-20]],[[3296,5647],[-62,37],[-19,61],[-28,-10],[-73,25],[-40,42],[-61,-45],[-73,34]],[[2940,5791],[-6,75],[62,50],[40,4],[47,54],[-64,17],[-21,55],[66,160],[-46,70]],[[2361,3325],[-21,-192],[-25,-99],[-94,-189],[54,-43],[-11,-23],[-144,64],[-33,-34],[47,-29],[-2,-46],[-39,-61]],[[2093,2673],[-110,46],[-22,22],[-66,-14],[-76,22],[-84,39],[-81,-15],[-66,46]],[[1588,2819],[-6,43],[18,49],[-2,77],[-50,7],[-37,29],[29,91],[80,78]],[[1620,3193],[55,-68],[56,1],[41,30],[112,-32],[44,22],[102,1],[9,94],[28,32],[-11,38],[19,52],[46,52]],[[2121,3415],[74,-35],[51,19],[49,-35],[-9,-32],[75,-7]],[[1985,6241],[37,38],[-6,101]],[[2016,6380],[32,34],[-30,35],[1,82],[114,38],[-22,92],[85,-33],[23,-26],[66,30],[21,47],[36,-37],[100,-25],[29,-19],[95,46],[47,8],[46,66],[-3,41],[34,81],[-9,42],[16,59],[49,75],[118,47],[48,88]],[[2912,7151],[1,1]],[[2913,7152],[28,-48],[92,44],[50,-32],[37,-87],[-69,-54],[24,-86],[39,-46],[59,1],[12,-137],[83,6],[33,-20]],[[4931,1937],[-24,79],[95,33],[-38,78],[-98,56]],[[4866,2183],[-68,124],[96,25],[-47,64],[-140,19],[-23,-13],[-71,45],[-39,68],[-30,92],[-2,49]],[[5817,3114],[20,-58],[43,-36],[111,-32],[3,-39],[61,-86],[37,-34],[31,-79],[-38,-17],[-19,-49],[68,-49]],[[4871,2176],[73,-46],[26,-56],[-78,-8],[-21,110]],[[884,5424],[-22,-55],[-87,-21],[12,-63],[-12,-38]],[[775,5247],[-64,-38],[-23,8],[-47,142],[-55,64],[-111,105],[-43,16],[-130,-44],[-23,145],[15,97],[87,-9],[16,-24],[64,32],[-4,-48],[61,-28],[67,3],[11,-44],[48,19],[0,65],[29,6],[45,124]],[[718,5838],[65,-15],[58,-129],[4,-114],[52,0],[-29,-109],[13,-31]],[[881,5440],[3,-16]],[[2220,2342],[-89,-71],[3,45],[69,53],[17,-27]],[[2837,2930],[-30,-41],[-92,-74],[-107,-55],[-58,-59],[-224,-424]],[[2326,2277],[-49,19],[-60,99],[-19,142],[77,18],[4,26],[-73,17],[104,159],[48,10],[-33,44],[52,161],[2,119]],[[2379,3091],[43,2],[105,67],[39,0],[115,111],[60,50]],[[2741,3321],[59,51],[15,-33],[-9,-57],[18,-60],[-125,-94],[-42,-59],[23,-100],[46,2],[46,-36],[65,-5]],[[3084,4500],[-30,1],[-9,-63],[-49,-19],[-58,-123],[-28,-23],[24,-45],[-72,-62]],[[2862,4166],[-47,-29],[22,-39],[-49,-69],[-55,-17],[-35,-72],[84,-112],[68,-4],[59,-44]],[[2909,3780],[18,-64],[-43,-51],[33,-74],[-34,-13],[-52,35],[-51,-24],[-145,-121]],[[2635,3468],[-80,41],[-2,24],[-65,31],[-65,-15]],[[2423,3549],[-6,152],[-28,113],[21,80],[-4,82]],[[2406,3976],[56,70],[-5,62],[24,63],[56,12],[29,32]],[[2566,4215],[29,61],[92,59],[63,91],[66,35],[69,88],[1,50]],[[2886,4599],[17,13]],[[2903,4612],[43,-47],[42,25],[99,-50],[-3,-40]],[[3457,3881],[-33,100],[-89,63],[-49,-13],[-72,23]],[[3214,4054],[-58,-17],[-37,92],[-38,-50],[-47,-28],[-27,28],[-82,17],[-24,53],[-39,17]],[[3084,4500],[117,11],[48,29],[48,-20],[50,45],[-1,77],[22,106],[63,101],[-11,25],[35,67],[37,100],[71,44],[-15,33],[-59,19],[-44,60],[-78,2],[-9,41],[-48,81]],[[3310,5321],[2,102],[-12,15]],[[3300,5438],[-11,29],[20,126],[-13,54]],[[4024,6335],[59,7],[23,-17],[88,77],[78,2],[25,-32],[147,113],[50,0],[28,40],[56,25],[-11,31],[24,61],[90,34],[68,-11],[120,10],[42,17],[136,-59],[34,-36],[147,-63],[14,-24],[-51,-62],[33,-63],[49,-7],[89,36],[180,-21],[13,-65],[-28,-48],[39,-62],[99,14],[62,-63],[61,52],[63,-127],[42,-37],[34,11],[57,90],[65,13],[23,51],[68,5],[31,52],[26,-11],[55,75],[60,38],[95,15],[6,48],[58,-12],[73,66],[36,110],[20,25],[62,-1],[19,-19],[90,-15],[67,34],[46,-2],[34,57],[35,0],[30,-65],[-115,-100],[12,-74],[-41,-44],[-29,-2],[-19,-74],[34,-84],[53,-53],[42,-18],[46,-71],[30,-11],[25,-58],[24,-9],[-13,-71],[-2,-89],[15,-38]],[[7045,5826],[19,-77],[-46,-44],[-67,24],[-123,9],[-35,-16],[-66,28],[-146,-115],[-50,67],[-97,-5],[-5,45],[25,57],[-55,16],[-66,-33],[-36,-77],[6,-56],[-67,-91],[-96,-92],[98,-94],[-51,-85],[-39,-20],[-45,-52],[-45,-4],[-61,29],[7,-53],[30,-44],[-6,-57],[-40,-90],[-70,-18],[-32,-36],[5,-80],[35,-42],[-7,-41],[71,-55],[28,-87]],[[6018,4637],[-9,-78],[-42,-13],[-63,-95],[-12,-137],[41,-68],[-75,-63],[-3,-114],[-70,-18],[-69,27],[-80,-64],[-33,-67],[4,-33],[-65,-39]],[[3392,3061],[-16,-35],[-63,-59],[-65,-35],[-192,-14],[-14,106],[30,55],[5,63],[-34,10],[-23,-56],[-91,-68],[-16,-56],[-46,14],[-30,-56]],[[2741,3321],[-57,-6],[-37,42],[2,81],[-14,30]],[[2909,3780],[113,-7],[28,45],[65,13],[-18,106],[69,30],[46,46],[2,41]],[[3623,2933],[15,-76],[-38,0],[17,-71],[-34,-49],[-78,10],[-58,-8],[-24,-47],[24,-46],[56,-9],[36,-52],[-43,-71],[-64,73],[-66,-18],[-23,-85],[120,-38],[53,54],[30,-18],[56,-77],[87,-57],[11,-46],[60,15],[64,-94]],[[3824,2223],[52,-20],[-3,-187],[-12,-50]],[[3861,1966],[-44,-7],[-79,-52],[-52,64],[-90,5],[-15,-62],[-56,8],[-58,67],[-80,-23],[-68,-38],[-46,-53],[-35,-16],[-45,70],[-48,32],[-51,-5],[-54,-36],[-108,-32],[-62,-35],[-122,22],[-64,75],[7,41],[-48,25],[5,29],[-48,28],[-45,53],[-25,111],[-50,-5],[-154,45]],[[2871,1447],[107,-53],[-35,-72],[-26,14],[-21,56],[-90,-33],[29,80],[36,8]],[[4866,2183],[-27,-1],[-13,-57],[-104,29],[-77,-27],[-44,11],[-47,-14],[-36,14],[-26,46],[-208,57],[-103,-133],[-86,79],[-43,-59],[-19,-113],[-29,-115],[19,-46],[-88,-94],[-66,-4],[31,48],[5,51],[29,33],[-26,52],[-47,26]],[[3824,2223],[52,62],[67,43],[8,-30],[53,0],[99,21],[-61,71],[-1,25],[49,58],[-39,62],[32,47],[66,31],[-9,44],[60,61]],[[2912,7151],[-36,-30],[-71,-23],[-152,10],[-5,-29],[-89,4],[-46,-20],[-44,5],[-30,-87],[-50,32],[-74,-23],[-35,-53],[-136,-31],[24,90],[-82,4],[-14,-17],[-86,-1],[-40,-20]],[[1946,6962],[25,53],[48,35],[42,130],[-8,33],[47,59],[-14,85]],[[2086,7357],[-36,84],[-35,-23],[-75,1],[-32,33],[49,42],[-14,29]],[[1943,7523],[37,19],[70,68],[206,108],[11,64],[-16,79],[26,56],[78,7],[87,27],[-8,-119],[-47,-51],[23,-46],[45,4],[32,-84],[60,-28],[23,-80],[93,2],[15,-38],[54,-25],[41,3],[44,-69],[86,-6],[37,-73],[-25,-104],[-2,-85]],[[1588,2819],[45,-96],[52,-28],[25,-90],[-26,-34],[-48,-12],[21,-97],[1,-120],[-17,-38],[34,-80]],[[1675,2224],[-64,-21],[-49,14],[-41,-16],[-40,14]],[[1481,2215],[37,225],[-41,118],[-35,52],[3,56],[-59,74],[-97,56],[30,18],[-32,59],[-32,-91],[-41,8],[-45,84],[34,79],[-30,88],[0,123],[16,146],[-11,47],[17,35]],[[1195,3392],[34,-26],[42,8],[95,-50],[61,2],[28,51],[44,37],[128,7]],[[1627,3421],[85,-23],[3,-25],[-65,-158],[-30,-22]],[[1046,2812],[74,-52],[41,-58],[21,-63],[9,-98],[-92,-19],[12,-62],[-56,0],[-4,54],[-46,230],[-16,49],[57,19]],[[1265,7307],[211,116],[29,40],[101,18],[64,28],[50,6]],[[1720,7515],[48,-60],[-22,-49],[3,-64],[-35,-56],[25,-66],[35,-51]],[[1774,7169],[-40,-55],[-42,-133],[-43,-27],[-4,-86],[35,-44]],[[1680,6824],[-27,-49]],[[1653,6775],[-53,27]],[[2016,6380],[-55,56],[-51,18],[-66,-34],[-49,-58]],[[1795,6362],[-39,1],[-9,69],[-109,13],[-11,22]],[[1627,6467],[33,80],[7,76],[-21,59],[7,93]],[[1680,6824],[65,19],[88,128],[113,-9]],[[1286,6317],[-60,-70],[6,-62],[67,-67],[-27,-67],[-68,-4],[-27,-62]],[[1177,5985],[-110,20],[-16,-39],[-95,-2],[-110,-50],[-138,-23]],[[708,5891],[-74,-10],[-79,-89],[-45,-10],[-102,54],[11,39],[42,42],[-17,110],[-83,31],[27,67],[-86,1],[-120,52],[-58,-16],[-4,-44],[-52,-12]],[[68,6106],[-15,125],[13,33],[86,77],[57,82],[51,128]],[[6018,4637],[38,-49],[-19,-76],[24,-41],[51,16],[32,-26],[65,6],[38,73],[97,24],[24,44],[84,-32],[36,-109],[23,-42],[-37,-72],[50,-19],[45,72],[46,7],[16,-49],[45,-3],[26,86],[65,53],[127,-21],[12,25],[72,25],[75,-7],[24,-29],[6,-52],[52,-125],[-4,-34],[39,-28],[34,-54],[4,-63],[33,-22],[125,27],[14,90],[21,44],[-13,64],[22,61],[44,19],[-23,51],[42,39],[31,55]],[[7504,4565],[56,-45],[4,-33],[51,-14],[20,-43],[60,-1],[32,-72],[62,-17],[48,20],[84,-42],[-1,-46],[77,-26],[35,-74],[-7,-72]],[[8025,4100],[-30,-106],[7,-46],[48,-38],[-64,-90],[57,-118],[-23,-22],[-63,14],[-48,-73],[-3,-65],[-52,-17],[-57,-90],[-38,27],[-87,-35],[-22,-60],[-44,-45],[15,-74],[-46,-63],[7,-63],[-58,-70],[7,-109],[-60,-71],[-99,-60],[-35,-35],[-55,-2],[-91,-25],[-18,-126],[-63,-85],[-100,4],[-70,16],[-105,-3],[-5,-23],[-94,-72],[-35,23],[-82,-30],[-47,-49],[-76,-8],[-62,-34],[-9,-43]],[[2020,4438],[-22,-36],[31,-41],[-46,-115],[53,-55],[-7,-42],[61,-43],[-51,-39],[-56,28],[-60,-69],[-13,-120],[15,-115],[33,-56]],[[1958,3735],[-56,-24],[-14,-35]],[[1888,3676],[-57,102],[-70,7],[-29,82],[-9,65],[-60,14],[-43,54],[-78,40]],[[1542,4040],[7,40],[-140,24],[13,50],[104,184],[20,20],[148,0],[0,31],[-78,18],[55,173],[-19,13]],[[2350,4422],[83,-59],[22,-45],[75,9],[36,-112]],[[2406,3976],[-66,-19],[-83,37],[-70,-68],[-33,15],[-18,-55],[-76,-21],[-32,-55],[-26,-5],[-44,-70]],[[1195,3392],[13,61],[-3,67],[20,79],[-65,47],[104,150],[96,157],[40,-7],[22,46],[-81,14],[45,55],[156,-21]],[[1888,3676],[28,-64]],[[1916,3612],[-42,-32],[-16,-57],[-31,-9],[-94,61],[-39,-34],[-33,13],[-49,-54],[15,-79]],[[1172,3595],[8,-73],[-22,-32],[-72,47],[60,90],[26,-32]],[[2940,5791],[-49,-33],[-87,6]],[[2379,3091],[2,73],[34,135],[-21,37],[16,102],[38,73],[-25,36]],[[2423,3547],[0,2]],[[1627,6467],[-49,-77],[-111,60],[-73,-1]],[[2720,4819],[39,-10],[7,-47],[63,-12],[40,-41],[17,-110]],[[2763,5429],[33,-13],[38,53],[57,22],[35,47],[91,0],[-4,-51],[131,-39],[51,5],[105,-15]],[[3310,5321],[-72,-51],[19,-65],[-48,-66]],[[3209,5139],[-24,-40],[-46,-16],[-60,17],[-43,-19],[-13,-38],[-54,9],[-57,-20],[-53,-49],[-50,37],[-70,-44],[-22,17]],[[5202,650],[-252,-74],[-268,-89],[-261,-95],[-144,-65],[-26,5],[-92,-30],[-109,-50],[-102,-23],[-121,-57],[-164,-62],[-84,-18],[-115,-10],[-176,34],[-204,-46],[-229,-66],[-60,19],[-102,-23],[-2,58],[39,-2],[35,58],[23,99],[92,181],[136,309],[68,75],[53,17],[50,-11],[67,-54],[-7,-60],[58,-36],[40,-2],[35,-39],[-35,-31],[135,-34],[133,62],[29,51],[-25,39],[-56,8],[13,44],[92,-21],[113,6],[93,17],[40,25],[86,93],[91,-2],[66,85],[43,12],[91,-33],[46,32],[27,91],[51,18],[-53,80],[99,66],[51,-9],[45,-79],[29,19],[40,92],[-40,68],[180,142],[125,-27],[-1,-323],[-75,-24],[-36,-59],[159,-47]],[[775,5247],[19,-87],[-27,-87]],[[767,5073],[-57,-20],[-32,12],[-27,49],[-67,74],[-70,-32],[-35,22],[-60,-18],[-61,45],[-19,-20],[-80,-21],[18,-63],[-42,-25]],[[235,5076],[-48,56],[-146,40],[-40,103],[24,119],[-3,73],[-22,124],[9,144],[84,104],[-17,225],[-8,42]],[[708,5891],[10,-53]],[[1373,5658],[-28,19],[12,60],[-16,46],[-47,34],[-9,68],[-106,-5],[-2,105]],[[1336,6327],[-31,-53],[34,-82],[56,5],[55,-69]],[[1795,6362],[19,-65],[-13,-76]],[[767,5073],[30,-35],[88,-32],[26,-50],[61,-59],[-1,-19]],[[971,4878],[-89,-52],[-30,-2],[-21,51],[-57,6],[2,-50],[-99,-17],[40,-54],[91,-31],[157,-151],[88,-50],[-1,-82]],[[1052,4446],[-75,-1],[0,-64],[29,0],[-4,-149],[-109,64],[-42,-20],[123,-106],[-21,-73],[-63,48],[-34,-13],[-67,58],[-92,126],[-58,143],[-13,83],[2,93],[-19,85],[-60,49],[-82,106],[-88,58],[-46,17],[-98,126]],[[2903,4612],[38,62],[44,143],[80,52],[41,-9],[55,28],[29,-11],[46,36],[-20,33],[30,172],[-37,21]],[[1320,5597],[-67,43],[-68,15],[-2,66],[-74,1],[-38,26],[0,-119],[-10,-87]],[[1008,5353],[-58,-3],[-53,20],[-16,70]],[[1774,7169],[78,73],[73,25],[85,-20],[43,4],[26,46],[7,60]],[[1720,7515],[123,-5],[100,13]],[[985,4872],[-14,6]],[[1194,4714],[-10,-111],[77,-41],[1,-41],[-28,-88],[-100,0],[-82,13]],[[1240,4425],[63,-180],[-163,-39],[-55,6],[-7,213],[162,0]],[[1916,3612],[75,-77],[91,-43],[39,-77]],[[2423,3547],[-25,-46],[-37,-176]],[[2618,1007],[14,-77],[-27,-12],[-27,-90],[-24,112],[34,-5],[30,72]],[[2612,1229],[30,-44],[-97,-38],[-7,42],[74,40]],[[2104,1589],[77,-89],[37,-2],[59,-33],[40,-94],[-44,-13],[-6,-39],[77,-17],[-25,-63],[31,-49],[0,-53],[-103,19],[-40,-16],[-100,11],[-54,69],[-40,-32],[-157,90],[-98,46],[-71,16],[-61,60],[-69,27],[-48,70],[-52,29],[-18,44],[-36,29]],[[1403,1599],[52,-14],[51,81],[34,-5],[93,57],[49,49],[78,-26],[10,-85],[27,-59],[60,-89],[97,-96],[96,120],[54,57]],[[1675,2224],[134,-2],[79,-35],[54,20]],[[1942,2207],[6,-90],[-22,-53],[15,-46],[-40,-96],[-9,-121],[37,-40],[58,-16],[3,-66],[57,-31],[57,-59]],[[1403,1599],[-51,71],[-25,59],[38,111],[71,183],[11,97],[34,95]],[[2093,2673],[-97,25],[-1,-65],[57,-14],[-7,-81],[-32,0],[-8,-88],[51,-31],[-4,-54],[-66,-23],[-12,-128],[-32,-7]],[[7045,5826],[99,9],[90,63],[185,55],[48,3],[90,-30],[6,47],[63,33]],[[7626,6006],[27,-22],[-1,-108],[-15,-44],[37,-90],[29,-22],[28,-107],[77,-164],[3,-125],[-11,-47],[-42,14],[-89,-3],[-29,-17]],[[7640,5271],[-38,66],[-66,-13],[-35,-25],[-50,3],[-74,-44],[-49,30],[-37,-11],[-7,-82],[6,-112],[-32,-77],[2,-73],[25,-52],[89,2],[33,-82],[62,-51],[7,-108],[35,-42],[-7,-35]],[[7640,5271],[34,-93],[84,-4],[90,34],[54,2],[40,-83],[67,16],[21,-23],[48,21],[31,51],[187,-78],[44,3],[18,-76],[107,-27],[13,-29],[85,-80],[31,-7]],[[8594,4898],[-28,-66],[-4,-80],[12,-58],[-56,-53],[-106,-65],[-113,-84],[-89,-152],[-89,-48],[-6,-73],[-90,-119]],[[7626,6006],[3,86],[24,14],[84,-9],[45,37],[39,-3],[20,40],[47,-41],[53,28],[44,-20],[47,21],[46,-47],[81,16],[2,-79],[54,-11],[48,16],[60,-36],[29,15],[104,3],[59,-22],[-15,-79],[13,-29],[88,-39],[34,30],[131,-3],[50,39],[114,55],[41,3],[17,-109],[-57,-11],[-10,-55],[-51,-104],[-49,14],[-33,-44],[56,-78],[60,-1],[57,-61],[-33,-92],[47,-28],[13,-33],[-55,-37],[-65,28],[-9,-68],[19,-31],[-38,-32],[-31,-55],[-38,-3],[-18,43],[-43,-2],[-9,-58],[41,-18],[8,-83],[23,-110],[-47,-33],[-17,-71],[-88,10],[-27,29]]],"transform":{"scale":[0.00012882056595280944,0.00010641478033719531],"translate":[136.6711240860078,34.57841544101984]},"objects":{"municipalities":{"type":"GeometryCollection","geometries":[{"arcs":[[[0,1,2,3,4,5,6,7,8,9,10,11,12,13,14,15,16,17,18]],[[19]],[[20]]],"type":"MultiPolygon","properties":{"code5":"23100","name":"名古屋市"}},{"arcs":[[[21]],[[22,23,24,25,26]]],"type":"MultiPolygon","properties":{"code5":"23201","name":"豊橋市"}},{"arcs":[[27,28,29,30,31,32,33]],"type":"Polygon","properties":{"code5":"23202","name":"岡崎市"}},{"arcs":[[34,35,36,37,38,39]],"type":"Polygon","properties":{"code5":"23203","name":"一宮市"}},{"arcs":[[-16,40,41,42,43,44]],"type":"Polygon","properties":{"code5":"23204","name":"瀬戸市"}},{"arcs":[[45,46,47,48,49]],"type":"Polygon","properties":{"code5":"23205","name":"半田市"}},{"arcs":[[-15,50,51,52,53,-41]],"type":"Polygon","properties":{"code5":"23206","name":"春日井市"}},{"arcs":[[[-26,54,55,-29,56]],[[57]]],"type":"MultiPolygon","properties":{"code5":"23207","name":"豊川市"}},{"arcs":[[58,59,60,61]],"type":"Polygon","properties":{"code5":"23208","name":"津島市"}},{"arcs":[[[62]],[[63,64,65,66]]],"type":"MultiPolygon","properties":{"code5":"23209","name":"碧南市"}},{"arcs":[[67,68,69,70,71,72,73,74,75]],"type":"Polygon","properties":{"code5":"23210","name":"刈谷市"}},{"arcs":[[-34,76,77,-68,78,79,80,-43,81,82,83]],"type":"Polygon","properties":{"code5":"23211","name":"豊田市"}},{"arcs":[[-33,84,-67,85,-70,86,-77]],"type":"Polygon","properties":{"code5":"23212","name":"安城市"}},{"arcs":[[[-32,87,88,89,-64,-85]],[[90]]],"type":"MultiPolygon","properties":{"code5":"23213","name":"西尾市"}},{"arcs":[[-30,-56,91,-89,92]],"type":"Polygon","properties":{"code5":"23214","name":"蒲郡市"}},{"arcs":[[-53,93,94,95,96]],"type":"Polygon","properties":{"code5":"23215","name":"犬山市"}},{"arcs":[[[-48,97,98,99,100,101]],[[102]]],"type":"MultiPolygon","properties":{"code5":"23216","name":"常滑市"}},{"arcs":[[-35,103,104,105,106,107]],"type":"Polygon","properties":{"code5":"23217","name":"江南市"}},{"arcs":[[-52,108,109,110,-107,111,-94]],"type":"Polygon","properties":{"code5":"23219","name":"小牧市"}},{"arcs":[[-39,112,113,114,115]],"type":"Polygon","properties":{"code5":"23220","name":"稲沢市"}},{"arcs":[[-27,-57,-28,-84,116,117,118]],"type":"Polygon","properties":{"code5":"23221","name":"新城市"}},{"arcs":[[-5,119,120,121,122]],"type":"Polygon","properties":{"code5":"23222","name":"東海市"}},{"arcs":[[-4,123,-73,124,-120]],"type":"Polygon","properties":{"code5":"23223","name":"大府市"}},{"arcs":[[[-101,125,-122,126,127]],[[128]]],"type":"MultiPolygon","properties":{"code5":"23224","name":"知多市"}},{"arcs":[[-69,-78,-87]],"type":"Polygon","properties":{"code5":"23225","name":"知立市"}},{"arcs":[[-17,-45,129]],"type":"Polygon","properties":{"code5":"23226","name":"尾張旭市"}},{"arcs":[[-66,130,131,-71,-86]],"type":"Polygon","properties":{"code5":"23227","name":"高浜市"}},{"arcs":[[-36,-108,-111,132]],"type":"Polygon","properties":{"code5":"23228","name":"岩倉市"}},{"arcs":[[-3,133,-74,-124]],"type":"Polygon","properties":{"code5":"23229","name":"豊明市"}},{"arcs":[[-1,-19,134,-80,135,136]],"type":"Polygon","properties":{"code5":"23230","name":"日進市"}},{"arcs":[[-24,137]],"type":"Polygon","properties":{"code5":"23231","name":"田原市"}},{"arcs":[[-60,138,139,140,-115,141]],"type":"Polygon","properties":{"code5":"23232","name":"愛西市"}},{"arcs":[[-12,142,-113,-38,143]],"type":"Polygon","properties":{"code5":"23233","name":"清須市"}},{"arcs":[[-13,-144,-37,-133,-110,144]],"type":"Polygon","properties":{"code5":"23234","name":"北名古屋市"}},{"arcs":[[-140,145,146,147]],"type":"Polygon","properties":{"code5":"23235","name":"弥富市"}},{"arcs":[[-76,148,-136,-79]],"type":"Polygon","properties":{"code5":"23236","name":"みよし市"}},{"arcs":[[-11,149,-9,150,-61,-142,-114,-143]],"type":"Polygon","properties":{"code5":"23237","name":"あま市"}},{"arcs":[[-18,-130,-44,-81,-135]],"type":"Polygon","properties":{"code5":"23238","name":"長久手市"}},{"arcs":[[-2,-137,-149,-75,-134]],"type":"Polygon","properties":{"code5":"23302","name":"東郷町"}},{"arcs":[[-14,-145,-109,-51]],"type":"Polygon","properties":{"code5":"23342","name":"豊山町"}},{"arcs":[[-95,-112,-106,151]],"type":"Polygon","properties":{"code5":"23361","name":"大口町"}},{"arcs":[[-96,-152,-105,152]],"type":"Polygon","properties":{"code5":"23362","name":"扶桑町"}},{"arcs":[[-10,-150]],"type":"Polygon","properties":{"code5":"23424","name":"大治町"}},{"arcs":[[-8,153,-146,-139,-59,-62,-151]],"type":"Polygon","properties":{"code5":"23425","name":"蟹江町"}},{"arcs":[[[-7,154,-147,-154]],[[155]]],"type":"MultiPolygon","properties":{"code5":"23427","name":"飛島村"}},{"arcs":[[-49,-102,-128,156]],"type":"Polygon","properties":{"code5":"23441","name":"阿久比町"}},{"arcs":[[-50,-157,-127,-121,-125,-72,-132,157]],"type":"Polygon","properties":{"code5":"23442","name":"東浦町"}},{"arcs":[[[158]],[[159]],[[160,161]]],"type":"MultiPolygon","properties":{"code5":"23445","name":"南知多町"}},{"arcs":[[-99,162,163,-162,164]],"type":"Polygon","properties":{"code5":"23446","name":"美浜町"}},{"arcs":[[-47,165,-163,-98]],"type":"Polygon","properties":{"code5":"23447","name":"武豊町"}},{"arcs":[[-31,-93,-88]],"type":"Polygon","properties":{"code5":"23501","name":"幸田町"}},{"arcs":[[-83,166,167,168,-117]],"type":"Polygon","properties":{"code5":"23561","name":"設楽町"}},{"arcs":[[-118,-169,169,170]],"type":"Polygon","properties":{"code5":"23562","name":"東栄町"}},{"arcs":[[-168,171,-170]],"type":"Polygon","properties":{"code5":"23563","name":"豊根村"}}]}}}