{"type":"Topology","arcs":[[[804,1503],[-65,-141]],[[739,1362],[-74,-31],[-42,-115]],[[623,1216],[-61,-33],[-15,-75],[-39,-94]],[[508,1014],[-113,-180],[48,-146],[51,14],[66,-14],[33,-69],[54,38],[72,-11]],[[719,646],[66,-15],[0,-72],[21,-36],[77,5]],[[883,528],[-25,-24],[28,-51],[-97,-11],[-60,-39],[-17,-65],[-63,5],[-11,-38],[-67,-6]],[[571,299],[-23,46],[-74,-28],[-42,-42],[-102,75],[10,112],[29,29],[-14,65],[-74,61],[15,29],[-47,34],[-30,67],[6,42],[-60,86],[61,28],[-10,54],[26,50],[39,165],[-11,25],[24,60],[-30,11],[-16,93],[-34,70],[-1,43],[44,131],[51,74]],[[308,1679],[71,6],[74,-33],[13,-37],[85,-13],[63,59],[86,-18],[32,-27],[72,-113]],[[1872,1649],[-41,-35],[-56,13],[-65,-36],[-40,-54],[-43,-4],[-54,-40]],[[1573,1493],[-64,-53]],[[1509,1440],[-38,19],[-31,-85]],[[1440,1374],[-66,17],[-12,-29]],[[1362,1362],[-78,49],[-87,10],[-88,31],[-85,121]],[[1024,1573],[-5,24]],[[1019,1597],[122,-10],[98,43],[-23,278],[9,20]],[[1225,1928],[195,-59]],[[1420,1869],[20,-119],[90,-28],[180,12],[145,-44],[17,-41]],[[1225,1928],[-159,126],[-12,59],[68,77],[-1,75],[-68,23],[22,97],[-8,34],[22,98]],[[1089,2517],[21,152],[84,8],[100,-16],[-12,40],[35,42],[-94,230],[-43,25],[54,98],[108,18],[42,-48],[115,-25],[32,-29],[79,-17],[36,-26],[-5,-84],[30,-55],[86,10],[26,-24],[-3,-158],[-20,-48],[18,-40],[49,20],[27,-48]],[[1854,2542],[6,-43],[-33,-93],[-14,-93],[31,-25],[51,-93],[13,-60],[-19,-54],[-79,-4],[17,-69],[-39,-110],[-45,-15],[-47,41],[-60,-13],[-86,6],[-79,-16],[-51,-32]],[[804,1503],[34,27],[141,69],[40,-2]],[[1024,1573],[17,-103],[29,-41],[20,-71],[75,-19],[33,-77],[90,-56],[24,-47],[-51,-82],[-65,11],[-45,-48],[65,-66]],[[1216,974],[-74,52],[-61,-9],[-13,27],[-67,-17]],[[1001,1027],[-42,45],[-101,32],[-26,73],[-54,17],[-22,155],[-17,13]],[[508,1014],[56,-25],[29,-66],[41,-37]],[[634,886],[-6,-44],[37,-22],[-7,-52],[63,-26],[29,-38],[-31,-58]],[[623,1216],[26,-56],[67,-36],[49,-66],[-8,-36],[26,-49],[-41,-45],[61,-42]],[[803,886],[-67,-47],[-102,47]],[[803,886],[73,-83]],[[876,803],[-8,-48],[20,-83],[60,-80]],[[948,592],[-40,-20],[-25,-44]],[[948,592],[165,-56],[59,53],[-14,88],[37,47],[10,75]],[[1205,799],[35,-20],[33,39]],[[1273,818],[54,-48]],[[1327,770],[7,-40],[116,-83],[60,-72],[101,8],[101,75],[61,-18],[65,38],[5,93]],[[1843,771],[69,1],[76,18],[53,-29],[44,15]],[[2085,776],[10,-61],[-18,-66],[-40,-40],[-27,-60],[-70,-32],[4,-63],[-25,-64],[-85,-32],[-161,-89],[-42,8],[-80,-48],[-73,11],[-95,30],[-55,55],[-45,7],[-58,-20],[-54,4],[-94,44],[-47,-68],[38,-19],[73,7],[13,-37],[-56,-31],[-13,-42],[-54,-34],[25,-39],[-71,-51],[-101,-19],[-41,-27],[-55,17],[12,46],[45,28],[-76,31],[0,57],[-108,-16],[2,26],[-99,60],[7,50]],[[1001,1027],[2,-102],[-17,-33]],[[986,892],[-54,15],[-17,-83],[-39,-21]],[[986,892],[43,-76],[45,-29],[59,46],[72,-34]],[[308,1679],[-83,-30],[-46,58],[-29,76],[-65,35],[-32,58],[-53,13],[48,99],[91,41],[18,94],[80,4],[54,-16],[29,-52],[83,30],[8,57],[68,42],[5,131],[71,138],[44,0],[120,-63],[55,-3],[68,127],[64,19],[67,-29],[45,49],[71,-40]],[[1362,1362],[41,-143],[72,-16],[31,52],[32,-26],[54,19],[58,-14],[69,18],[58,-41],[45,-10]],[[1822,1201],[60,-40],[102,46],[11,37],[-49,73],[46,68],[62,-33]],[[2054,1352],[51,-9],[96,-79],[-61,-105],[40,-23],[-41,-141],[20,-54],[-75,-59],[19,-67],[-18,-39]],[[1843,771],[-47,66],[-64,31],[-39,41],[-91,1],[-57,37],[-90,-16],[-10,-85],[-118,-76]],[[1273,818],[-23,-8],[-33,114],[-1,50]],[[1854,2542],[35,13],[18,63],[35,3],[35,-89],[51,-11],[6,-57],[-46,-56],[44,-91],[60,-12],[18,-62],[-46,-101],[103,-102],[-23,-33],[-79,-31],[33,-74],[-36,-69],[4,-43],[-66,-97]],[[2000,1693],[-44,1],[-84,-45]],[[1440,1374],[128,-18]],[[1568,1356],[109,-20]],[[1677,1336],[65,-90],[52,-5],[28,-40]],[[1509,1440],[17,-53],[42,-31]],[[1573,1493],[94,-99],[10,-58]],[[2000,1693],[13,-21],[-21,-106],[-30,-30],[118,-91],[-26,-93]]],"transform":{"scale":[0.0003137575241403306,0.00029320678196337443],"translate":[135.76407275005738,34.79068027957129]},"objects":{"municipalities":{"type":"GeometryCollection","geometries":[{"arcs":[[0,1,2,3,4,5,6,7]],"type":"Polygon","properties":{"code5":"25201","name":"大津市"}},{"arcs":[[8,9,10,11,12,13,14,15,16]],"type":"Polygon","properties":{"code5":"25202","name":"彦根市"}},{"arcs":[[-16,17,18,19]],"type":"Polygon","properties":{"code5":"25203","name":"長浜市"}},{"arcs":[[-1,20,-14,21,22,23]],"type":"Polygon","properties":{"code5":"25204","name":"近江八幡市"}},{"arcs":[[-4,24,25]],"type":"Polygon","properties":{"code5":"25206","name":"草津市"}},{"arcs":[[-3,26,27,-25]],"type":"Polygon","properties":{"code5":"25207","name":"守山市"}},{"arcs":[[-5,-26,-28,28,29,30]],"type":"Polygon","properties":{"code5":"25208","name":"栗東市"}},{"arcs":[[-6,-31,31,32,33,34,35,36]],"type":"Polygon","properties":{"code5":"25209","name":"甲賀市"}},{"arcs":[[-2,-24,37,38,-29,-27]],"type":"Polygon","properties":{"code5":"25210","name":"野洲市"}},{"arcs":[[-30,-39,39,-32]],"type":"Polygon","properties":{"code5":"25211","name":"湖南市"}},{"arcs":[[-8,40,-18,-15,-21]],"type":"Polygon","properties":{"code5":"25212","name":"高島市"}},{"arcs":[[-13,41,42,43,-36,44,-34,45,-22]],"type":"Polygon","properties":{"code5":"25213","name":"東近江市"}},{"arcs":[[-17,-20,46,47]],"type":"Polygon","properties":{"code5":"25214","name":"米原市"}},{"arcs":[[-35,-45]],"type":"Polygon","properties":{"code5":"25383","name":"日野町"}},{"arcs":[[-23,-46,-33,-40,-38]],"type":"Polygon","properties":{"code5":"25384","name":"竜王町"}},{"arcs":[[-12,48,49,50,-42]],"type":"Polygon","properties":{"code5":"25425","name":"愛荘町"}},{"arcs":[[-11,51,-49]],"type":"Polygon","properties":{"code5":"25441","name":"豊郷町"}},{"arcs":[[-10,52,-50,-52]],"type":"Polygon","properties":{"code5":"25442","name":"甲良町"}},{"arcs":[[-9,-48,53,-43,-51,-53]],"type":"Polygon","properties":{"code5":"25443","name":"多賀町"}}]}}}