{"type":"Topology","arcs":[[[1406,2188],[-30,16],[52,61],[30,-30],[-52,-47]],[[1574,2445],[112,-25],[27,-21],[-65,-75],[-77,9],[-34,56],[37,56]],[[1702,2522],[38,-28],[2,-61],[-121,23],[0,32],[81,34]],[[2559,2980],[21,-58],[-38,-23],[79,-97],[85,-2],[8,31]],[[2714,2831],[32,-54],[52,6]],[[2798,2783],[-24,-71]],[[2774,2712],[-56,-30],[-31,-57],[-77,-12],[-13,-61],[-6,-63],[-29,-23],[23,-131],[75,-71]],[[2660,2264],[3,-88],[66,-57],[-57,-101]],[[2672,2018],[-54,15],[-131,-2],[-1,27],[-116,-31],[-3,-1]],[[2367,2026],[-107,-52],[-42,51],[-46,11],[-225,78],[-50,-1]],[[1897,2113],[-35,85],[96,30],[10,122],[-35,-9],[-89,42],[-10,29],[-45,24],[-8,86],[30,64],[-83,86],[97,55],[28,35],[90,42],[-2,69],[20,32],[62,-6]],[[2023,2899],[38,-15],[78,46],[38,74]],[[2177,3004],[41,10],[64,-42],[50,31],[52,-12],[36,29],[5,44],[91,57]],[[2516,3121],[11,-71],[54,-20]],[[2581,3030],[-22,-50]],[[1630,2239],[55,-47],[105,-8],[12,-41],[-99,-6],[-18,54],[-55,48]],[[1782,2342],[86,-4],[39,-17],[13,-76],[-109,-46],[-65,25],[-66,77],[102,41]],[[2518,1809],[23,-38],[78,39]],[[2619,1810],[30,-73],[82,-105]],[[2731,1632],[-29,-82],[0,-51],[-87,18]],[[2615,1517],[-21,74],[-43,17],[-11,-62],[-37,-1],[-32,-43],[-45,22],[10,-42],[29,-43],[-26,-51],[2,-83],[38,-84]],[[2479,1221],[18,-26],[-65,-86],[-65,-53],[-13,-57]],[[2354,999],[-105,16],[-20,113],[-42,55],[-62,28],[-2,38],[-67,76],[-6,106],[-24,77],[-34,19]],[[1992,1527],[27,30],[-63,61],[-12,46],[-46,26]],[[1898,1690],[39,102],[-79,22],[-111,0],[-48,245],[77,-37],[28,-151],[48,6],[-18,119],[85,-42],[21,-98],[45,-6],[-22,129],[-133,40],[-11,73],[113,-45],[15,26],[-50,40]],[[2367,2026],[2,-112],[52,0],[31,-69],[60,2],[6,-38]],[[1890,1700],[-56,28]],[[1834,1728],[25,43],[57,3],[-26,-74]],[[1436,1361],[-10,-54],[37,-40],[-58,-36],[31,130]],[[1772,1266],[51,-46],[30,26],[60,-51],[10,-127],[37,-61],[31,-201],[-25,-61],[69,-54],[-44,-148],[-7,-55]],[[1984,488],[-105,-11]],[[1879,477],[-48,175],[-51,21],[-31,54],[-32,107],[-72,94],[-40,8],[-41,107],[19,46],[-64,37],[-57,53]],[[1462,1179],[24,112],[59,-11],[17,67],[-40,23],[4,65]],[[1526,1435],[133,-73],[113,-96]],[[2023,2899],[-5,119],[-81,104],[8,42],[-28,104]],[[1917,3268],[39,105]],[[1956,3373],[29,-8],[125,87],[95,-22],[26,46]],[[2231,3476],[60,-90],[-19,-65],[-52,-29],[-20,-89],[44,-31],[-64,-60],[-3,-108]],[[1962,3388],[-4,-7],[-2,-8]],[[1917,3268],[-67,61],[-30,3],[-43,99],[43,77],[3,52],[-31,71],[70,43],[-7,30],[42,101]],[[1897,3805],[121,-100],[-2,-96],[-29,-20],[-25,-201]],[[2231,3476],[45,37],[38,-26],[64,-2]],[[2378,3485],[33,-63],[130,-47],[-7,-96]],[[2534,3279],[-85,-44],[67,-114]],[[1694,1605],[-34,-64],[-37,42],[31,47],[40,-25]],[[1793,1555],[44,-43],[37,8]],[[1874,1520],[3,-33],[-56,-51],[30,-39],[-45,-29],[-33,-52]],[[1773,1316],[-22,4],[-50,82],[-70,23],[-67,57]],[[1564,1482],[-59,57],[62,94],[51,-110],[106,16],[22,37],[47,-21]],[[2959,4161],[11,-170],[25,-91],[38,-13],[20,-50],[154,-77]],[[3207,3760],[-42,-92],[-75,-39],[-24,-46],[-6,-76],[-33,-86],[-113,-65],[-33,-90]],[[2881,3266],[-66,-69]],[[2815,3197],[-24,33],[-2,81]],[[2789,3311],[4,86],[44,28],[-110,43],[-24,145],[-57,12],[-30,52],[10,75],[-33,20],[47,56],[-26,125],[40,27],[-3,75]],[[2651,4055],[46,35],[-1,92],[-107,4],[7,100],[86,14],[-41,51],[-2,37],[78,33],[25,-49],[79,24],[55,1],[31,-78],[-45,-120],[-54,-63],[79,-14],[72,39]],[[1879,477],[-53,-52],[-87,13]],[[1739,438],[-9,32],[-85,1],[-22,52]],[[1623,523],[-27,83],[20,100],[-39,47],[-19,71],[-108,94]],[[1450,918],[-110,88],[-47,13]],[[1293,1019],[45,72],[91,35],[33,53]],[[1349,1239],[45,-67],[-28,-49],[-51,-39],[-27,32],[70,108],[-9,15]],[[2581,3030],[70,23],[79,62]],[[2730,3115],[107,-109]],[[2837,3006],[-39,-32],[-102,17],[-51,-64],[54,-56],[15,-40]],[[3207,3760],[40,71]],[[3247,3831],[15,-58],[47,-23],[3,-95],[59,-10],[44,-32],[79,-147],[42,-4],[82,-135],[-33,-81],[-72,-74],[-42,-12],[-46,42]],[[3425,3202],[27,48],[-44,54],[-164,31],[-75,-32],[33,-117],[-69,-24]],[[3133,3162],[-36,-12],[-24,65],[-94,13],[-10,31],[-88,7]],[[2378,3485],[12,28],[-18,134],[-47,50],[-15,90],[-47,-27],[-21,47]],[[2242,3807],[-20,23],[38,93],[47,26],[32,71],[44,56],[3,54]],[[2386,4130],[59,-50],[96,-34],[110,9]],[[2789,3311],[-112,-90],[-52,8],[-35,37],[-56,13]],[[2660,2264],[80,1],[-20,44],[59,15],[-8,56],[173,-2],[0,-36],[216,-8]],[[3160,2334],[-6,-87],[-36,-112],[-28,-31]],[[3090,2104],[-60,-45],[-88,1],[-34,-43],[-59,-27]],[[2849,1990],[-40,-33],[-92,32]],[[2717,1989],[-45,29]],[[1739,438],[-21,-51],[-140,-34],[-34,16],[-69,-10],[-15,23],[-72,-16],[-40,28]],[[1348,394],[1,38],[-58,5],[-37,85],[8,38],[-25,56],[-74,74],[-90,9]],[[1073,699],[60,41],[-64,86]],[[1069,826],[25,65],[90,19],[24,61],[62,64],[23,-16]],[[1450,918],[-23,-73],[-79,-8],[-19,-40],[41,-77],[71,-89],[82,-51],[50,-3],[11,-50],[39,-4]],[[863,991],[-58,47]],[[805,1038],[57,43],[75,-40],[-74,-50]],[[796,1045],[-59,48]],[[737,1093],[68,57],[60,-52],[-69,-53]],[[2731,1632],[139,-35],[83,-5]],[[2953,1592],[-37,-67]],[[2916,1525],[-16,-48],[56,-58],[1,-49],[-82,2],[21,-101]],[[2896,1271],[-5,-142],[-75,-79]],[[2816,1050],[-45,16],[-93,82],[26,85],[-32,41],[-95,29]],[[2577,1303],[-7,65],[10,137],[35,12]],[[3133,3162],[15,-52],[-23,-56],[10,-49]],[[3135,3005],[-163,-2],[-29,-97],[37,-13]],[[2980,2893],[-62,-19]],[[2918,2874],[14,45],[-26,50],[-69,37]],[[2730,3115],[85,82]],[[2479,1221],[61,35],[37,47]],[[2816,1050],[44,-56],[29,1],[57,-56],[77,-22],[66,-109],[66,-27]],[[3155,781],[-48,-80],[-127,-5],[-67,9],[-37,-49],[-96,16],[-6,-24],[-100,4],[-77,-42],[-50,-62],[-72,-11],[-80,-41],[-84,-81],[-39,18],[-18,57],[-72,39],[-19,40]],[[2163,569],[30,64],[117,54],[44,43],[3,65],[29,61],[6,104],[-38,39]],[[2717,1989],[-20,-41]],[[2697,1948],[-79,-33],[15,-74],[-14,-31]],[[2798,2783],[79,35],[58,8],[-17,48]],[[2980,2893],[83,-4],[55,-23],[1,-34],[84,-39],[6,-91]],[[3209,2702],[0,-11]],[[3209,2691],[-54,-8],[-59,24],[-195,-10],[-55,-18],[-72,33]],[[2163,569],[-42,-58],[-113,-39],[-24,16]],[[1772,1266],[1,50]],[[1874,1520],[80,-17],[38,24]],[[1897,3805],[19,84],[23,31]],[[1939,3920],[43,-4],[115,98],[12,-43],[57,-49],[-46,-37],[24,-95],[66,29],[32,-12]],[[3090,2104],[53,-31],[76,-1],[38,-106],[-62,-54],[15,-29],[-86,-65],[-26,-90]],[[3098,1728],[-173,42],[-2,67]],[[2923,1837],[33,84],[-107,69]],[[2697,1948],[32,-68],[79,-111],[58,77],[57,-9]],[[3098,1728],[39,-37]],[[3137,1691],[-57,-51],[-127,-48]],[[1717,1729],[39,-23],[44,-35],[34,57]],[[1890,1700],[-31,-54],[-73,-61],[-73,37],[-30,40],[34,67]],[[1793,1555],[73,81],[32,54]],[[3209,2691],[0,-63],[31,-78],[-42,-68],[0,-37],[-38,-69],[0,-42]],[[1348,394],[1,-35],[-83,-65],[-61,-31],[-52,-3],[-7,-55],[-61,-34],[-51,115]],[[1034,286],[-71,120],[-56,126],[-57,46],[6,80]],[[856,658],[74,26],[89,90]],[[1019,774],[30,-73],[24,-2]],[[798,947],[-70,-59],[-48,55],[63,48]],[[743,991],[55,-44]],[[734,998],[-40,16],[-86,-66],[-28,32],[94,65]],[[674,1045],[60,-47]],[[3135,3005],[32,-23],[107,-27],[67,11]],[[3341,2966],[33,-118],[-6,-21],[-103,-66],[-56,-59]],[[3425,3202],[-29,-57],[19,-103],[-18,-46],[-56,-30]],[[1034,286],[-54,-35],[-84,22],[-63,-15],[-62,-61],[-58,-18],[-95,47]],[[618,226],[-91,26],[8,162]],[[535,414],[54,28],[74,8],[53,35],[140,173]],[[2959,4161],[81,-19],[32,-30],[0,-103],[146,-59],[44,-78],[-15,-41]],[[1939,3920],[-78,11],[-30,60],[-37,19],[113,68],[97,-17],[48,11],[9,58]],[[2061,4130],[45,12],[26,89],[27,16]],[[2159,4247],[32,-35],[52,-3],[24,31],[59,-16],[2,-43],[58,-51]],[[2061,4130],[-79,6],[-63,60],[-128,-34],[-15,43],[-160,37],[-29,60],[-100,0],[-105,67],[40,80],[41,19],[-39,49],[18,165],[-6,51],[-83,8],[-35,58],[24,47],[120,47],[115,-69],[9,-81],[-22,-35],[21,-65],[157,7],[73,-59],[74,40],[88,-42],[44,-1],[63,-43],[60,2],[62,-47],[-55,-36],[29,-97],[-36,-8],[15,-112]],[[1526,1435],[38,47]],[[1019,774],[50,52]],[[863,991],[-65,-44]],[[743,991],[-9,7]],[[674,1045],[63,48]],[[796,1045],[9,-7]],[[618,226],[-30,-130],[-61,-7],[-61,-42],[-51,5],[-78,-22],[-61,41],[-80,-71],[-122,9],[-6,56],[-58,40],[-10,51],[53,54],[-28,85],[162,44],[-2,-36],[62,-14],[65,81],[60,2],[72,40],[91,2]],[[3137,1691],[43,-64],[50,-34],[-9,-125]],[[3221,1468],[-37,-2],[-73,-51],[-76,42],[-69,68],[-50,0]],[[3221,1468],[21,-80],[32,-59],[-15,-115]],[[3259,1214],[-38,26],[-96,-17],[-20,-68],[-33,-2],[-72,75],[-42,0],[-5,55],[-57,-12]],[[3259,1214],[2,-58],[25,-29],[-46,-120],[-74,-51],[22,-67],[60,-30],[-25,-59],[-68,-19]]],"transform":{"scale":[0.0001795617602526236,0.00015895366431908892],"translate":[135.09693416338098,34.27235166649626]},"objects":{"municipalities":{"type":"GeometryCollection","geometries":[{"arcs":[[[0]],[[1]],[[2]],[[3,4,5,6,7,8,9,10,11,12,13,14]],[[15]],[[16]]],"type":"MultiPolygon","properties":{"code5":"27100","name":"大阪市"}},{"arcs":[[[17,18,19,20,21,22,23,24,-10,25]],[[26,27]]],"type":"MultiPolygon","properties":{"code5":"27140","name":"堺市"}},{"arcs":[[[28]],[[29,30,31,32,33]]],"type":"MultiPolygon","properties":{"code5":"27202","name":"岸和田市"}},{"arcs":[[-12,34,35,36,37]],"type":"Polygon","properties":{"code5":"27203","name":"豊中市"}},{"arcs":[[38,-36,39,40]],"type":"Polygon","properties":{"code5":"27204","name":"池田市"}},{"arcs":[[-13,-38,41,42,43]],"type":"Polygon","properties":{"code5":"27205","name":"吹田市"}},{"arcs":[[[44]],[[45,46,47,48]]],"type":"MultiPolygon","properties":{"code5":"27206","name":"泉大津市"}},{"arcs":[[49,50,51,52,53,54]],"type":"Polygon","properties":{"code5":"27207","name":"高槻市"}},{"arcs":[[[-32,55,56,57,58,59]],[[60]]],"type":"MultiPolygon","properties":{"code5":"27208","name":"貝塚市"}},{"arcs":[[-15,61,62,63,-4]],"type":"Polygon","properties":{"code5":"27209","name":"守口市"}},{"arcs":[[-51,64,65,66,67]],"type":"Polygon","properties":{"code5":"27210","name":"枚方市"}},{"arcs":[[-43,68,69,70,-54,71]],"type":"Polygon","properties":{"code5":"27211","name":"茨木市"}},{"arcs":[[-8,72,73,74,75,76]],"type":"Polygon","properties":{"code5":"27212","name":"八尾市"}},{"arcs":[[[-57,77,78,79,80,-59,81]],[[82,83]],[[84,85]]],"type":"MultiPolygon","properties":{"code5":"27213","name":"泉佐野市"}},{"arcs":[[-20,86,87,88,89,90,91]],"type":"Polygon","properties":{"code5":"27214","name":"富田林市"}},{"arcs":[[-52,-68,92,93,94,95,-63,96]],"type":"Polygon","properties":{"code5":"27215","name":"寝屋川市"}},{"arcs":[[-22,97,-91,98,99,100]],"type":"Polygon","properties":{"code5":"27216","name":"河内長野市"}},{"arcs":[[-9,-77,101,102,-18,-26]],"type":"Polygon","properties":{"code5":"27217","name":"松原市"}},{"arcs":[[-6,103,-95,104,105,106]],"type":"Polygon","properties":{"code5":"27218","name":"大東市"}},{"arcs":[[-23,-101,107,-30,108,-47,109]],"type":"Polygon","properties":{"code5":"27219","name":"和泉市"}},{"arcs":[[-39,-41,110,111,-69,-42,-37]],"type":"Polygon","properties":{"code5":"27220","name":"箕面市"}},{"arcs":[[-75,112,113,114]],"type":"Polygon","properties":{"code5":"27221","name":"柏原市"}},{"arcs":[[-19,-103,115,-114,116,117,-87]],"type":"Polygon","properties":{"code5":"27222","name":"羽曳野市"}},{"arcs":[[-5,-64,-96,-104]],"type":"Polygon","properties":{"code5":"27223","name":"門真市"}},{"arcs":[[-14,-44,-72,-53,-97,-62]],"type":"Polygon","properties":{"code5":"27224","name":"摂津市"}},{"arcs":[[[118,-27,119]],[[-24,-110,-46,120]]],"type":"MultiPolygon","properties":{"code5":"27225","name":"高石市"}},{"arcs":[[-76,-115,-116,-102]],"type":"Polygon","properties":{"code5":"27226","name":"藤井寺市"}},{"arcs":[[-7,-107,121,-73]],"type":"Polygon","properties":{"code5":"27227","name":"東大阪市"}},{"arcs":[[[-79,122,123,124,125]],[[126,127]],[[128,129]]],"type":"MultiPolygon","properties":{"code5":"27228","name":"泉南市"}},{"arcs":[[-94,130,131,-105]],"type":"Polygon","properties":{"code5":"27229","name":"四條畷市"}},{"arcs":[[-67,132,-131,-93]],"type":"Polygon","properties":{"code5":"27230","name":"交野市"}},{"arcs":[[-21,-92,-98]],"type":"Polygon","properties":{"code5":"27231","name":"大阪狭山市"}},{"arcs":[[-124,133,134,135]],"type":"Polygon","properties":{"code5":"27232","name":"阪南市"}},{"arcs":[[-50,136,-65]],"type":"Polygon","properties":{"code5":"27301","name":"島本町"}},{"arcs":[[-70,-112,137,138,139]],"type":"Polygon","properties":{"code5":"27321","name":"豊能町"}},{"arcs":[[-139,140]],"type":"Polygon","properties":{"code5":"27322","name":"能勢町"}},{"arcs":[[-34,141,-48,-109]],"type":"Polygon","properties":{"code5":"27341","name":"忠岡町"}},{"arcs":[[-58,-82]],"type":"Polygon","properties":{"code5":"27361","name":"熊取町"}},{"arcs":[[[-80,-126,142]],[[-83,143,-128,144,-130,145,-85,146]]],"type":"MultiPolygon","properties":{"code5":"27362","name":"田尻町"}},{"arcs":[[-135,147]],"type":"Polygon","properties":{"code5":"27366","name":"岬町"}},{"arcs":[[-88,-118,148,149]],"type":"Polygon","properties":{"code5":"27381","name":"太子町"}},{"arcs":[[-89,-150,150,151]],"type":"Polygon","properties":{"code5":"27382","name":"河南町"}},{"arcs":[[-90,-152,152,-99]],"type":"Polygon","properties":{"code5":"27383","name":"千早赤阪村"}}]}}}