{"type":"Topology","arcs":[[[2774,2962],[-25,-11],[14,-69],[-98,-47],[-36,78],[-108,8]],[[2521,2921],[-38,92],[-56,13],[-6,43],[-90,69],[-54,16],[32,64],[-1,87],[28,81],[-61,3],[-30,37],[11,55],[-24,31],[-51,-45],[-45,-67],[6,-77],[25,-62],[-27,-79],[-56,10],[-71,42],[-11,98],[14,22],[-28,67],[-216,42],[-3,36],[-40,54],[-35,-3],[-77,74],[-54,0],[-82,-106],[-6,-33],[-183,-5],[-38,80],[22,66],[-18,36],[-104,71],[142,99],[-20,40],[-1,100],[26,91],[53,67],[-26,58],[-91,69]],[[1237,4257],[59,-17],[64,28],[14,98],[76,42],[120,-46],[27,16],[47,-34],[28,28],[-23,62],[78,120],[133,58],[32,-5],[76,65],[102,23],[6,26],[104,31],[211,43],[77,-1],[18,-31],[80,25],[89,-67],[-29,-87],[57,18],[6,46],[57,29],[122,133],[7,84],[-20,21],[-7,94],[36,21],[-13,59],[37,71],[43,45],[38,-15]],[[2989,5240],[86,-30],[44,37],[42,1],[39,-56],[67,-49],[88,73],[56,33],[63,99],[65,9],[64,-28],[8,-53],[51,-2],[86,-66],[9,-49],[102,25],[61,100],[44,-6],[64,-146],[-16,-26],[63,-46],[45,4]],[[4120,5064],[55,-51],[79,-13],[42,-46],[28,4],[33,-88],[40,8],[103,105],[-5,61],[49,36],[97,6],[18,59],[-14,38],[40,46],[48,-23],[40,12],[65,-27],[108,46],[67,-23],[88,69],[54,-1],[62,-27],[112,-133],[9,-56],[-69,-112],[-18,-62],[53,-35],[-18,-49],[36,-98],[-42,-46],[75,-52]],[[5355,4612],[-25,-61],[-72,-24],[-85,34],[-68,10],[-20,-47],[-56,-30],[-56,-82],[-38,-88],[-89,16],[-42,-82],[-78,-71],[-77,-5],[-50,-29],[-16,-35],[47,-23],[-7,-88],[-28,-34],[-16,-102],[60,-7],[49,-50],[12,-45],[69,-2],[75,36],[20,-63],[47,-13],[49,-42],[58,56],[72,-57],[21,-93],[-51,-41],[-62,-9],[-64,-87],[-32,-132],[50,-30],[-18,-67],[41,-49],[6,-67],[29,-73],[-21,-38],[-56,-28],[-11,-80],[-124,-1]],[[4798,2889],[31,79],[-69,109],[-68,17],[-107,51],[-25,-17],[-54,18],[-84,3],[-20,-59]],[[4402,3090],[-103,15],[7,53],[-72,33],[-96,8],[-123,-94],[-30,-71],[-75,-60]],[[3910,2974],[-2,15],[-2,13],[-93,-89],[-79,12],[-36,-33],[-76,1],[-34,30],[-76,-36],[-135,-1],[-24,-57],[2,-56],[-47,-3],[-49,48],[-10,70],[-132,58],[20,35],[-20,-35],[-59,-19],[-113,77],[-14,-22],[-157,-20]],[[3760,3230],[14,-125],[120,-10],[-10,28],[70,84],[34,14],[5,48],[58,161],[42,67],[-77,36],[-113,-75],[-24,-64],[-60,-33],[-23,11],[-67,-85],[31,-57]],[[3283,2632],[26,-6],[12,-70],[-27,-146],[-84,-41],[-64,45],[78,112],[-9,51],[68,55]],[[3612,2831],[34,-27],[8,-77],[-48,-45],[-32,138],[38,11]],[[3438,2875],[24,-12],[16,-75],[-51,11],[11,76]],[[3918,2921],[-72,-28]],[[3846,2893],[71,40]],[[3917,2933],[1,-12]],[[3918,2921],[73,34],[80,-19],[10,32],[79,-45],[44,-119]],[[4204,2804],[-24,-41],[3,-78],[40,-82]],[[4223,2603],[-18,-94],[-146,18]],[[4059,2527],[-23,16],[-29,162],[-58,77],[-31,139]],[[4223,2603],[65,25],[27,-58],[27,6],[75,-40],[52,-2],[48,-78],[36,-22],[77,111]],[[4630,2545],[119,-39],[66,-11],[80,35],[45,-49],[38,13],[84,-171],[32,-45],[112,94],[105,42],[106,98],[87,-49],[100,133],[106,44],[22,36],[77,25],[21,-37],[12,-88],[-3,-115],[49,-77],[-20,-33],[92,-88],[35,13],[49,-20],[-1,-44],[35,-41]],[[6078,2171],[-141,27],[-15,17],[-81,-2],[-19,-54],[49,-74],[-12,-72],[53,22],[59,-35],[3,-55],[-35,-32],[-79,-29],[16,-54],[-53,-21],[-34,28],[-81,15],[-53,-5],[-40,-29],[-64,14],[-164,-52],[-88,-112],[-34,-12],[11,-77],[-50,-32],[-104,78],[-59,-15],[-22,-32],[32,-49],[-86,-40],[-103,-14],[-51,30],[-42,-1],[-4,46],[-88,37],[7,52],[-58,-20],[-51,16],[24,60],[-78,25],[-50,-89],[50,-28],[-21,-40],[-48,10],[-150,-122],[-115,-37],[-12,-22],[-106,0],[-18,13],[46,130],[-100,119],[53,61],[84,-1],[82,91],[-56,40],[-53,-21],[-78,33],[-52,6],[10,71],[-60,61],[-68,-13],[17,66],[-19,35],[38,135],[-81,101],[-10,38]],[[3826,2357],[39,27],[54,-24],[89,71],[6,84],[45,12]],[[4033,258],[42,-58],[-37,-200],[-79,17],[-38,28],[58,61],[38,145],[16,7]],[[4164,308],[9,-74],[-77,-27],[47,93],[21,8]],[[6113,714],[48,-77],[-76,0],[28,77]],[[5995,1026],[-122,-70],[-15,40],[93,30],[44,0]],[[5153,1065],[10,-85],[-55,41],[45,44]],[[4396,1145],[10,-87],[-76,-16],[11,58],[55,45]],[[6158,1141],[-19,-23],[-86,-43],[-81,3],[-7,144],[56,53],[25,52],[43,12],[44,-38],[60,-82],[-35,-78]],[[6596,1410],[-16,-30],[109,-102],[64,-24],[2,-28],[-79,-84],[-104,-76],[-59,-16],[-94,-44],[-75,-23],[-61,29],[-64,8],[-15,33],[43,30],[-22,103],[32,46],[91,53],[41,39],[63,-15],[24,40],[70,18],[50,43]],[[6360,1397],[0,-40],[-89,-19],[24,62],[65,-3]],[[4046,1449],[26,-16],[-39,-68],[18,-38],[97,19],[43,-27],[-6,-41],[31,-37],[-119,-48],[-9,-84],[-47,-26],[-25,35],[-77,-75],[67,-41],[7,-53],[125,26],[27,-8],[-21,-194],[-31,-57],[-45,-16],[21,-49],[-3,-52],[60,16],[17,50],[91,-3],[109,95],[74,-43],[-58,-64],[-50,-5],[-16,-172],[-94,-137],[-54,-26],[-15,98],[-37,11],[21,63],[-38,13],[-27,-44],[-42,86],[-65,-80],[-103,2],[16,33],[-60,47],[-35,-6],[-29,-117],[-115,0],[-99,-28],[-80,-53],[-44,25],[-27,87],[-48,1],[-1,95],[35,71],[52,33],[113,27],[35,49],[100,68],[57,22],[68,3],[32,102],[-31,32],[-58,-4],[-34,64],[2,81],[18,67],[61,148],[37,32],[88,35],[70,74],[64,2]],[[5183,1466],[0,-62],[65,-32],[12,-43],[-31,-34],[-36,-86],[-66,-40],[-92,51],[-52,-53],[-46,22],[33,77],[-1,50],[65,93],[149,57]],[[5484,1480],[73,-64],[61,10],[82,-14],[50,-34],[69,13],[49,-22],[-38,-88],[80,-8],[7,-46],[-43,-46],[-4,-40],[-87,-49],[-41,13],[-39,85],[-89,-2],[-41,-32],[-52,37],[-31,73],[-70,-17],[-78,29],[-71,2],[30,131],[30,47],[45,23],[108,-1]],[[7733,2538],[48,-28],[32,-49],[-37,-26],[-35,17],[-8,86]],[[7311,2619],[46,-8],[49,-73],[-19,-52],[-76,133]],[[7908,2663],[-39,9],[-34,44],[-58,25],[-38,-44],[-55,-15],[-150,54],[-15,-21],[-76,21],[-70,-7],[-114,-93],[-88,-6],[-30,65],[-40,-45],[-91,-18],[-52,6],[-53,-40],[-26,-63],[-79,-8],[-43,-28],[50,-41],[-55,-22],[-49,-70],[-62,-11]],[[6641,2355],[0,54],[-27,53],[-1,69],[17,114],[28,49],[-2,143],[-16,75],[-150,58],[-156,70],[-32,-1],[-29,48],[-118,-41],[-56,14],[-23,41],[28,56],[58,38],[5,31],[57,34],[104,-4],[-38,105],[-60,28],[-127,31],[-48,104],[49,28],[48,-31],[93,3],[58,38],[75,-57],[105,39],[14,-32],[107,-2],[14,-42],[135,-35],[66,-46],[46,3],[97,57],[-26,33],[50,117]],[[6986,3597],[56,10],[28,-127],[7,-98],[-28,-63],[67,-65],[-15,-49],[46,-17],[46,18],[37,-46],[39,1],[69,-79],[-2,-153],[49,-9],[33,-42],[85,45],[152,-82],[48,-12],[37,48],[33,-25],[68,2],[60,-50],[13,-44],[-22,-54],[16,-43]],[[6986,3597],[-27,60],[15,37],[59,43],[-6,47],[-101,137],[74,26],[48,-53],[63,3],[28,-21],[40,90],[-13,33],[-58,39],[-5,96],[-48,-16],[-94,178],[4,44],[-68,108],[-149,15],[-92,40],[-43,194],[19,49],[51,-30],[39,31],[64,6],[55,29],[41,49],[-29,58],[-13,89],[60,4],[77,77]],[[6977,5059],[49,-20],[6,61],[87,34],[89,-7],[-10,-53],[92,6],[81,-64],[31,13],[81,-32],[23,-84],[81,23],[12,-35],[53,-49],[78,-45],[19,-44],[49,-38],[22,26],[93,31],[71,1],[27,-19],[75,44],[5,33],[67,39],[39,-27],[85,-21],[38,-47],[150,-40],[19,-62],[32,-39]],[[8521,4644],[-50,-39],[0,-57],[-96,-6],[4,-49],[-37,-24],[-13,-45],[-80,-84],[-12,-68],[27,-55],[47,-29],[38,32],[47,1],[32,-77],[63,-12],[107,47],[26,68],[69,-17],[75,-90],[-23,-51],[5,-90],[53,-2],[39,-114],[64,-27],[5,-76],[131,-23],[47,-75],[-49,-49],[24,-38],[-84,-61],[-40,-78],[63,-28],[-13,-69],[40,-15],[62,46],[48,-33],[-70,-76]],[[9070,3281],[-118,-53],[-96,-62],[-82,6],[-85,57],[-67,9],[-45,-11],[-76,-221],[-20,-153],[-19,-37],[-44,-21],[-111,18],[-66,-26],[-53,-78],[-40,-23],[-80,11],[-160,-34]],[[8732,2955],[84,-65],[33,-147],[-14,-63],[-73,-110],[-47,-20],[-50,48],[-64,13],[26,41],[-2,100],[45,81],[0,94],[62,28]],[[8691,3031],[-6,-60],[-60,9],[66,51]],[[8521,4644],[53,-17],[73,18],[70,51],[89,34],[37,-11],[60,101],[10,62],[43,11],[18,70]],[[8974,4963],[66,-35],[31,-42],[56,12],[3,-43],[36,-96],[49,-40],[34,-1],[10,-61],[41,-25],[49,12],[13,-59],[56,-12],[-7,53],[33,24],[67,-34],[89,0],[18,-43]],[[9618,4573],[-19,-69],[-61,-55],[20,-91],[41,-3],[73,54],[58,-2],[35,-31],[-3,-55],[-50,-73],[19,-46],[-32,-24],[-32,-60],[7,-64],[-62,-28],[-24,19],[-56,-50],[46,-68],[105,-73],[48,38],[39,-43],[-23,-74],[-88,6],[20,-41],[51,3],[32,-27],[45,-165]],[[9807,3551],[-52,-19],[-46,-92],[-98,-24],[-89,15],[-175,-91],[-156,-45],[-121,-14]],[[8905,2547],[60,-21],[66,-128],[-21,-129],[-93,-45],[-7,-25],[-73,-12],[-91,-62],[-12,-53],[-72,-26],[-14,-29],[-157,-44],[-80,37],[-43,59],[7,70],[31,48],[13,73],[83,158],[3,48],[39,44],[51,1],[6,-57],[48,4],[51,29],[79,-1],[63,44],[63,17]],[[8460,2700],[31,-48],[4,-59],[34,-80],[-35,-33],[-9,-59],[-42,-20],[-60,11],[-52,50],[-7,64],[35,106],[47,49],[54,19]],[[9053,2940],[34,-17],[56,13],[86,-4],[26,-132],[100,-75],[58,23],[17,-75],[45,-67],[-2,-37],[57,-5],[3,-45],[-99,-58],[-43,-74],[10,-22],[72,-16],[11,-41],[-70,-53],[26,-61],[-64,-43],[-89,54],[-53,110],[-147,64],[-32,62],[-25,85],[-62,109],[-55,25],[-4,40],[32,99],[84,53],[-5,81],[33,7]],[[9003,3056],[-5,-72],[-50,-6],[-9,45],[64,33]],[[9783,3139],[39,-44],[-17,-39],[-51,38],[29,45]],[[9940,3184],[98,-57],[52,17],[-22,-96],[-43,-45],[-61,2],[-53,126],[29,53]],[[9139,3251],[44,-41],[37,-61],[3,-64],[-79,18],[-56,-14],[-23,109],[74,53]],[[9570,3416],[50,-24],[111,1],[19,-67],[-5,-77],[-127,-83],[-28,-56],[0,-60],[-43,-66],[-102,-43],[-47,8],[-39,-23],[-47,14],[-14,50],[-61,25],[17,42],[-20,92],[-33,61],[19,53],[43,27],[100,10],[84,75],[123,41]],[[10137,3217],[-4,-8],[-2,-5],[8,30],[-75,47],[-44,-28],[-66,27],[-60,-54],[-88,21],[6,66],[84,22],[37,32],[56,-2],[41,28],[7,65]],[[10037,3458],[132,-15],[60,-127],[-92,-99]],[[10037,3458],[7,52],[-35,61],[7,68],[-105,31],[-13,49],[-34,-1],[32,-133],[-34,-40],[-34,128],[-41,-4],[20,-118]],[[9618,4573],[48,-43],[62,18],[39,67],[54,21],[37,70],[100,21],[54,75],[-58,106],[31,25],[-2,58],[-84,78],[-72,101],[-65,42],[-20,82],[-34,59],[26,36],[3,57],[-51,68],[49,49],[1,47]],[[9736,5610],[37,-5],[50,58],[39,-7],[28,53],[37,-31],[41,87],[5,50],[39,25],[50,1],[78,-24],[50,-62],[-18,-85],[47,-37],[29,25],[46,-22],[37,-60],[38,-14],[37,35],[-10,48],[19,69],[75,73],[40,13],[49,72],[-27,66],[16,31],[59,-13],[6,33],[49,22],[35,53],[91,6],[-10,93],[-52,76],[84,33]],[[10830,6272],[20,-36],[9,-119],[69,-49],[30,-45],[-8,-74],[130,-33],[11,-66],[-52,-105],[1,-36],[-39,-26],[-26,-55],[-11,-67],[39,-49],[-57,-55],[-1,-81],[90,-108],[9,-98],[71,-53],[57,-22],[84,-13],[0,-65],[36,-67],[-7,-24],[68,-32],[43,-61],[46,-27],[29,-168],[35,-80],[-29,-32],[-25,-69],[15,-59],[-34,-69],[69,8],[24,-62],[-8,-49],[-54,-60],[2,-25],[-50,-60],[25,-71],[-6,-240],[-20,-13],[-201,111],[-28,22],[2,165],[-50,16],[23,-75],[-40,-96],[14,-29],[106,-73],[113,-62],[-18,-29],[61,-34],[-75,-115],[-148,115],[-68,-8],[25,-65],[-92,-15],[-41,-47],[-48,-14],[-27,-120],[-13,-152],[33,-70],[-52,-20],[-2,-44],[-56,-30],[-34,-50],[-68,4],[-56,-32],[-36,93],[-99,49],[-87,-14],[-77,13],[-73,62],[-108,-45],[-58,49]],[[11363,2870],[45,-31],[56,-77],[-19,-36],[-78,29],[-52,2],[-22,51],[25,43],[45,19]],[[10148,2931],[-12,-186],[-49,-26],[-84,-13],[-41,130],[70,49],[116,46]],[[10408,3074],[41,-107],[80,67],[73,11],[-62,-138],[-111,-13],[-157,-106],[-45,21],[-32,81],[-29,26],[61,80],[43,32],[138,46]],[[11062,3223],[34,-66],[-44,-36],[-61,64],[4,31],[67,7]],[[8974,4963],[6,50],[-66,34],[4,26],[94,37],[-6,40],[51,31],[50,86],[-26,59],[34,8],[-6,154],[-17,31],[-116,67],[-15,-20],[-134,16],[-7,62],[-63,23],[-86,88],[-153,54]],[[8518,5809],[-19,52],[20,75],[47,24],[-3,37],[43,70],[40,30],[-29,42],[-10,55],[42,71],[-31,79],[16,90],[41,55]],[[8675,6489],[104,2],[15,51],[129,144],[111,-15],[85,32],[48,-26]],[[9167,6677],[-10,-61],[13,-72],[-49,-112],[47,-53],[-13,-25],[66,-61],[43,-2],[122,-72],[67,-110],[-64,-73],[-47,-17],[-39,-70],[3,-43],[74,-11],[-33,-91],[82,-30],[65,-40],[56,-62],[70,-20],[30,29],[40,-9],[46,-62]],[[8518,5809],[-66,-52],[-39,5],[-87,-52],[-16,64],[-95,-13],[-17,32],[-120,83],[-89,33],[-18,50],[-151,-9],[-28,-20],[-91,15],[-22,-75],[-47,2],[-58,-42],[10,-38],[-31,-34],[-65,20],[-44,-42],[-69,22],[20,29],[-56,36],[23,50],[-25,30],[-16,92],[-33,-2],[-87,-42],[-221,62],[-46,-7],[-10,-82],[-46,-69],[-45,-33],[7,-134],[-53,-31],[-4,-89],[42,-31],[-51,-127],[43,-60]],[[6817,5350],[-46,-1],[-56,-31],[-40,28],[-58,-31],[-51,3],[1,-41],[-85,0],[-59,36],[-50,56],[-50,12],[-50,50],[-91,-9]],[[6182,5422],[-7,76],[-53,32],[-65,72],[-7,113],[58,40],[69,122],[46,19],[-31,59],[51,48],[12,83],[-159,58],[-90,6],[-54,26],[-5,67],[31,61],[4,59],[77,70],[16,105],[29,25],[-81,74],[-83,-14],[-27,60],[47,26],[-37,33],[42,77],[54,36],[-14,31],[20,54],[-6,100],[29,120],[-114,25],[-45,-7],[-112,31],[-159,26],[-128,37],[-73,-28],[-69,35],[36,83],[105,5],[68,21],[18,34],[-15,82],[-58,25],[-30,45]],[[5472,7574],[-4,80],[-30,37],[-35,166],[-18,23],[-98,22],[-51,-2],[-22,60],[-34,35],[-86,-44],[-38,23],[-12,47],[-54,33],[-112,-20],[-27,59],[58,-10],[13,49],[35,14],[33,88],[78,33],[51,71],[72,18],[74,168],[174,41],[64,-14],[49,-51],[57,50],[2,30],[104,43],[1,-41],[74,34],[13,90],[-50,66],[65,19],[22,-15],[104,63],[-14,68]],[[5930,8907],[35,-8],[102,47],[59,-19],[31,-46],[53,9],[87,-18],[32,54],[79,52],[56,56],[64,-6],[17,-86],[-33,-14],[17,-52],[-25,-72],[-59,-24],[16,-152],[36,-30],[-23,-80],[35,-4],[13,-51],[32,-21],[57,19],[10,-37],[-13,-74],[-49,-35],[47,-67],[55,15],[57,-20],[77,-82],[26,-87],[0,-106],[121,-15],[-13,-112],[-67,-59],[34,-94],[-17,-57],[61,-42],[25,-46],[60,-39],[93,-86],[47,-66],[98,-66],[24,-61],[66,-23],[64,-66],[-11,-71],[80,33],[12,30],[69,57],[-6,35],[75,94],[16,-58],[47,-64],[85,-21],[19,-38],[50,-37],[29,-45],[101,-54],[48,-14],[19,-109],[-42,-56],[-53,-21],[3,-54],[126,-24],[9,-60],[28,-21],[161,51],[26,66],[-37,76],[44,24],[57,-49],[90,-3],[10,46],[64,-52],[52,8],[104,-34],[-9,-73],[25,-79],[-44,-65],[11,-65]],[[5930,8907],[23,61],[61,12],[32,40],[53,16],[-6,80],[49,60],[48,16],[80,68],[36,69],[3,44],[112,61],[75,1],[10,36],[-82,97],[30,44],[63,44],[54,96],[101,77],[23,64],[222,94],[71,-15],[99,-169],[88,-22],[51,-26],[56,27],[114,-77],[148,37],[74,33],[60,135],[68,36],[13,-28],[63,-11],[26,-40],[92,-50],[15,-87],[60,-6],[61,-47],[14,-43],[84,-6],[72,25],[62,102],[94,11],[80,-16],[32,-22],[88,68],[86,-29],[37,30],[88,-15],[36,-67],[61,-6],[18,-63],[46,-45],[132,65],[24,23],[59,-63],[40,17],[50,-18],[56,25],[105,24],[126,13],[100,-54],[35,12],[13,54],[55,37],[72,-4],[40,-32],[57,-111],[53,-32],[-3,-72],[61,-71],[88,-40],[86,-106],[8,-44],[50,-39],[16,-51],[87,-26],[45,-83],[-16,-51],[20,-98],[-18,-44],[-51,-30],[-19,-51],[-63,-24],[14,-67],[-62,-85],[7,-28],[81,-112],[11,-38],[-61,-77],[22,-68],[-13,-81],[-44,-34],[-15,-52],[18,-138],[63,-69],[30,-76],[40,-11],[20,-53],[59,-27],[-8,-48],[66,-33],[-19,-26]],[[10491,7604],[-72,-2],[-47,-48],[-118,1],[-86,56],[-39,-19],[-53,21],[-38,-25],[34,-38],[-37,-84],[13,-29],[-34,-42],[-133,-55],[-1,-27],[-62,-24],[-20,-54],[-106,99],[40,31],[-6,55],[-40,29],[-39,101],[-68,98],[-51,33],[-93,-83],[-100,-4],[-84,-29],[-76,46],[-33,0],[-47,-80],[-65,-43],[-53,-16],[-1,-91],[-59,-51],[37,-87],[44,-46],[-29,-55],[-27,-166],[83,-34],[100,-80],[60,-78],[-18,-107]],[[2111,1438],[39,-26],[85,18],[63,-81],[-34,-26],[-111,-6],[-75,24],[33,97]],[[1643,2023],[-37,-24],[-42,-95],[-14,-125],[-55,-25],[122,-58],[26,5],[70,-115],[-15,-41],[-190,-21],[-64,-46],[-63,1],[-43,39],[-65,-7],[72,151],[-70,32],[-76,11],[-31,21],[-75,-42],[-8,79],[-67,1],[-43,-43],[-53,75],[-43,-8],[21,132],[-8,60],[-42,30],[-47,68],[-15,49],[16,53],[34,37],[-12,56],[-79,74],[-25,95]],[[722,2442],[17,67],[80,43],[36,-55],[50,51],[12,68],[-8,48],[135,6],[41,-56],[0,-66],[-21,-47],[32,-49],[-33,-24],[-36,-100],[39,-62],[133,-47],[30,-24],[45,10],[28,73],[99,6],[65,19],[19,-65],[78,-39],[36,-40],[-4,-45],[48,-91]],[[5355,4612],[33,5],[39,67],[-3,39],[51,67],[36,-15],[72,13],[19,35],[75,-7],[83,79],[11,49],[57,33],[70,15],[73,-3],[106,72],[-7,131],[66,91],[6,80],[40,59]],[[6817,5350],[70,-30],[-30,-49],[48,-72],[53,-27],[19,-113]],[[6641,2355],[-31,-41],[-32,46],[-98,72],[14,67],[-72,42],[-65,8],[-57,-44],[-86,-33],[-42,-43],[-13,-79],[-35,-31],[-29,-62],[11,-63],[-28,-23]],[[4630,2545],[-10,50],[55,29],[7,36],[-41,125],[128,114],[29,-10]],[[6247,2213],[42,-54],[-65,-68],[-94,30],[7,46],[110,46]],[[2546,2892],[40,-44],[-31,20],[-101,-43],[59,-17],[14,-30],[-89,-35],[-28,61],[-53,0],[-58,-61],[11,-56],[-26,-70],[-42,-65],[-23,2],[-103,-133],[-79,-57],[-51,-84],[8,-25],[-144,-126],[-39,12],[-54,-42],[-27,-44],[-87,-32]],[[722,2442],[-22,55],[10,68],[39,30],[6,47],[-36,65],[-46,-31],[-112,-9],[-35,62],[0,86],[-68,57],[-56,25],[-6,37],[-113,-24],[5,111],[-12,36],[52,121],[4,51],[-60,26],[37,94],[-34,76],[-12,59],[38,31],[28,171],[33,55],[-46,98],[-32,41],[-35,130],[-46,69],[-27,9],[-6,60],[19,53],[-61,63],[-38,14],[-66,-9],[-24,17],[87,105],[5,86],[40,82],[49,8],[141,55],[64,6],[39,62],[51,36],[41,67],[56,22],[54,49],[43,95],[-9,54],[62,46]],[[723,5059],[23,-36],[74,-64],[41,-86],[54,13],[60,-103],[-3,-45],[90,-76],[99,3],[41,-28],[-144,-131],[29,-66],[68,-44],[0,-26],[62,-69],[20,-44]],[[2521,2921],[25,-29]],[[2412,2494],[8,-59],[53,-25],[-11,-41],[72,-58],[-4,-89],[-58,-70],[-45,-24],[-41,-48],[-132,-91],[-22,-52],[-59,-70],[-158,-91],[-66,-22],[-31,9],[-46,156],[-38,13],[119,105],[52,89],[0,54],[55,90],[71,26],[23,34],[65,24],[45,-7],[51,60],[97,87]],[[4120,5064],[81,37],[54,41],[38,-4],[72,101],[-26,25],[-11,73],[48,67],[-23,39],[39,99],[43,34],[13,63],[32,13],[27,80],[-67,101],[72,95],[46,-1],[-2,51],[50,43],[-23,39],[-57,2],[-52,-47],[-23,85],[-80,35],[8,58],[34,37],[-24,102],[37,94],[42,53],[-63,80],[-85,25],[-9,69],[27,72],[-11,43],[-83,65],[-33,55],[-43,27],[4,47],[-76,54],[-24,41]],[[4072,7057],[45,15],[23,57],[62,53],[113,-16],[3,39],[96,49],[46,67],[117,84],[42,-11],[57,26],[-13,41],[71,53],[94,-3],[15,-31],[81,-21],[36,23],[100,-73],[62,0],[30,93],[33,51],[70,35],[47,-10],[35,-63],[38,-6],[32,41],[65,24]],[[3270,1072],[16,-85],[-92,-27],[11,64],[65,48]],[[2833,1232],[52,-20],[121,-70],[26,5],[58,-93],[-28,-75],[-70,-27],[-144,20],[-34,66],[7,75],[-19,60],[31,59]],[[2712,2198],[58,-17],[-4,-43],[-54,19],[0,41]],[[3598,2352],[21,-78],[93,-100],[39,-84],[-22,-62],[-2,-88],[-25,-46],[26,-148],[-33,-31],[-15,-83],[-1,-167],[-60,-27],[-17,-33],[-50,-4],[-17,-119],[64,-77],[13,-55],[52,-77],[19,-56],[-23,-60],[-37,-35],[-166,-90],[-66,-11],[-20,17],[-81,2],[-31,-34],[-56,-2],[54,72],[-8,31],[66,82],[-14,51],[49,110],[-45,8],[17,87],[76,-4],[-7,33],[-54,22],[-36,62],[-4,42],[-49,0],[-25,-149],[-91,11],[6,111],[-19,46],[-108,68],[-159,185],[13,61],[-7,103],[-28,63],[-106,95],[41,35],[55,-46],[47,36],[245,-28],[46,-33],[29,-88],[73,-122],[11,-70],[45,-19],[111,56],[59,-126],[69,-63],[18,113],[22,60],[-1,52],[-84,133],[-74,49],[-30,47],[-35,-16],[-4,-65],[-54,-24],[-74,17],[-23,59],[84,71],[18,74],[-68,50],[-21,46],[9,53],[55,36],[31,-30],[116,21],[94,-10],[16,-29],[59,30],[-11,89]],[[3911,2970],[-1,4]],[[4402,3090],[-29,-120],[4,-37],[-116,-134],[-57,5]],[[3917,2933],[-6,37]],[[3826,2357],[-24,58],[-68,71],[-17,55],[50,82],[20,5],[16,81],[-49,35],[-57,-15],[36,113],[92,7],[21,44]],[[723,5059],[-10,44],[44,72],[-74,49],[-33,57],[4,46],[112,208],[-33,53],[62,56],[-7,27],[55,58]],[[843,5729],[74,-128],[50,26],[47,-15],[115,38],[19,91],[31,10],[31,53],[27,109],[75,-6],[22,-59],[40,-39],[79,12],[31,78],[51,76],[72,2],[25,-19],[75,4],[32,-23],[-9,-44],[118,-79],[102,96],[25,51],[36,2],[51,48],[47,-35],[62,-19],[30,39],[26,112],[47,68],[17,65],[71,60],[41,-2],[65,-57],[36,-69],[70,-41],[22,-31],[-35,-38],[26,-110],[30,-34],[-35,-69],[3,-29],[-81,-75],[21,-44],[52,-45],[-28,-41],[75,-79],[-25,-142],[20,-44],[68,-3],[42,-64],[44,39],[109,-21],[21,30],[60,-10],[26,-84]],[[843,5729],[47,75],[14,51],[62,89],[46,105],[-29,43],[-105,12],[-19,-22],[-103,79],[7,58],[90,37],[13,56],[90,38],[13,29],[125,62],[54,65],[55,-26],[96,45],[-6,55],[62,42],[53,-38],[102,46],[35,140],[-13,51],[62,30],[82,100],[-14,36],[15,98],[-38,37],[36,45],[137,1],[67,-47],[86,-40],[-31,-56],[37,-15],[2,-53],[82,-57],[73,-13],[29,78],[37,45],[-7,31],[57,35],[24,41],[73,-83],[73,-24],[105,32],[45,44],[169,30],[80,-61],[-13,-84],[49,-30],[91,6],[129,130],[83,18],[-3,74],[-26,46],[71,23],[54,64],[76,-55],[-6,-17],[93,-56],[0,-29],[74,-25],[50,5],[94,-48],[93,41],[83,-51],[124,72],[55,-46],[88,-36]],[[7261,2242],[63,-40],[-2,-71],[-47,-174],[-28,-67],[-102,-125],[-2,-94],[13,-67],[-32,-51],[-61,26],[-108,-18],[-108,-60],[-128,4],[-67,17],[-57,58],[-56,84],[-12,45],[48,19],[0,46],[-48,50],[55,38],[81,-39],[62,77],[59,-4],[118,130],[37,0],[4,-65],[56,-64],[40,20],[36,137],[92,96],[54,68],[40,24]],[[7137,2390],[-13,-56],[30,-36],[69,39],[-10,-87],[-80,-49],[-12,40],[-52,30],[1,67],[67,52]],[[10491,7604],[53,-80],[-23,-36],[29,-56],[49,-42],[88,3],[47,-104],[74,-6],[5,-39],[48,-9],[29,-52],[-4,-106],[-63,-69],[21,-92],[-41,-54],[-22,-68],[21,-56],[-10,-63],[28,-98],[-69,-90],[4,-70],[63,-34],[12,-111]]],"transform":{"scale":[0.00012319466197892643,0.00010602352517185411],"translate":[132.0364480546341,34.04682610853814]},"objects":{"municipalities":{"type":"GeometryCollection","geometries":[{"arcs":[[[0,1,2,3,4,5,6,7,8],[9]],[[10]],[[11]],[[12]],[[13,14,15]],[[16,17,18,19]]],"type":"MultiPolygon","properties":{"code5":"34100","name":"広島市"}},{"arcs":[[[-19,20,21,22,23]],[[24]],[[25]],[[26]],[[27]],[[28]],[[29]],[[30]],[[31]],[[32]],[[33]],[[34]],[[35]]],"type":"MultiPolygon","properties":{"code5":"34202","name":"呉市"}},{"arcs":[[[36]],[[37]],[[38,39,40]]],"type":"MultiPolygon","properties":{"code5":"34203","name":"竹原市"}},{"arcs":[[[-41,41,42,43,44]],[[45]],[[46]]],"type":"MultiPolygon","properties":{"code5":"34204","name":"三原市"}},{"arcs":[[[-44,47,48,49,50]],[[51]],[[52]],[[53]],[[54]],[[55]],[[56]],[[57]],[[58]],[[59,60]]],"type":"MultiPolygon","properties":{"code5":"34205","name":"尾道市"}},{"arcs":[[[-61,61,-50,62,63,64]],[[65]],[[66]],[[67]],[[68]]],"type":"MultiPolygon","properties":{"code5":"34207","name":"福山市"}},{"arcs":[[-49,69,70,71,72,-63]],"type":"Polygon","properties":{"code5":"34208","name":"府中市"}},{"arcs":[[-71,73,74,75,76,77]],"type":"Polygon","properties":{"code5":"34209","name":"三次市"}},{"arcs":[[-72,-78,78,79]],"type":"Polygon","properties":{"code5":"34210","name":"庄原市"}},{"arcs":[[[80]],[[81,82]]],"type":"MultiPolygon","properties":{"code5":"34211","name":"大竹市"}},{"arcs":[[[-6,83,-75,84,-42,-40,85,-22,86]],[[87]]],"type":"MultiPolygon","properties":{"code5":"34212","name":"東広島市"}},{"arcs":[[[88,-83,89,90,-2,91]],[[92]]],"type":"MultiPolygon","properties":{"code5":"34213","name":"廿日市市"}},{"arcs":[[-5,93,94,-76,-84]],"type":"Polygon","properties":{"code5":"34214","name":"安芸高田市"}},{"arcs":[[[95]],[[96]],[[97]],[[98]]],"type":"MultiPolygon","properties":{"code5":"34215","name":"江田島市"}},{"arcs":[[-10]],"type":"Polygon","properties":{"code5":"34302","name":"府中町"}},{"arcs":[[99,-8,100,-17,-16,101]],"type":"Polygon","properties":{"code5":"34304","name":"海田町"}},{"arcs":[[-18,-101,-7,-87,-21]],"type":"Polygon","properties":{"code5":"34307","name":"熊野町"}},{"arcs":[[-14,-20,-24,102]],"type":"Polygon","properties":{"code5":"34309","name":"坂町"}},{"arcs":[[-3,-91,103,104]],"type":"Polygon","properties":{"code5":"34368","name":"安芸太田町"}},{"arcs":[[-4,-105,105,-94]],"type":"Polygon","properties":{"code5":"34369","name":"北広島町"}},{"arcs":[[[106]],[[107]]],"type":"MultiPolygon","properties":{"code5":"34431","name":"大崎上島町"}},{"arcs":[[-43,-85,-74,-70,-48]],"type":"Polygon","properties":{"code5":"34462","name":"世羅町"}},{"arcs":[[-64,-73,-80,108]],"type":"Polygon","properties":{"code5":"34545","name":"神石高原町"}}]}}}