{"type":"Topology","arcs":[[[7522,8874],[-44,40],[-62,-5],[-39,61],[-114,15],[-62,-47],[14,-58],[-105,-89],[-112,30],[-77,-18],[-83,44],[-88,-3],[-62,124],[-4,30],[-67,96]],[[6617,9094],[-35,60]],[[6582,9154],[30,36],[97,33],[51,-8],[35,-38],[57,106],[72,14],[45,26],[-2,45],[-89,28],[-40,33],[-9,61],[-101,43]],[[6728,9533],[23,53],[-23,58],[-53,29],[-6,30],[-62,39],[-19,55],[-36,0],[-14,54],[-57,62],[16,50],[-25,71],[-45,24],[-54,87],[-6,9]],[[6367,10154],[35,52],[3,46],[-99,107],[24,63],[-12,45],[-34,28]],[[6284,10495],[90,64],[49,116],[73,36],[61,12],[160,-12],[49,-33],[66,-4],[33,-62],[55,-22],[15,56],[128,1],[0,152],[158,23],[1,-76],[-86,-12],[1,-65],[85,1],[0,-56],[-169,-67],[54,-32],[179,77],[21,81],[294,-31],[-9,-22],[59,-37],[33,1],[26,-40],[-11,-68],[-75,12],[4,-39],[64,-5],[-23,-137],[-68,-28],[-70,-81],[-44,-26],[-101,5],[-17,-56],[-295,-89],[-33,13],[-36,81],[-22,16],[53,-158],[319,92],[-1,-43],[26,51],[122,33],[61,57],[12,-102],[-46,-71],[56,2],[29,36],[-18,70],[-12,78],[102,64],[-3,28],[68,44],[12,36],[-23,46],[31,111],[199,84],[98,19],[25,-58],[-91,-59],[22,-50],[158,64],[25,-34],[-168,-85],[-9,-40],[36,24],[167,83],[121,-123],[-129,-66],[25,-26],[140,56],[51,-66],[-48,-32],[-3,-57],[42,-4],[25,46],[64,-16],[42,40],[94,17],[20,4],[90,76],[55,58],[74,170],[18,17],[12,86],[37,76],[82,43],[77,63],[-7,103],[13,63],[76,-8],[36,-27],[175,30],[97,93],[85,-51],[91,-36],[38,-52],[-55,-75],[35,-46],[-8,-60],[-101,0],[-28,-87],[26,-45],[-90,-66],[129,-60],[-13,-40],[-79,-6],[-32,-65],[24,-64],[-44,-5],[-30,43],[-32,-57],[-49,-23],[22,-52],[110,-42],[19,-29],[-42,-181],[-56,17],[12,113],[-46,7],[-39,-48],[3,-105],[-47,-60],[21,-35],[44,54],[93,-4],[-46,-198],[-55,-2],[-48,-60],[-55,-13],[-12,-115],[-155,53],[-36,-107],[68,-142],[29,-88],[132,27],[12,-14]],[[9307,9261],[-67,-62],[-138,-165],[-26,0],[-44,-113],[-83,-35],[-37,5],[-71,-28],[-69,46],[-101,-56],[2,-42],[-65,-50],[33,-116],[-38,-65],[5,-25]],[[8608,8555],[-28,-32],[-48,82],[-36,-70],[-16,-70],[-23,-23],[-3,-55]],[[8454,8387],[-25,15],[-23,80],[-111,-8],[-101,-85]],[[8194,8389],[-48,24],[-76,-8],[-50,-28],[-26,-84],[-28,-17],[-68,15],[-106,-22],[-48,-29]],[[7744,8240],[-10,48],[-69,30],[-31,62],[-51,13],[-15,84]],[[7568,8477],[8,89],[-27,15],[1,87],[-28,74],[30,61],[-30,71]],[[7615,10838],[31,-10],[23,-50],[176,73],[125,-121],[-132,-55],[-92,-46],[-75,44],[-46,-18],[-252,26],[-1,63],[-65,0],[0,64],[218,0],[90,30]],[[6797,11642],[15,-40],[45,7],[-29,-85],[-43,38],[-21,52],[33,28]],[[7658,11437],[68,-74],[24,-87],[-52,25],[-35,79],[-5,57]],[[9873,9546],[-95,-16]],[[9778,9530],[-45,257],[95,15],[45,-256]],[[2638,7293],[59,-38],[-2,-59],[59,-80],[3,-80],[-50,-50],[-11,-35],[-64,-17],[-33,19],[-27,105],[25,25],[18,79],[-10,102],[33,29]],[[3572,6892],[50,19],[-60,59],[36,39],[17,56],[31,10],[93,-27],[-15,40],[-87,28],[18,69],[41,45],[-54,18],[32,92],[39,14],[90,-28],[12,62],[-48,29],[-33,-14],[-70,22],[-13,26],[201,96],[69,-18],[19,37],[-87,145],[61,41],[8,46],[-21,48],[-118,-4],[-35,-27],[-60,-5],[-52,-29],[16,-73],[-65,-42],[-296,-67],[-45,-59],[-34,-20],[-13,-111],[23,-50],[-67,1],[-43,48],[-106,40],[-54,-30],[-87,124],[103,3],[106,17],[68,44],[139,39],[57,27],[135,83],[125,96],[60,73],[103,105],[-3,45],[20,66]],[[3778,8140],[124,-49],[104,-107],[65,-12],[23,-86],[49,-123],[87,38],[47,-38]],[[4277,7763],[-16,-69],[33,-40],[-16,-32],[105,-153],[-6,-58],[112,8],[40,-35],[-23,-52],[21,-81]],[[4527,7251],[2,-32],[-85,-58],[-33,40],[-72,44],[-29,35],[-56,-73],[-67,-23],[-25,-51],[-29,5],[-25,-69],[-103,-70],[36,-44],[-23,-25]],[[4018,6930],[-1,-3],[82,-46],[47,-71],[37,8],[41,-64],[57,-47],[81,-108],[19,-58],[-21,-62],[43,-26],[39,-53]],[[4442,6400],[0,-1]],[[4442,6399],[-76,-88],[-41,8],[-69,110],[-44,-24],[70,-88],[-9,-60],[26,-42],[-21,-71]],[[4278,6144],[-54,-23],[-37,40],[-73,108],[-60,-12],[-63,-55],[6,-60],[27,-51],[-71,-49],[16,-43],[-33,-26]],[[3936,5973],[-56,-3],[-15,89],[-60,-30],[-41,-49],[-57,-14],[-67,-43],[0,-57],[-54,-5],[-22,-69],[-101,0],[-37,-17],[-48,30],[-59,-39],[70,-83],[30,-119],[-1,-77],[17,-58],[49,-101],[-22,-50],[22,-83],[111,-69],[-4,-40],[54,-53],[-13,-29],[-70,25],[2,-147]],[[3564,4882],[-49,-15],[-37,23],[-88,-35],[-31,59],[-46,34],[-70,20],[-75,-19],[-102,134],[-89,3],[-13,58],[-30,11],[-121,85],[-57,-7],[-27,44],[-53,13],[-24,-21],[-72,26],[-46,67],[-29,2],[-113,106],[-45,6]],[[2347,5476],[14,50],[-9,50],[33,15],[-41,65],[59,74],[16,57],[60,5],[61,68],[4,69],[-39,41],[-9,41],[19,58],[-6,84],[-48,10],[-61,51],[-77,37],[-32,32],[-8,75],[-80,-16],[-29,30],[-47,-20],[-44,19],[-47,-69],[-41,42],[30,40],[-26,86],[26,12],[17,64],[-33,84],[-108,11],[-40,-22],[-34,13],[-72,96],[-21,86],[4,109],[-41,40],[-9,150],[17,68],[-28,36],[1,40],[-60,52]],[[1618,7309],[23,61],[63,17],[25,79],[-18,30],[-10,86],[37,43],[112,-93],[93,-43],[15,-47],[45,-30],[-24,-54],[-55,-23],[0,-45],[-39,-16],[-2,-53],[48,-68],[-4,-38],[24,-69],[60,-35],[85,-24],[152,-10],[40,22],[72,-14],[16,-20],[-43,-155],[-46,13],[-34,62],[-116,-32],[11,-37],[80,-62],[43,31],[23,-81],[61,-49],[69,-19],[64,25],[60,-34],[110,37],[79,52],[17,116],[95,4],[4,-54],[35,-1],[47,44],[109,-20],[95,-7],[36,17],[28,2],[95,55],[45,40],[75,-27],[17,-67],[26,-31],[74,36],[-48,50],[-35,66],[51,26],[45,-85],[24,12]],[[1923,7934],[59,-17],[27,-37],[-3,-63],[-45,-18],[-55,45],[-30,54],[47,36]],[[32,9986],[23,-61],[-15,-72],[-40,46],[32,87]],[[3809,7715],[37,-39],[32,-77],[-20,-38],[-85,-40],[-33,35],[-156,-67],[-39,76],[9,28],[65,31],[137,90],[53,1]],[[2616,7877],[37,-21],[65,-104],[59,-143],[1,-50],[-81,-28],[-91,13],[-9,25],[-78,98],[-8,77],[-28,18],[40,62],[93,53]],[[5000,933],[-70,-42],[-31,-143],[-150,1],[-38,-47],[-88,-39],[-3,-26],[-69,-46],[-17,-35],[93,-136],[-7,-31],[18,-91],[52,-34],[20,-73],[28,-31],[-32,-74],[-37,-1],[-17,-41],[-78,31],[-80,-41],[-68,-16],[-47,21],[-45,-23],[-61,17],[-174,11],[-57,-16],[-85,30],[-112,1],[-105,-33],[-7,20],[-164,-46],[0,54],[124,54],[98,-18],[-49,102],[-42,-40],[-22,46],[150,139],[-37,75],[26,100],[4,72],[29,21],[-75,216]],[[3775,821],[138,37],[73,9],[55,33],[59,76],[-11,28],[222,13],[105,-46],[93,22],[31,34],[110,23],[10,69],[57,1],[34,-19],[32,-61],[-7,-46],[28,-46],[84,10],[29,24],[15,52],[32,-10],[36,-91]],[[6221,4137],[60,-7],[111,14],[156,-8],[53,24],[21,-46],[118,-11],[29,19]],[[6769,4122],[89,-21],[-5,-66],[-34,-5],[-19,56],[-68,-20],[-5,-33],[70,-24],[7,-44],[47,-2],[1,-78],[-47,1],[-25,-28],[-3,-149],[16,-41],[36,-211],[-46,-6]],[[6783,3451],[-184,49],[-65,-14],[-91,9],[-9,-22],[-80,-18],[-30,12],[-137,-15],[-87,-19],[-75,-31],[-92,12],[-59,-27],[-35,-54],[-54,10],[-57,-21],[2,-53]],[[5730,3269],[-28,-40],[-61,-26],[-56,-68],[-85,-20],[-62,-47],[-72,72],[-41,20],[-72,-33],[-21,-84],[-90,-19],[-108,-52],[-112,28],[9,-34],[-42,-19],[-46,26],[-23,-18],[-70,-4],[-41,20],[-8,-75]],[[4701,2896],[-36,-75],[-32,-26],[-44,23],[-50,-32],[-80,-3],[-52,-43],[-35,22],[-36,-106],[-26,12],[-29,-63],[-33,0],[-21,-45]],[[4227,2560],[-25,1],[-26,65],[-5,80],[-93,56],[-45,39],[-23,-11],[6,-81],[-68,-3],[22,-91],[-118,13],[-23,-70],[-54,25],[-52,-16]],[[3723,2567],[19,42],[-25,46],[-103,-31],[-58,29],[-37,72],[-63,22]],[[3456,2747],[51,55],[7,46],[-21,89],[30,35],[79,-12],[20,-120],[91,17],[35,29],[45,102],[-24,65],[37,52],[54,-14],[33,46],[12,67],[-10,65],[-30,45],[68,26],[46,-35],[-6,-63],[-27,-91],[11,-69],[61,-66],[72,12],[8,57],[-23,53],[5,42],[41,52],[117,22],[31,33],[-17,29],[-98,40],[-7,80],[24,28],[85,17],[114,-5],[65,22],[44,111],[-19,43],[-44,10],[-59,62],[11,36],[59,43],[151,-84],[60,63],[11,115],[53,33],[73,-41],[71,-3],[50,50],[40,-19]],[[4936,3917],[47,31],[94,-2],[-1,33],[68,25],[51,53],[81,0],[64,51],[13,85]],[[5353,4193],[266,5],[62,-22],[34,21],[139,-6],[-19,-54],[38,-107],[86,65],[103,50],[159,-8]],[[7568,8477],[-66,-34],[-52,19],[-34,-16],[-64,-136],[-80,-25],[-6,-30],[-246,-76],[11,-55],[-29,-29],[7,-47],[-32,-31]],[[6977,8017],[-46,-20],[-50,57],[-45,-15],[-21,33]],[[6815,8072],[-25,118],[18,17],[6,124],[-31,27],[-44,-28],[-52,39]],[[6687,8369],[-38,30],[-32,90],[-85,43],[-44,3],[-74,-40],[-22,55]],[[6392,8550],[-41,169],[128,52],[52,1],[13,100],[-44,92],[51,72],[66,58]],[[6977,8017],[39,-25],[71,-169],[-31,-43],[-6,-81],[18,-14],[11,-85],[22,-14]],[[7101,7586],[39,-111],[-31,-45],[-34,-3],[-22,-72]],[[7053,7355],[-35,-40],[31,-57],[-7,-42],[38,-30],[48,-83],[1,-37],[49,-77],[58,7],[51,-38],[3,-74],[-36,-42],[5,-48],[-73,-33],[-30,-64]],[[7156,6697],[-105,27],[-62,71],[-40,66],[-24,72],[13,64],[-72,7],[-100,62],[-74,-28],[-83,84],[-35,-1],[-46,-62],[25,-33],[-25,-146],[20,-32]],[[6548,6848],[-90,-43],[-56,11],[-30,65],[-52,-22],[-68,-2],[-25,-37],[-133,-18],[-46,-77],[62,3],[42,-23],[-33,-60],[29,-23],[63,-4],[-51,-144],[30,-46],[24,-121],[68,25],[46,-40],[-6,-64],[-61,-74],[-15,-47],[28,-63]],[[6274,6044],[-47,0],[-39,-74],[24,-63],[-15,-129],[-19,-23]],[[6178,5755],[-34,50],[-57,32],[-44,-14],[-64,-49],[-60,-8],[-7,28],[-73,-31],[-63,18]],[[5776,5781],[-32,113],[-58,13],[-24,27],[22,65],[-141,152],[-33,50],[11,32],[-91,71],[-22,32]],[[5408,6336],[-36,47],[-9,74],[-43,31],[-23,102],[-45,30],[-17,129],[-35,28]],[[5200,6777],[-46,71]],[[5154,6848],[26,7],[71,78],[115,-48],[56,4],[79,65],[35,78],[-54,39],[-70,-3],[28,84],[-15,72],[-82,63],[-23,3]],[[5320,7290],[70,101],[34,18],[108,26],[69,30],[52,-32],[74,62],[38,49],[-6,50],[26,43],[49,-29],[95,66],[20,77],[-1,57],[44,51],[62,-10],[91,41],[118,5]],[[6263,7895],[35,-32],[30,-57],[38,0],[38,34],[36,-14],[92,4],[46,-34],[45,10],[55,55],[14,56],[-26,40],[-1,49],[43,8],[48,-20],[46,26],[13,52]],[[7053,7355],[63,-52],[71,39],[63,15],[206,84],[1,55],[-48,115]],[[7409,7611],[47,9],[-3,38],[149,10],[-37,100],[30,33],[-5,88],[49,46],[79,-4],[80,29]],[[7798,7960],[10,-21],[-27,-79],[18,-79],[-30,-134],[8,-53],[40,-38],[71,-10],[-20,-48],[-48,-22],[40,-52],[93,-57]],[[7953,7367],[0,-55],[-56,-28],[-16,-59],[51,-59],[47,-113],[-32,-15],[-30,-63],[-73,-58]],[[7844,6917],[-23,49],[-58,-1],[-13,36],[-55,49],[-150,52],[-26,27],[-42,-12],[-11,-65],[76,-56],[-53,-149],[37,-60],[-24,-60],[6,-75],[-50,-45],[24,-36],[-56,-25],[-44,-54]],[[7382,6492],[-80,3],[-40,25],[24,45],[-108,85],[-22,47]],[[3880,2220],[19,2],[42,-91],[6,-61],[107,42],[108,10]],[[4162,2122],[32,-64],[-40,-53],[83,-22],[4,-23],[107,-7]],[[4348,1953],[-7,-43],[-160,7],[-3,-46],[-54,-21],[72,-34],[15,-46],[-14,-80],[-68,-8],[-15,-49],[21,-43],[-64,-55],[-52,-132],[-54,-37],[-17,-58],[-43,-78],[-120,-183],[-68,-57]],[[3717,990],[-218,80],[-19,33],[89,101],[10,28],[-94,41],[-145,94],[-6,41],[42,57],[-33,83],[-3,66],[-65,-26],[-107,15],[1,154],[-23,91],[-14,103]],[[3132,1951],[72,20],[30,-20],[49,37],[-16,41],[27,61],[34,38],[67,-34],[14,27],[78,-35],[38,-40],[46,65],[8,48],[38,44],[184,19]],[[3801,2222],[79,-2]],[[6783,3451],[10,-70],[51,-44],[-3,-50],[84,-35],[47,-45],[38,-9],[46,31],[162,-10],[44,-72],[82,-79],[58,24],[45,-9],[12,-72],[110,-12],[101,-67],[49,15],[53,-52]],[[7772,2895],[26,-98],[-23,-44],[11,-49],[65,-29],[193,-22],[69,-36],[-101,-69],[-42,-2],[-6,-41],[-55,-27],[-23,-73],[70,-38],[35,-47],[115,-58],[47,-57],[58,9],[52,-52],[123,-34],[-17,-114],[-77,-24],[-42,-73],[30,-36],[3,-60],[27,-74],[-82,-62],[-4,-58],[-38,-99],[-8,-79],[-32,-48],[-34,-15],[21,-44],[-59,-50],[-23,-46],[-90,-18],[-14,-22],[-60,-4],[-159,15],[6,55],[-90,60],[-44,-9],[-78,52],[-100,42],[-72,8],[-42,-18],[-66,13],[-55,49],[-13,40],[-53,-6],[-34,22],[-12,45],[-40,16],[-43,45],[-35,4],[-42,37],[-29,80],[-68,11],[-45,-28],[-105,39],[-29,-40],[-50,-2],[-70,22],[-37,-26],[-23,42],[20,57],[-77,104],[-51,26],[-22,-45],[9,-36],[-110,-83],[-12,-155],[26,-51],[-58,-50],[-30,-113],[3,-75],[-55,-31],[15,-79],[-158,56],[-62,-2],[-122,-22],[-57,-31],[-85,21],[-59,50],[-110,-10],[-43,24],[-51,0],[-69,-49],[-23,-57],[-89,-29]],[[5189,1190],[-57,36],[17,64],[-6,82],[-47,58],[-5,45],[20,110],[-39,63],[28,124],[-57,33],[-53,-30],[-27,51],[10,116],[25,105],[35,33],[-42,28],[-55,-1]],[[4936,2107],[-100,94],[19,90],[-46,-16],[-56,22],[44,55],[-21,114],[35,4],[-22,113],[46,47],[-62,1],[-5,10]],[[4768,2641],[55,20],[46,-13],[59,24],[96,-42],[60,23],[88,-2],[99,30],[81,6],[80,32],[121,77],[41,0],[28,-73],[54,-20],[72,7],[46,-12],[66,20],[1,90],[-27,29],[-80,128],[10,68],[-27,57],[-8,100],[24,62],[-23,17]],[[4701,2896],[13,-68],[-47,-102],[51,-7],[50,-78]],[[4936,2107],[-102,-34],[-111,-2],[-87,14],[-33,-24],[-62,-89],[-75,0],[-11,45],[31,16],[-24,54],[-106,5],[-8,-139]],[[4162,2122],[24,54],[-51,19],[-27,145],[64,23],[27,161],[28,36]],[[3723,2567],[6,-16],[102,-32],[-40,-104],[13,-43],[-18,-51],[22,-39],[-7,-60]],[[3132,1951],[10,110],[-60,17],[-42,72],[-22,2],[-8,190],[29,37],[121,11],[69,68],[139,54],[26,25],[2,81],[-82,79],[-5,42],[31,51],[52,-32],[64,-11]],[[8608,8555],[75,-13],[61,-31],[47,-3],[32,-48],[110,-10],[3,-25],[78,-21],[71,32],[64,10],[47,28],[55,8],[33,32],[69,-46],[57,25],[81,60],[41,14]],[[9532,8567],[40,-68],[33,34],[-17,35],[62,9],[30,-62],[-29,-42],[16,-31],[-30,-49],[61,-43],[40,-158],[53,-132],[40,-36],[46,-117],[63,-35]],[[9940,7872],[1,-47],[-89,-59],[-69,-4],[-68,46],[-67,-56],[-52,-26]],[[9596,7726],[-44,15],[-18,40],[6,61],[-17,36],[-79,57],[-54,-64],[-56,33],[-67,-24],[-63,17],[-13,-49],[-44,-5],[-97,-95],[-41,30],[-22,-28],[-75,-14],[-17,-32],[-50,-25],[-79,1],[21,63],[-3,48],[22,145],[-14,55],[60,97],[36,37],[-72,96],[-104,-13],[-21,30],[-45,-1],[-17,-107],[-61,26],[-20,69],[-51,20],[-43,142]],[[11122,7047],[-60,-107],[-71,-61],[37,-45]],[[11028,6834],[-46,-89],[-96,-53],[-37,-37],[-73,-37],[-28,-61],[-62,-73],[-31,-121],[-29,-34],[-24,-72],[-35,-53],[-159,-85],[11,-52],[-37,-73],[-85,-68],[-56,-12],[-86,-99]],[[10155,5815],[-45,13],[-96,-26],[-108,69],[-64,58],[-58,-2],[-30,-57],[-73,-15],[-41,-40],[-135,35],[-37,-23],[-76,-11]],[[9392,5816],[2,94],[43,111],[57,69],[18,-1],[84,81],[-12,42],[27,59],[-1,52],[116,121],[52,10],[64,92],[96,161],[31,98],[67,80],[104,77],[105,165],[53,27],[43,94]],[[10341,7248],[75,-76],[57,-112],[64,-12],[24,13],[-10,66],[52,0],[16,76],[56,-1],[32,-47],[78,7],[126,-17],[27,-33],[63,-11],[11,-24],[66,-35],[44,5]],[[6582,9154],[-30,59],[-81,5],[-43,65],[-71,-17],[-18,63],[-43,56],[-46,-21]],[[6250,9364],[-12,41],[65,40],[20,43],[80,1],[58,40]],[[6461,9529],[43,-46],[70,56],[-11,79],[76,-36],[71,-16],[18,-33]],[[4936,3917],[42,255],[17,13],[-3,429],[-6,197],[-36,58],[-22,93],[13,52]],[[4941,5014],[39,30],[90,-9],[26,33],[13,71],[77,-25],[98,-55],[9,-24],[73,-44]],[[5366,4991],[61,-78],[187,-124],[42,-79]],[[5656,4710],[-94,-26],[-12,-79],[-54,-7],[-74,-212],[-26,-11],[-47,-116],[4,-66]],[[5776,5781],[-28,-17],[-85,-99],[1,-36],[-59,-15],[-21,-27],[-127,-39],[-8,-49],[-80,-99],[-84,18],[-51,29],[-40,-38],[-2,-123],[35,-68],[49,-47],[49,-87],[88,-46],[-47,-47]],[[4941,5014],[-27,29],[-117,52],[-105,35],[-14,-61],[-60,36],[-75,-25],[-47,-57],[-109,-41],[-55,-8],[-128,-82]],[[4204,4892],[-35,27],[-17,61],[8,68],[42,35],[-7,61],[-25,28],[-4,53],[68,55],[18,47]],[[4252,5327],[71,-29],[19,21],[66,-12],[77,67]],[[4485,5374],[40,48],[9,61],[-24,47],[37,71],[-4,70],[72,110],[45,-68],[58,-1],[58,37],[11,45],[83,-15],[21,-30],[-4,-57],[53,-64],[44,-21],[56,77],[7,68],[21,32],[-29,44],[-59,27],[-9,32],[26,72],[49,31],[30,-34],[78,24],[25,58],[46,26],[34,103],[32,30]],[[5291,6197],[30,26],[41,96],[46,17]],[[4278,6144],[41,16],[39,-41],[-17,-49],[34,-39],[-8,-93],[-30,-50],[5,-47],[-52,-13],[-91,-59],[-54,-49],[-49,-22]],[[4096,5698],[-49,49],[29,62],[-94,66],[-46,98]],[[4442,6399],[35,-18],[94,23],[31,-11],[23,-60],[-12,-47],[62,-35],[-11,-52],[60,-65]],[[4724,6134],[-146,-69],[-50,24],[-50,-30],[54,-123],[-84,-72],[-3,-33],[32,-71],[-47,-53],[-13,-106],[36,-78],[-10,-22],[42,-127]],[[4252,5327],[-40,44],[-62,4],[-54,323]],[[5004,10157],[-13,-54],[106,-169],[47,-62],[67,-4],[56,-72],[-23,-35],[49,-103],[98,-54],[8,-93],[30,-95],[53,-72],[52,8],[58,53],[56,-19],[43,15],[112,-25],[51,-58],[64,-33]],[[5918,9285],[6,-71],[-33,-27],[9,-46],[56,-109]],[[5956,9032],[-61,0],[-22,-64],[11,-55],[-93,9],[-37,24],[-37,-17],[-21,-47],[-78,-5],[-45,-73],[32,-69],[-55,-31],[-70,-1],[-67,-23],[-2,-34],[-63,-12],[-179,-10],[-45,-50]],[[5124,8574],[-35,10],[-22,77],[-71,66],[29,93],[-57,20],[-6,51],[-33,20],[-89,1],[-53,-59],[-40,67],[-90,78],[-123,77],[43,51],[-9,59],[66,63],[0,31],[-61,70],[12,144],[-63,69],[-41,95],[-69,-4],[-5,52],[-23,14]],[[4384,9719],[22,31],[59,-28],[76,12],[154,55],[99,71],[66,118],[15,87],[-5,78],[113,-1],[21,15]],[[4475,10436],[76,-16],[22,-64],[74,-63],[-9,-45],[-43,-20],[-54,45],[-8,63],[-71,84],[13,16]],[[3980,10458],[51,-1],[39,-33],[-100,-119],[-50,-71],[-17,-88],[-41,-14],[-161,67],[-30,43],[26,160],[93,23],[89,-37],[23,48],[78,22]],[[777,14278],[3,-41],[-73,-76],[-68,26],[53,80],[85,11]],[[4724,6134],[0,-41],[57,-41],[91,70],[-5,78],[52,12],[73,62],[-10,65],[84,17],[81,-49],[79,-80],[65,-30]],[[5051,8347],[59,-30],[43,-50],[6,-41],[-102,-28],[-35,-85]],[[5022,8113],[-39,10],[-78,-14],[-110,-93],[-22,-102],[-65,-50],[-43,-16]],[[4665,7848],[-33,28],[-22,87],[-26,5],[-84,-58],[-132,31],[-47,-15],[-59,21],[-15,61],[23,18],[5,61],[-62,72],[-31,57],[-118,67]],[[4064,8283],[109,127],[29,50],[61,151]],[[4263,8611],[99,-25],[32,5],[83,-53],[92,-24],[104,-56],[40,5],[273,-33],[11,-34],[54,-49]],[[5124,8574],[-27,-70],[5,-77],[-40,-41],[-11,-39]],[[4263,8611],[14,50],[20,184],[-12,51],[-38,80],[-46,30],[-105,-40],[-44,67],[-2,48],[54,77],[-13,53],[-35,33],[-23,71],[43,20],[36,-72],[135,10],[76,82],[46,103],[37,175],[-1,70],[-21,16]],[[6769,4122],[1,73],[40,62],[49,6],[76,-119],[68,-26],[17,50],[52,-12],[56,9],[48,-43],[87,0],[38,-85],[55,-53],[66,7],[59,61],[134,65],[56,-13],[34,-38],[106,-64],[64,-78]],[[7875,3924],[66,-79],[29,24],[55,-24],[41,-85],[-4,-52],[19,-69],[66,-155],[-15,-21],[37,-73],[10,-53],[-23,-34],[-67,-48],[-50,-86],[43,-24],[9,-56],[33,-42],[67,14],[5,-45],[-41,-33],[-84,16],[-65,-17],[-34,-41],[-70,9],[-92,-9],[-38,-46]],[[6687,8369],[-41,-26],[6,-62],[-67,11],[-84,-71],[14,-164],[21,-48],[-30,-25],[-93,0],[-32,53],[-25,-49],[-72,-31],[-21,-62]],[[5320,7290],[-19,38],[-66,58],[26,53],[48,34],[13,40],[-47,64],[-83,29]],[[5192,7606],[-105,26],[-16,59],[-82,36],[-16,57],[51,142],[-39,52],[18,58],[-8,45],[27,32]],[[5956,9032],[50,-67],[2,-33],[57,-112],[-16,-18],[31,-88],[-5,-137],[27,-37],[6,-52],[38,-37],[84,9],[162,90]],[[7382,6492],[70,-93],[7,-48],[95,-100],[10,-101],[30,-18],[-30,-222],[4,-70],[62,-18]],[[7630,5822],[3,-85],[31,-59],[2,-45],[35,-49]],[[7701,5584],[-58,-18],[-33,-44],[7,-95],[-29,-37],[-120,6],[-26,-16]],[[7442,5380],[-39,98],[-72,23],[-140,73],[-66,4],[-87,-21],[-14,-18],[-67,36],[-144,-51],[-101,27],[-52,56],[-220,37],[-19,-33],[-49,24],[-93,70],[-40,-15]],[[6239,5690],[-61,65]],[[6274,6044],[48,22],[35,75],[40,47],[17,102],[43,0],[27,78],[-13,98],[63,41],[53,141],[10,100],[-21,70],[-28,30]],[[6221,4137],[-130,64],[-11,69],[-50,-18],[-69,13],[45,68],[10,75],[-200,55],[-11,42],[-66,20],[-22,43],[8,57]],[[5725,4625],[2,26],[72,58],[120,-4],[65,109],[28,22],[54,96],[29,-6],[44,57],[7,56],[-44,53],[-72,27],[20,44],[-16,47],[12,57],[41,30],[15,74],[47,33],[63,142],[6,60],[-19,22],[40,62]],[[7442,5380],[-76,-18],[-38,-25],[-47,-104],[-39,-25],[-11,-37],[74,-25],[56,16],[42,34],[34,-13],[71,40],[50,-28],[77,38],[72,-10],[104,-113],[-7,-84],[26,-12],[32,-66],[0,-55],[27,-85],[55,-51],[63,18],[20,-98],[32,-20],[54,-92],[-26,-77],[17,-54],[10,-174]],[[8114,4260],[21,-118],[-114,-101],[-78,-40],[-21,-51],[-47,-26]],[[3775,821],[-54,106],[-4,63]],[[5189,1190],[-5,-95],[41,-49],[2,-51],[-95,-12],[-34,-35],[-33,12],[-24,-40],[-41,13]],[[2347,5476],[-144,-38],[-50,-58],[-59,5],[-21,34],[-59,-4],[-47,55],[-65,-25],[-34,18],[-174,36],[-75,-24],[-34,-37],[-57,-16],[-1,-44],[-57,-48],[-67,-8],[-109,37],[-9,36],[-70,50],[-82,7],[-58,-34],[-37,-44],[-89,58],[-115,-5],[-146,9],[-10,-47],[-36,-22],[-93,-13],[-151,5],[-54,38],[-73,-24],[-98,-12],[-56,-22],[-41,38],[15,91],[65,100],[-5,89],[142,31],[77,53],[75,10],[55,32],[20,-14],[86,23],[77,67],[35,-37],[58,3],[21,-26],[51,1],[73,26],[61,84],[-10,61],[-69,20],[56,52],[39,-4],[72,43],[11,28],[105,25],[7,65],[44,22],[-5,43],[40,5],[26,70],[-11,69],[-83,-12],[-86,-99],[-55,-17],[-63,69],[-86,10],[-59,-102],[-39,-13],[10,81],[30,52],[117,4],[25,30],[3,57],[-45,7],[-42,64],[-63,24],[-43,-31],[-69,-22],[-15,-34],[-60,-39],[-29,9],[10,57],[-14,56],[-89,40],[6,63],[32,22],[103,26],[33,-31],[27,36],[-24,56],[17,40],[94,-54],[102,-20],[95,19],[109,59],[54,52],[65,82],[11,48],[-40,29],[-37,68],[27,81],[103,51],[12,-26],[65,-5],[51,35],[39,-4],[132,82]],[[143,6577],[53,-13],[11,-42],[-38,-61],[-52,36],[-7,42],[33,38]],[[4204,4892],[-33,-37],[2,-58],[-113,-16],[-44,-33],[-10,-62],[-41,-62],[13,-51],[-94,-40],[-68,19],[-28,30],[-79,-65],[-32,36],[73,122],[-75,71],[-27,9],[-84,127]],[[4442,6400],[26,42],[-1,69],[85,77],[22,43]],[[4574,6631],[51,7],[60,-44],[144,-19],[67,5],[136,33],[25,92],[113,73],[30,-1]],[[5154,6848],[-76,-8],[-122,-39],[-67,57],[-64,4],[-79,28],[-47,54],[-51,38],[-46,11],[-24,31]],[[4578,7024],[-3,141],[-29,30],[17,58]],[[4563,7253],[103,37],[33,-13],[39,32],[39,-25],[39,16],[47,-31],[74,29],[2,47],[66,16],[47,33],[-6,62],[19,43],[49,25],[78,82]],[[4018,6930],[61,-2],[55,38],[37,-2],[63,-71],[97,-59],[51,-62],[30,23],[61,-16]],[[4473,6779],[29,-87],[72,-61]],[[4473,6779],[29,39],[-25,41],[1,104],[100,61]],[[3778,8140],[32,67],[56,-36],[51,10],[147,102]],[[4665,7848],[-157,-100],[-37,-45],[-63,17],[-79,3],[-52,40]],[[3244,8763],[89,-26],[35,-56],[-85,11],[-46,-66],[-34,80],[41,57]],[[4563,7253],[-36,-2]],[[6367,10154],[-50,19]],[[6317,10173],[-15,-61],[-44,-58],[-40,-82],[-62,-6],[-20,-22],[-85,7],[-60,-35]],[[5991,9916],[7,104],[-15,48],[-56,21],[-12,26]],[[5915,10115],[155,79],[20,29],[96,72],[-15,73],[32,24],[-28,42],[109,61]],[[6461,9529],[-24,28],[-42,100],[-43,148],[-35,368]],[[5004,10157],[15,-13],[107,32],[72,-7],[28,-63],[41,-49],[73,-22],[136,-6],[148,10],[232,51],[59,25]],[[5991,9916],[9,-19],[-25,-108],[-36,-80],[86,-7],[58,18],[2,-49],[-44,-24],[-17,-63],[-37,-63],[-13,-59],[25,-95],[-32,-77],[-49,-5]],[[6250,9364],[-116,-6],[-46,-37],[-42,-72],[-74,-6],[-54,42]],[[5725,4625],[-69,85]],[[7701,5584],[37,-15],[79,8],[79,-45],[52,14],[49,-71],[-56,-56],[-57,-25],[-2,-44],[81,-71],[19,-56],[68,-109],[79,-10],[30,48],[74,-15],[73,17],[86,-6],[26,23],[86,-19],[8,-21]],[[8512,5131],[-52,-35],[26,-87],[-23,-61],[-35,-37],[8,-114],[-29,-55],[24,-99],[-43,-23],[0,-45],[-30,-127],[12,-116],[-229,-30],[-27,-42]],[[8194,8389],[-3,-43],[22,-90],[-6,-87],[32,-114],[59,-63],[-32,-65],[3,-58],[69,-79],[71,-146],[-39,-93],[-34,-37],[25,-62],[56,-27]],[[8417,7425],[-41,-38],[-103,-64],[-81,-11],[-22,35],[-94,31]],[[8076,7378],[-123,-11]],[[7798,7960],[35,85],[-11,83],[-33,17],[-15,59],[-30,36]],[[7630,5822],[14,65],[29,22],[65,7],[55,34],[48,152],[8,95],[-25,60],[22,74],[-2,150],[64,32],[-20,32],[8,64],[-49,43],[18,37],[-20,52],[40,8]],[[7885,6749],[31,-39],[57,-16],[106,41],[8,-68],[46,-26],[63,36]],[[8196,6677],[61,-148],[42,41],[53,8],[53,54],[56,-25],[65,-52],[40,-68],[85,-36],[28,-53],[47,-30]],[[8726,6368],[-20,-64],[68,-125],[61,-97],[-19,-80],[37,-65],[1,-75],[50,-46],[-22,-114],[90,-42],[27,-89]],[[8999,5571],[-73,-24],[-124,-216],[-6,-69],[-29,-35],[-103,-32],[-51,-57],[-101,-7]],[[7101,7586],[95,10],[123,65],[51,10],[39,-60]],[[7844,6917],[43,-55],[49,-25],[-51,-88]],[[8076,7378],[46,-83],[-13,-133],[21,-22],[-14,-50],[35,-76],[16,-71],[-14,-47],[71,-142],[-28,-77]],[[8417,7425],[20,-64],[-23,-32],[32,-64],[89,44],[55,-35],[-19,-33],[-5,-79],[-76,-139],[49,-51],[0,-70],[81,-97],[1,-71],[68,-35],[38,-131],[-12,-112],[26,-54],[-15,-34]],[[9873,9546],[29,-164],[-94,-15],[-30,163]],[[9307,9261],[39,-4],[260,106],[37,-93],[-108,-59],[-56,9],[18,-60],[-125,-60],[-9,-51],[40,-34],[24,62],[54,24],[34,-28],[-41,-30],[53,-94],[-7,-26],[-83,-70],[47,-64],[122,93],[59,-108],[-166,-123],[33,-84]],[[9596,7726],[-25,-34],[-57,-25],[-125,-115],[19,-39],[-35,-68],[2,-63],[23,-55],[-48,-53],[-22,-70],[-28,-6],[-45,-142],[-34,-48],[5,-31],[-41,-162],[-29,-29],[-13,-55],[-31,-46],[13,-36],[-19,-114],[10,-74],[79,-51],[37,-10],[-48,-113],[14,-38],[-50,-48],[16,-53],[-9,-135],[54,-120],[100,-93]],[[9309,5800],[-90,-30],[-26,-53],[-69,-32],[-10,-47],[-54,-18],[-61,-49]],[[11122,7047],[122,50],[60,-10],[3,-53],[-70,-125],[4,-92],[-62,-96]],[[11179,6721],[-55,6],[-14,72],[-82,35]],[[11179,6721],[11,-116],[28,-40],[100,-78],[32,-55],[11,-58],[-36,-160],[-100,-110],[-98,-65],[29,-86],[-16,-57],[60,-40],[18,-70],[-87,-11],[-39,33],[-72,-7],[-11,-20],[-129,-17],[-78,13],[-34,-38],[-110,-4],[-132,65],[-49,-34],[-67,30],[-137,-24],[-98,17],[-20,26]],[[9940,7872],[57,-33],[76,-149],[25,-9],[38,-83],[16,-71],[53,-27],[74,-96],[36,-129],[26,-27]],[[9392,5816],[-32,-21],[-51,5]]],"transform":{"scale":[0.00010189015810009202,0.00008753422642902425],"translate":[130.03299564223516,33.00002344152864]},"objects":{"municipalities":{"type":"GeometryCollection","geometries":[{"arcs":[[[0,1,2,3,4,5,6,7,8,9,10,11]],[[12]],[[13]],[[14]],[[15,16]]],"type":"MultiPolygon","properties":{"code5":"40100","name":"北九州市"}},{"arcs":[[[17]],[[18,19,20,21,22,23,24,25,26,27,28,29]],[[30]],[[31]],[[32]],[[33]]],"type":"MultiPolygon","properties":{"code5":"40130","name":"福岡市"}},{"arcs":[[34,35]],"type":"Polygon","properties":{"code5":"40202","name":"大牟田市"}},{"arcs":[[36,37,38,39,40,41,42,43,44,45]],"type":"Polygon","properties":{"code5":"40203","name":"久留米市"}},{"arcs":[[-12,46,47,48,49,50,-1]],"type":"Polygon","properties":{"code5":"40204","name":"直方市"}},{"arcs":[[-48,51,52,53,54,55,56,57,58,59,60,61,62,63]],"type":"Polygon","properties":{"code5":"40205","name":"飯塚市"}},{"arcs":[[-54,64,65,66,67,68,69]],"type":"Polygon","properties":{"code5":"40206","name":"田川市"}},{"arcs":[[70,71,72,73,74,75]],"type":"Polygon","properties":{"code5":"40207","name":"柳川市"}},{"arcs":[[-39,76,77,78,79,80]],"type":"Polygon","properties":{"code5":"40210","name":"八女市"}},{"arcs":[[-41,81,-80,82,-72,83]],"type":"Polygon","properties":{"code5":"40211","name":"筑後市"}},{"arcs":[[-43,84,-75,85]],"type":"Polygon","properties":{"code5":"40212","name":"大川市"}},{"arcs":[[-8,86,87,88,89]],"type":"Polygon","properties":{"code5":"40213","name":"行橋市"}},{"arcs":[[90,91,92,93,94]],"type":"Polygon","properties":{"code5":"40214","name":"豊前市"}},{"arcs":[[-3,95,96,97]],"type":"Polygon","properties":{"code5":"40215","name":"中間市"}},{"arcs":[[-45,98,99,100,101]],"type":"Polygon","properties":{"code5":"40216","name":"小郡市"}},{"arcs":[[-59,102,-100,103,104,105,106,107]],"type":"Polygon","properties":{"code5":"40217","name":"筑紫野市"}},{"arcs":[[-26,108,109]],"type":"Polygon","properties":{"code5":"40218","name":"春日市"}},{"arcs":[[-25,110,111,-106,112,-109]],"type":"Polygon","properties":{"code5":"40219","name":"大野城市"}},{"arcs":[[[113,114,115,116,117]],[[118]],[[119]],[[120]]],"type":"MultiPolygon","properties":{"code5":"40220","name":"宗像市"}},{"arcs":[[-107,-112,121]],"type":"Polygon","properties":{"code5":"40221","name":"太宰府市"}},{"arcs":[[122,123,124,125,126]],"type":"Polygon","properties":{"code5":"40223","name":"古賀市"}},{"arcs":[[-117,127,-127,128]],"type":"Polygon","properties":{"code5":"40224","name":"福津市"}},{"arcs":[[-38,129,130,-77]],"type":"Polygon","properties":{"code5":"40225","name":"うきは市"}},{"arcs":[[-50,131,-63,132,133,-123,-128,-116,134]],"type":"Polygon","properties":{"code5":"40226","name":"宮若市"}},{"arcs":[[-55,-70,135,136,137,138,139,-57,140]],"type":"Polygon","properties":{"code5":"40227","name":"嘉麻市"}},{"arcs":[[-37,141,142,-139,143,144,-130]],"type":"Polygon","properties":{"code5":"40228","name":"朝倉市"}},{"arcs":[[-36,145,-73,-83,-79,146]],"type":"Polygon","properties":{"code5":"40229","name":"みやま市"}},{"arcs":[[[-29,147]],[[148]]],"type":"MultiPolygon","properties":{"code5":"40230","name":"糸島市"}},{"arcs":[[-27,-110,-113,-105,149]],"type":"Polygon","properties":{"code5":"40231","name":"那珂川市"}},{"arcs":[[-24,150,151,-60,-108,-122,-111]],"type":"Polygon","properties":{"code5":"40341","name":"宇美町"}},{"arcs":[[-62,152,153,154,-133]],"type":"Polygon","properties":{"code5":"40342","name":"篠栗町"}},{"arcs":[[-23,155,156,-151]],"type":"Polygon","properties":{"code5":"40343","name":"志免町"}},{"arcs":[[-61,-152,-157,157,-153]],"type":"Polygon","properties":{"code5":"40344","name":"須恵町"}},{"arcs":[[[-20,158,-125,159]],[[160]]],"type":"MultiPolygon","properties":{"code5":"40345","name":"新宮町"}},{"arcs":[[-21,-160,-124,-134,-155,161]],"type":"Polygon","properties":{"code5":"40348","name":"久山町"}},{"arcs":[[-22,-162,-154,-158,-156]],"type":"Polygon","properties":{"code5":"40349","name":"粕屋町"}},{"arcs":[[-5,162,163,164,165]],"type":"Polygon","properties":{"code5":"40381","name":"芦屋町"}},{"arcs":[[-4,-98,166,-163]],"type":"Polygon","properties":{"code5":"40382","name":"水巻町"}},{"arcs":[[-114,167,-165,168]],"type":"Polygon","properties":{"code5":"40383","name":"岡垣町"}},{"arcs":[[-97,169,-169,-164,-167]],"type":"Polygon","properties":{"code5":"40384","name":"遠賀町"}},{"arcs":[[-49,-64,-132]],"type":"Polygon","properties":{"code5":"40401","name":"小竹町"}},{"arcs":[[-2,-51,-135,-115,-170,-96]],"type":"Polygon","properties":{"code5":"40402","name":"鞍手町"}},{"arcs":[[-56,-141]],"type":"Polygon","properties":{"code5":"40421","name":"桂川町"}},{"arcs":[[-58,-140,-143,170,-101,-103]],"type":"Polygon","properties":{"code5":"40447","name":"筑前町"}},{"arcs":[[-138,171,172,-144]],"type":"Polygon","properties":{"code5":"40448","name":"東峰村"}},{"arcs":[[-46,-102,-171,-142]],"type":"Polygon","properties":{"code5":"40503","name":"大刀洗町"}},{"arcs":[[-42,-84,-71,-76,-85]],"type":"Polygon","properties":{"code5":"40522","name":"大木町"}},{"arcs":[[-40,-81,-82]],"type":"Polygon","properties":{"code5":"40544","name":"広川町"}},{"arcs":[[-10,173,174,175,-67,176]],"type":"Polygon","properties":{"code5":"40601","name":"香春町"}},{"arcs":[[-137,177,178,179,180,181,-172]],"type":"Polygon","properties":{"code5":"40602","name":"添田町"}},{"arcs":[[-53,182,-65]],"type":"Polygon","properties":{"code5":"40604","name":"糸田町"}},{"arcs":[[-69,183,-178,-136]],"type":"Polygon","properties":{"code5":"40605","name":"川崎町"}},{"arcs":[[-68,-176,184,-179,-184]],"type":"Polygon","properties":{"code5":"40608","name":"大任町"}},{"arcs":[[-175,185,-180,-185]],"type":"Polygon","properties":{"code5":"40609","name":"赤村"}},{"arcs":[[-11,-177,-66,-183,-52,-47]],"type":"Polygon","properties":{"code5":"40610","name":"福智町"}},{"arcs":[[[-16,186]],[[-7,187,-87]]],"type":"MultiPolygon","properties":{"code5":"40621","name":"苅田町"}},{"arcs":[[-9,-90,188,189,-181,-186,-174]],"type":"Polygon","properties":{"code5":"40625","name":"みやこ町"}},{"arcs":[[-91,190,191]],"type":"Polygon","properties":{"code5":"40642","name":"吉富町"}},{"arcs":[[-92,-192,192]],"type":"Polygon","properties":{"code5":"40646","name":"上毛町"}},{"arcs":[[-89,193,-94,194,-189]],"type":"Polygon","properties":{"code5":"40647","name":"築上町"}}]}}}