{"type":"Topology","arcs":[[[10435,6362],[-5,-49],[-56,-9],[-43,-29],[-52,65],[156,22]],[[9445,5336],[-35,120],[-47,80],[-60,7],[-66,-19],[-61,-58],[-56,-1],[-78,-33],[-97,-78],[-37,29],[-60,-22],[-32,-39],[-197,-63],[-34,10],[-39,-67],[-77,-45],[-59,48],[-76,-64],[-11,-52],[-86,-128],[44,-39],[12,-41],[-29,-63],[-3,-45],[-41,-27],[33,-67],[-73,-189],[-16,-63],[33,-62],[-79,-92],[-8,-103],[21,-70],[-130,-21],[-55,69],[-28,-11],[-47,46]],[[7871,4183],[-160,32],[-64,-48],[-73,-25],[-30,5],[-16,50],[-32,18],[-88,15],[-29,29],[-87,35],[-98,76],[-52,9],[-50,-12],[-56,-53],[-58,41],[-63,10],[-60,90],[-81,12],[-46,73],[-113,-11],[-26,-61],[-65,-15],[-62,-37],[-34,-44],[-63,-3],[-68,-27],[-104,-91],[51,-54],[-66,-124],[-110,-26],[-74,-39],[-86,21],[-54,36],[-26,50],[-21,119],[18,44],[-114,-8],[-31,-63],[-158,-99],[-34,21],[17,98],[-28,25]],[[5477,4252],[1,42],[89,58],[48,89],[-26,51],[35,71],[-53,43],[-13,47],[22,44],[81,43],[49,82],[84,4],[44,-46]],[[5838,4780],[21,96],[59,-17],[62,85],[111,73],[40,5],[1,62],[132,30],[3,44],[34,76],[38,31],[73,103],[85,44],[61,47],[-34,56],[49,55],[-47,76],[49,121],[-13,47],[10,70],[48,4],[-20,71],[-37,17],[-73,-8],[-52,58],[-18,-11]],[[6420,6015],[-44,64],[-2,69],[16,57]],[[6390,6205],[58,1],[142,-90],[76,-9],[34,12],[88,-26],[89,-45],[172,-65],[44,16],[-7,36],[78,32],[-15,39],[131,62],[95,25],[312,100],[22,3],[55,-174],[51,25],[-49,164],[83,36],[33,-111],[48,-21],[-38,146],[103,3],[123,-55],[94,-71],[-52,-71],[28,-24],[53,75],[147,-110],[0,-42],[66,-45],[89,-8],[-42,-50],[72,-26],[0,122],[107,-1],[32,-24],[-1,-58],[84,35],[45,-37],[122,-30],[88,-1],[158,57],[168,19],[5,34],[70,2],[63,41],[36,-36],[95,-42],[-4,47],[-29,64],[77,47],[73,28],[122,29],[58,-4],[1,-64],[-35,-21],[-93,-179],[-94,2],[-72,-134],[55,-74],[-38,-50],[-13,-61],[-53,-33],[-48,-96],[26,-29],[51,-8],[-67,-71],[-39,12],[-76,-64],[-2,-23]],[[6420,6015],[-51,-8],[-53,46],[-54,-26],[20,-130],[2,-109],[-29,-51],[-35,47],[-106,28],[-38,-49],[-71,28],[-83,72],[-32,14],[-23,70],[-50,0],[-48,-35],[9,-41],[-94,-17],[-20,57],[-42,-7],[-39,-34],[-57,-2],[-78,-29],[-62,-53],[-46,-17],[-83,21],[-28,22],[-93,28],[-26,29],[13,83],[-17,49],[51,89],[40,19],[49,82],[1,61],[-33,33],[3,88],[41,17],[105,8],[131,93],[-20,57],[42,145],[99,103],[5,63],[-60,29],[-66,-6],[-72,-69],[-124,39],[-3,29]],[[5295,6881],[-19,93],[33,45],[-13,33],[34,33],[-14,74],[54,11],[50,-28],[35,9]],[[5455,7151],[4,-42],[57,-31],[55,30],[38,-27],[68,22],[14,47],[71,-9],[59,24],[90,14],[51,28],[103,-25],[36,2],[92,-67]],[[6193,7117],[9,-78],[-14,-108],[77,-222],[-10,-99],[48,-293],[39,-88],[48,-24]],[[4188,9758],[-17,-28],[-12,-141],[-30,-92],[0,-50],[-82,15],[-32,-10],[-58,-135],[-13,-54],[37,-78],[4,-56],[122,-254],[28,-39],[-93,-136],[-30,-68],[-111,-50],[-54,16],[17,-97],[-26,-62],[39,-22],[18,-70],[-27,-58],[21,-100],[47,-67],[24,-71],[-8,-30],[18,-80],[0,-74],[-115,8],[-63,-26],[-79,7],[-21,-31],[36,-42],[1,-87],[-60,-58],[-11,-63],[43,-70],[34,-20],[-38,-111],[-73,-50],[-18,-37]],[[3606,7287],[-95,-36],[-6,-50],[-61,-61],[-54,43],[-23,47],[-48,0],[-55,-28],[-35,99],[-65,82],[-93,-75],[-41,28],[-18,54],[-32,29],[-22,63],[-102,-11],[-57,-107],[-33,0],[-88,46],[10,37],[-77,50],[-83,94],[-78,-1],[-94,-51],[-111,-2],[-72,-126],[-31,-131]],[[2142,7280],[-50,3],[-100,-15],[-74,8],[-70,-21],[-28,75],[-8,76],[-76,44],[-30,54],[22,63],[-34,38],[6,31],[-137,67],[-94,135],[-62,18],[-107,125],[0,66],[-56,11],[-124,43],[0,84],[-38,15],[5,40],[-59,62],[-69,7],[-23,61]],[[936,8370],[28,34],[5,69],[116,213],[72,25],[54,46],[51,18],[9,47],[66,31],[24,53],[41,22],[91,2],[31,22],[70,10],[35,23],[127,-35],[39,40],[68,15],[28,55],[55,3],[61,-58],[101,-68],[90,26],[61,-39],[92,-16],[129,23],[63,-30],[46,34],[124,-64],[104,4],[31,38],[74,-13],[120,16],[11,20],[68,7],[36,-32],[82,11],[-17,68],[-56,40],[15,56],[-28,85],[93,64],[93,109],[34,157],[-10,57],[-30,54],[-94,77],[-33,85],[8,98],[47,66],[-4,90],[66,123],[57,20],[126,-7],[46,-50],[61,-40],[-25,-42],[77,-4],[76,-34],[76,-4],[61,108],[53,-46],[31,14],[39,-54],[-26,-49],[113,-72],[-9,-41],[46,-15],[12,-46],[51,-31]],[[2142,7280],[58,-18],[-5,-66],[-32,-59],[-13,-134],[39,-14],[53,26],[35,-11],[-23,-53],[47,-51],[-4,-40],[-75,19],[-33,-82],[-60,-46],[13,-74],[-67,-119],[-67,-35],[-21,-74],[-3,-110],[38,4],[-12,-62],[-40,-1],[-4,-55],[29,-40],[3,-54],[71,5],[24,33],[50,-26],[25,62],[73,-2],[27,-92],[8,-73],[26,-38],[45,-11],[105,-98],[-30,-32],[10,-188],[-31,-110],[-4,-100],[-25,-119]],[[2372,5342],[-134,30],[-65,41],[-199,-11],[-27,-65],[-46,-34],[-24,12],[-108,-96],[-100,-2],[-24,33],[-82,36],[-23,-18],[11,-54],[-37,-16],[-32,-86],[-3,-82],[-30,-56],[22,-43],[-25,-49],[27,-45],[-55,-19],[56,-86],[65,-55],[22,-116],[58,-35],[40,-69],[40,-18],[67,-115],[28,-76],[44,-46],[-47,-77],[-42,-12],[-34,-111],[65,-69],[-32,-53],[-15,-74],[17,-53],[-25,-52],[-64,-37],[-15,-79],[-114,-101],[-128,13],[-62,-14],[-102,152],[-1,74],[-20,38],[-93,64],[-91,-5],[-17,30],[-60,-33],[-48,-2],[-64,41],[-52,74],[-38,31],[-62,-10],[-30,100],[-56,32],[-9,88],[-32,44],[-88,50],[-89,-14],[-29,48],[-73,-13],[-120,3],[-29,69],[0,52],[40,30],[84,19],[22,44],[55,50],[13,58],[29,47],[8,78],[36,98],[3,57],[77,62],[-25,72],[-3,59],[-28,36],[40,72],[72,23],[16,112],[-116,34],[-48,52],[-55,-9],[-44,56],[-108,57],[-34,47],[-65,37],[22,72],[52,27],[5,40],[40,2],[94,69],[-65,35],[-181,22],[-61,29],[-10,48],[21,44],[-25,69],[36,72],[87,9],[66,-8],[32,39],[61,18],[79,-16],[38,33],[-4,44],[-64,-14],[-30,41],[-8,56],[-41,24],[47,84],[85,80],[-44,125],[13,21],[-62,152],[-18,69],[4,51],[-39,84],[-51,23],[-27,-23],[-62,78],[44,25],[19,50],[74,40],[107,99],[-20,117],[25,42],[216,29],[-11,114],[28,125],[0,45],[40,22],[-23,98],[28,55],[-8,112],[33,36],[22,61],[-25,85],[46,32],[98,9],[48,57],[97,31]],[[10164,141],[38,-60],[-14,-52],[-35,-29],[-42,60],[18,51],[35,30]],[[9995,744],[65,-44],[69,-16],[1,-61],[-112,-8],[-31,26],[27,36],[-19,67]],[[11528,2962],[50,-82],[-21,-17],[14,-57],[-26,-50],[-53,-45],[-36,41],[1,63],[58,40],[-4,40],[29,28],[-12,39]],[[10240,3396],[78,-6],[-18,-50],[-34,18],[-13,-57],[-51,-65],[21,-38],[66,5],[23,-24],[-78,-64],[-33,-8],[-57,-91],[-75,-10],[-45,30],[-12,61],[23,32],[56,29],[52,58],[-12,131],[58,52],[51,-3]],[[5996,1383],[63,19],[22,42],[54,31],[37,58],[50,0],[29,29],[106,7],[76,25],[41,42],[106,55],[25,74],[73,47],[24,35],[116,66],[162,-60],[81,26],[-9,39],[9,86],[42,-20],[46,51],[44,3],[19,37],[0,79],[49,60],[-29,127],[53,19],[65,-20],[15,-60],[54,27],[-31,101],[-60,-19],[-4,45],[108,124],[75,-18],[7,38],[44,56],[-5,37],[140,97]],[[7693,2768],[65,-92],[41,-14],[61,16],[36,-9],[36,52],[41,26],[42,-10],[30,53],[41,35],[112,45],[68,12],[49,-24],[69,-3],[72,20],[42,-9],[45,32],[63,-50],[25,29],[124,69],[18,29],[60,5],[-50,129],[-24,18],[25,74],[-28,53],[64,82],[36,132],[67,48],[-23,88]],[[8900,3604],[92,1],[36,-24],[84,-7],[17,14],[66,-46],[116,119],[49,-16],[56,11],[47,30],[102,6],[196,-12],[57,5],[91,112],[75,55],[99,2],[94,59],[85,29],[61,-25],[59,-43],[58,36],[66,-36],[33,-44],[45,-12],[134,77],[7,43],[73,20],[62,45]],[[10860,4003],[38,-103],[74,6],[-2,-46],[-112,-33],[-60,24],[-72,-31],[-21,-55],[-50,-24],[-58,-2],[-92,18],[-70,38],[-62,-18],[-65,44],[-54,-60],[-47,53],[-37,-19],[-15,-42],[-42,-31],[-10,-74],[10,-66],[-22,-78],[-57,-48],[-60,-79],[-50,-47],[65,-113],[-43,-87],[-53,73],[-74,-80],[31,-37],[47,-1],[-19,-60],[51,-11],[27,-42],[71,-46],[38,-47],[17,67],[78,-36],[-26,-91],[108,-34],[10,-89],[76,17],[11,52],[123,-153],[49,27],[-14,57],[96,-39],[-16,-45],[49,-58],[43,-21],[36,40],[59,29],[6,96],[40,-6],[49,64],[11,-53],[-56,-58],[22,-50],[-26,-81],[88,-25],[31,-31],[63,32],[54,53],[30,-22],[76,17],[-5,141],[95,-59],[94,3],[45,-21],[78,9],[33,19],[38,-44],[63,-10],[1,-75],[22,-55],[-78,-2],[-75,61],[-43,-27],[-45,19],[-107,1],[25,-46],[-42,-68],[-50,13],[13,74],[-54,34],[-83,-17],[-22,-41],[-53,-8],[-22,-83],[-33,12],[-33,-36],[13,-177],[-54,43],[-47,2],[-50,57],[10,69],[-141,8],[45,-93],[11,-77],[-8,-80],[32,-17],[-21,-80],[30,-9],[80,89],[10,-36],[55,-40],[67,25],[5,-29],[-64,-20],[-44,-42],[0,-76],[-49,-10],[-36,-53],[-45,-31],[0,-54],[-32,-32],[-40,51],[-26,-41],[-6,-75],[-33,-2],[-93,-110],[-111,91],[-1,-49],[43,-61],[-9,-56],[-83,-63],[44,-8],[74,31],[27,-37],[-5,-54],[20,-86],[28,-8],[52,118],[50,-27],[19,-40],[39,2],[51,71],[-39,59],[-67,53],[38,39],[58,16],[105,-89],[94,-16],[24,-33],[-25,-80],[-54,-50],[-107,-43],[-40,-27],[-20,-44],[-69,-42],[-43,-67],[43,-33],[-3,-55],[-42,-33],[-77,28],[28,89],[-51,52],[-60,15],[-60,-18],[-14,-27],[23,-82],[-46,-78],[-67,-62],[-66,18],[-20,60],[-33,32],[16,77],[-43,-12],[-31,-50],[25,-46],[0,-67],[-66,34],[-8,37],[-50,15],[-35,-92],[-73,39],[51,72],[-7,83],[-101,12],[-29,-149],[85,-126],[-53,-24],[-45,44],[-35,117],[-51,-7],[-16,-49],[32,-42],[-3,-38],[-70,-46],[29,-62],[31,-10],[43,-69],[-30,-39],[-2,-45],[-42,-34],[20,-30],[82,7],[-3,-51],[-82,-54],[-111,-3],[-32,-29],[-101,-19],[-4,70],[-23,62],[52,93],[-7,96],[-19,21],[-8,85],[-16,34],[39,70],[7,82],[47,64],[-7,24],[59,89],[-12,173],[-34,19],[-64,-60],[-66,24],[-60,-3],[-26,43],[-52,31],[-14,41],[-95,-40],[-69,-47],[-79,31],[-39,-34],[-56,68],[-5,64],[-170,37],[-136,-6],[-62,-37],[-56,13],[-52,-35],[8,-63],[-17,-85],[-33,-23],[-29,-209],[-89,-74],[-30,-62],[3,-58],[-27,-75],[-52,-21],[-98,34],[-48,-32],[-108,-21],[-28,-18],[-142,9],[-116,29],[-70,-16],[-101,17],[-41,30],[-68,-16],[-115,9],[-43,-18],[-38,32],[-61,-11],[-19,-42],[-81,-106],[-95,-77],[-33,15],[-90,-1],[-77,32],[-100,7],[-35,45],[-78,11],[-53,43],[-58,23],[-33,51],[16,39],[-18,43],[23,97],[25,24],[37,96],[-90,57],[-53,52],[12,36],[-91,25],[-89,105],[-80,136]],[[9445,5336],[-91,-20],[-11,-40],[-47,-19],[5,-39],[-38,-38],[-7,-52],[-28,-7],[-35,-79],[19,-70],[43,-66],[-87,-38],[0,-26],[-89,-71],[7,-37],[-87,-102],[93,17],[44,-52],[112,-13],[47,41],[56,-24],[-33,-44],[96,-47],[10,36],[47,2],[72,58],[18,52],[66,32],[84,-3],[-32,-78],[79,-21],[25,22],[65,9],[61,50],[106,-28]],[[10015,4641],[-26,-43],[-86,-7],[-68,-64],[-103,-19],[-28,15],[-83,-52],[-36,-43],[-132,-56],[-94,12],[-81,-18],[-38,-23],[-1,-62],[-67,-2],[-64,-51],[-44,11],[-24,-50],[-56,-57],[-93,-31],[-61,-66],[11,-92],[40,-82],[169,-10],[-57,-27],[-32,-48],[10,-38],[-61,-60],[-10,-74]],[[7693,2768],[27,35],[-7,51],[-39,129],[-57,63],[-10,58],[-42,69],[-14,60],[-47,37],[-53,6],[22,45],[-33,104],[6,68],[28,48],[18,70],[85,-46],[33,35],[79,33],[21,84],[-12,60],[-55,40],[-13,57],[11,89],[34,35],[35,105],[75,30],[29,35],[57,15]],[[10015,4641],[34,-39],[-129,-58],[-32,-36],[0,-53],[-34,-34],[-63,19],[-66,0],[-30,-29],[2,-69],[-74,-42],[10,-38],[-50,-39],[-107,-7],[74,-82],[9,-47],[61,-11],[60,25],[61,-7],[45,60],[79,-74],[68,-16],[48,69],[57,-60],[-32,-89],[19,-18],[67,36],[21,-35],[63,13],[9,70],[48,88],[-27,132],[55,-7],[-3,-132],[20,-55],[38,-32],[4,-53],[37,-28],[55,0],[13,64],[113,-6],[-16,-69],[24,-33],[57,1],[24,54],[34,-20],[74,31],[-1,62],[-37,63],[39,64],[-23,46],[21,25],[92,-6],[-25,-60],[1,-80],[41,-31],[17,-65]],[[10938,4471],[16,-41],[36,-12],[-46,-61],[-48,25],[-23,45],[65,44]],[[10765,5145],[-38,-56],[-52,-23],[3,59],[87,20]],[[5477,4252],[-56,-42],[-10,-35],[-55,-35],[-7,-42],[-50,-69],[46,-77],[-78,-55],[31,-40],[68,4],[-40,-69],[37,-23],[-65,-46],[-18,-57],[-53,-24],[-12,-72],[-106,-21],[-2,-36],[37,-116],[73,10],[41,-30],[11,-47],[101,-21],[51,-49],[51,-12],[27,-160],[-37,-42],[46,-71],[-19,-81],[31,-37],[-28,-75],[-31,-13],[-53,-81],[-19,-55],[-9,-146],[-58,-61],[-30,-12],[24,-78],[-35,-124],[-39,-27],[34,-47],[24,-68],[-12,-23],[20,-81],[4,-89],[-63,-83],[-46,-37],[-9,-39],[83,-64],[-89,-128],[-3,-32],[-93,-61],[-29,-36],[-44,-7],[-63,-44],[-60,0],[-56,-21],[-24,-47]],[[4816,1278],[-62,62],[-107,-7],[-11,44],[-41,44],[-6,40],[-113,97],[-144,47],[-139,146],[-56,12],[-16,67],[17,52],[-89,-25],[-60,91],[-38,119],[12,106],[-14,37],[0,156],[-44,78],[-21,99],[62,70],[-39,16],[-12,60],[43,41],[-53,21],[4,36],[88,17],[45,68],[21,86],[-60,36],[-87,24],[-10,69],[14,75],[-66,58],[-48,92],[-64,37],[-44,60],[18,74],[-40,70],[-14,104],[-34,134],[7,27],[-64,49],[-123,146],[20,29],[-51,48]],[[3397,4090],[50,65],[14,49],[46,30],[161,-23],[30,-21],[101,33],[8,43],[37,33],[48,108],[63,62],[-4,121],[35,13]],[[3986,4603],[130,22],[87,-79],[104,29],[176,-174],[71,21],[126,22],[45,-47],[49,23],[31,-17],[61,9],[52,58],[-58,60],[13,31],[53,-5],[61,50],[41,13],[43,88],[18,80],[39,50],[65,18],[28,72],[87,-7],[58,20],[94,10],[63,-7],[47,-44],[58,-4],[55,24],[63,-14],[53,-47],[39,-78]],[[6636,10845],[45,-114],[-3,-55],[27,-137],[45,-57],[-21,-32],[29,-60],[2,-71],[-16,-42],[116,-95],[66,-14],[23,-39],[-31,-79],[-26,-32],[15,-112],[37,-32],[17,-87],[55,-9],[30,17],[68,-75],[-43,-183],[-25,-28]],[[7046,9509],[-24,9],[-88,-36],[-60,-74],[-53,-23],[-52,-83],[-44,-40],[0,-42],[-69,-150],[-87,-162],[-51,-39],[-11,-54],[26,-65],[20,-160],[-67,6],[-48,-26],[-76,53],[-81,8],[1,35],[-68,56],[-44,11],[-35,37],[-62,4],[-91,124],[-78,15],[-17,27],[-53,8],[-66,116],[-16,91]],[[5752,9155],[-60,58],[-56,86],[-21,-30],[-79,9],[-17,63],[23,35],[-24,32],[-44,2],[-56,45],[27,46],[7,66],[116,46]],[[5568,9613],[55,27],[-41,67],[-27,9],[-26,62],[-3,105],[352,307],[54,-64],[52,82],[12,110],[85,73],[-38,25],[18,45],[35,10],[9,47],[71,-52],[29,21],[-23,102],[90,22],[-75,81],[28,85],[52,0],[18,39],[70,-61],[135,54],[-26,83],[81,-52],[15,34],[66,-29]],[[7046,9509],[1,-69],[-35,-98],[1,-102],[29,-49],[15,-101],[74,-101],[-14,-57],[47,-35],[17,-149],[-5,-33],[33,-41],[-25,-35],[44,-123],[87,1],[2,-45],[95,-9],[27,-95],[38,-19],[151,1],[41,14],[25,-33],[-61,-84],[2,-55],[-23,-45],[116,-41],[119,39],[67,2],[15,57],[55,38],[38,46],[115,15],[106,-41]],[[8243,8262],[-49,-67],[-33,-75],[-37,-124],[-20,-169],[-21,-38],[-90,-7],[-48,9],[-49,36],[-89,37],[1,51],[-103,61],[-41,5],[-23,-36],[-116,17],[-49,23],[-9,-85],[-50,-20],[-19,-34],[95,-52],[7,-85],[78,-74],[-3,-108],[-21,-83],[-68,5],[-24,-25],[-103,12],[-54,-29]],[[7305,7407],[-18,56],[4,100],[-42,49],[-65,-14],[-65,51],[-83,28],[-68,-67],[-90,-10],[-26,99],[-65,-10],[-28,27],[26,92],[-35,54],[46,35],[-43,67],[-29,70],[-89,-18],[-9,-83],[-55,-45],[-45,-11],[-14,-44],[-80,-62],[25,-84],[-115,-2],[-22,-62],[-96,2],[-48,-26],[-39,15],[-56,-15],[-27,-54],[-40,32],[-40,-14],[-132,65],[-48,11],[3,-74],[-36,-85],[30,-52],[-165,-194],[-18,7]],[[5608,7241],[-19,85],[-52,89],[-162,35],[-14,61],[49,105],[20,85],[58,36],[-23,129],[68,32],[-2,48],[45,51],[-13,77],[47,43],[-13,104],[-42,42],[16,44],[-47,124],[14,67],[-40,70],[-62,19],[-21,60],[-48,32],[45,135],[56,20],[41,67],[39,-2],[112,-46],[3,104],[-47,9],[-6,51],[-43,39],[63,43],[83,22],[39,34]],[[5295,6881],[-103,4],[-53,15],[-68,-18],[3,-45],[-64,-57],[-84,-11],[-35,-57],[-44,35],[-131,28],[-32,17]],[[4684,6792],[-53,34],[-132,26],[-40,54],[-2,48],[-46,59],[-42,-19],[-80,10],[-101,-18],[-65,71],[-1,31],[-36,69],[-64,32],[-16,40],[-60,18],[-37,34],[-64,15],[-11,-56],[-103,-3],[-30,52],[-95,-2]],[[4188,9758],[110,-20],[42,23],[75,-3],[69,14],[58,-13],[30,24],[132,-24],[3,-54],[37,-31],[92,-5],[82,49],[128,-6],[21,39],[62,-46],[118,2],[109,-46],[66,16],[68,-5],[10,-46],[68,-13]],[[5608,7241],[-52,-34],[-76,-26],[-25,-30]],[[5996,1383],[-110,-69],[-81,-24],[-99,11],[-61,-15],[-52,-116],[-53,-23],[-40,-50],[-47,16],[-96,-13],[-50,15],[-50,-27],[-57,8],[-44,-31],[-52,5],[-132,-69],[-69,19],[-72,64],[18,70],[-7,84],[-26,40]],[[3986,4603],[21,151],[90,74],[54,61],[121,91],[114,45],[46,-22],[88,60],[21,50],[60,58],[-52,47],[-89,-66],[-118,86],[59,21],[41,-28],[21,98],[-129,97],[-38,-14],[-11,50],[-50,109],[-21,70],[-74,91],[-39,91],[96,54],[48,54],[19,48],[73,52]],[[4337,6031],[8,113],[32,58],[110,88],[164,194],[31,54],[-148,125],[78,21],[8,39],[45,22],[19,47]],[[6636,10845],[32,14],[68,80],[58,8],[43,-131],[85,3],[-20,61],[2,71],[76,60],[42,2],[69,-60],[73,-15],[53,15],[-2,-94],[48,-23],[50,2],[22,44],[39,-71],[52,0],[3,57],[48,32],[67,-107],[48,-17],[-18,-46],[8,-48],[42,-26],[24,64],[61,40],[59,-69],[-7,-39],[44,-29],[25,-88],[93,-115],[49,22],[34,-18],[24,-104],[16,-23],[33,-167],[58,-101],[67,-4],[100,-177],[42,-14],[34,-76],[-9,-69],[34,-90],[34,-44],[8,-185],[33,-36],[-17,-67],[-32,-26],[-63,-206],[-30,-177],[13,-106],[78,28],[-3,-327],[-106,13],[-40,-108],[-5,-63],[-32,-33]],[[7808,11537],[107,-22],[10,-30],[56,-20],[-49,-47],[-82,-31],[-50,-82],[-46,-15],[-70,50],[-111,4],[-119,-55],[-18,45],[63,31],[66,78],[89,-3],[60,73],[56,40],[38,-16]],[[7305,7407],[-24,-11],[-112,2],[-39,-13],[-20,-79],[28,-40],[-19,-110],[-57,-28],[-53,-7],[-93,19],[-118,42],[-86,-26],[-87,58],[-1,35],[-39,84],[-149,22],[-155,-66],[-65,-14],[-4,-116],[-19,-42]],[[3397,4090],[-65,-43],[-72,60],[-34,44],[-22,75],[24,80],[-21,35],[6,55],[-64,70],[-24,62],[21,35],[9,103],[-52,135],[-33,11],[-90,91],[-1,59],[-91,50],[-37,6],[-10,50],[-36,28],[-72,9],[-25,29],[-26,112],[-41,34]],[[2641,5280],[49,177],[55,93],[18,98],[60,102],[3,32],[116,101],[14,124],[59,58],[48,1],[54,26],[46,-3],[44,149],[122,74],[13,60],[100,37],[34,-16],[28,32],[8,78],[83,66],[59,16],[103,-14],[46,41],[97,29],[1,-55],[53,-59],[60,-151],[-27,-65],[59,-36],[61,36],[27,-23],[9,-66],[-26,-42],[144,-8],[76,-141]],[[2641,5280],[-107,52],[-38,-31],[-124,41]]],"transform":{"scale":[0.00010845373734637612,0.00008878604672229457],"translate":[130.82474980446,32.71446813519634]},"objects":{"municipalities":{"type":"GeometryCollection","geometries":[{"arcs":[[[0]],[[1,2,3,4,5,6]]],"type":"MultiPolygon","properties":{"code5":"44201","name":"大分市"}},{"arcs":[[-6,7,8,9,10]],"type":"Polygon","properties":{"code5":"44202","name":"別府市"}},{"arcs":[[11,12,13,14]],"type":"Polygon","properties":{"code5":"44203","name":"中津市"}},{"arcs":[[-14,15,16]],"type":"Polygon","properties":{"code5":"44204","name":"日田市"}},{"arcs":[[[17]],[[18]],[[19]],[[20]],[[21,22,23,24]]],"type":"MultiPolygon","properties":{"code5":"44205","name":"佐伯市"}},{"arcs":[[-2,25,26,-23,27]],"type":"Polygon","properties":{"code5":"44206","name":"臼杵市"}},{"arcs":[[[-24,-27,28]],[[29]],[[30]]],"type":"MultiPolygon","properties":{"code5":"44207","name":"津久見市"}},{"arcs":[[-4,31,32,33,34]],"type":"Polygon","properties":{"code5":"44208","name":"竹田市"}},{"arcs":[[35,36,37,38]],"type":"Polygon","properties":{"code5":"44209","name":"豊後高田市"}},{"arcs":[[-37,39,40,41,42]],"type":"Polygon","properties":{"code5":"44210","name":"杵築市"}},{"arcs":[[-9,43,44,-12,45,-38,-43,46]],"type":"Polygon","properties":{"code5":"44211","name":"宇佐市"}},{"arcs":[[-3,-28,-22,47,-32]],"type":"Polygon","properties":{"code5":"44212","name":"豊後大野市"}},{"arcs":[[-5,-35,48,49,-44,-8]],"type":"Polygon","properties":{"code5":"44213","name":"由布市"}},{"arcs":[[-36,50,-40]],"type":"Polygon","properties":{"code5":"44214","name":"国東市"}},{"arcs":[[51]],"type":"Polygon","properties":{"code5":"44322","name":"姫島村"}},{"arcs":[[-10,-47,-42,52]],"type":"Polygon","properties":{"code5":"44341","name":"日出町"}},{"arcs":[[-34,53,54,-49]],"type":"Polygon","properties":{"code5":"44461","name":"九重町"}},{"arcs":[[-13,-45,-50,-55,55,-16]],"type":"Polygon","properties":{"code5":"44462","name":"玖珠町"}}]}}}